{
  "type": "FeatureCollection",
  "features": [
    {
      "type": "Feature",
      "properties": {
        "track_id": "BH-0",
        "route_id": "BH",
        "direction": 0,
        "golden": true,
        "source": "handdrawn_only"
      },
      "geometry": {
        "type": "LineString",
        "coordinates": [
          [
            121.827762,
            24.608827
          ],
          [
            121.8294291,
            24.604794100000003
          ],
          [
            121.8310962,
            24.6007612
          ],
          [
            121.83276330000001,
            24.596728300000002
          ],
          [
            121.8344304,
            24.5926954
          ],
          [
            121.8360975,
            24.5886625
          ],
          [
            121.8377646,
            24.584629600000003
          ],
          [
            121.8394317,
            24.5805967
          ],
          [
            121.8410988,
            24.576563800000002
          ],
          [
            121.84276589999999,
            24.5725309
          ],
          [
            121.844433,
            24.568498
          ],
          [
            121.84316545454546,
            24.563923454545456
          ],
          [
            121.8418979090909,
            24.55934890909091
          ],
          [
            121.84063036363636,
            24.554774363636366
          ],
          [
            121.83936281818181,
            24.55019981818182
          ],
          [
            121.83809527272727,
            24.545625272727275
          ],
          [
            121.83682772727272,
            24.541050727272726
          ],
          [
            121.83556018181818,
            24.53647618181818
          ],
          [
            121.83429263636363,
            24.531901636363635
          ],
          [
            121.83302509090909,
            24.52732709090909
          ],
          [
            121.83175754545454,
            24.522752545454544
          ],
          [
            121.83049,
            24.518178
          ],
          [
            121.82821953846154,
            24.513939846153846
          ],
          [
            121.82594907692308,
            24.50970169230769
          ],
          [
            121.82367861538461,
            24.505463538461537
          ],
          [
            121.82140815384615,
            24.501225384615385
          ],
          [
            121.81913769230769,
            24.49698723076923
          ],
          [
            121.81686723076923,
            24.492749076923076
          ],
          [
            121.81459676923076,
            24.488510923076923
          ],
          [
            121.8123263076923,
            24.48427276923077
          ],
          [
            121.81005584615384,
            24.480034615384614
          ],
          [
            121.80778538461539,
            24.47579646153846
          ],
          [
            121.80551492307691,
            24.47155830769231
          ],
          [
            121.80324446153845,
            24.467320153846153
          ],
          [
            121.800974,
            24.463082
          ],
          [
            121.7984577,
            24.4616501
          ],
          [
            121.7959414,
            24.4602182
          ],
          [
            121.7934251,
            24.4587863
          ],
          [
            121.7909088,
            24.4573544
          ],
          [
            121.7883925,
            24.4559225
          ],
          [
            121.7858762,
            24.4544906
          ],
          [
            121.78335990000001,
            24.4530587
          ],
          [
            121.7808436,
            24.4516268
          ],
          [
            121.7783273,
            24.4501949
          ],
          [
            121.775811,
            24.448763
          ],
          [
            121.77552552,
            24.44422532
          ],
          [
            121.77524004,
            24.43968764
          ],
          [
            121.77495456,
            24.43514996
          ],
          [
            121.77466908000001,
            24.43061228
          ],
          [
            121.77438360000001,
            24.4260746
          ],
          [
            121.77409812,
            24.42153692
          ],
          [
            121.77381264,
            24.41699924
          ],
          [
            121.77352716,
            24.41246156
          ],
          [
            121.77324168,
            24.40792388
          ],
          [
            121.77295620000001,
            24.4033862
          ],
          [
            121.77267072000001,
            24.39884852
          ],
          [
            121.77238524,
            24.39431084
          ],
          [
            121.77209976,
            24.38977316
          ],
          [
            121.77181428,
            24.38523548
          ],
          [
            121.7715288,
            24.3806978
          ],
          [
            121.77124332000001,
            24.37616012
          ],
          [
            121.77095784000001,
            24.37162244
          ],
          [
            121.77067236,
            24.36708476
          ],
          [
            121.77038688,
            24.36254708
          ],
          [
            121.7701014,
            24.3580094
          ],
          [
            121.76981592,
            24.35347172
          ],
          [
            121.76953044000001,
            24.34893404
          ],
          [
            121.76924496000001,
            24.34439636
          ],
          [
            121.76895948,
            24.33985868
          ],
          [
            121.768674,
            24.335321
          ],
          [
            121.767286,
            24.3315791
          ],
          [
            121.765898,
            24.3278372
          ],
          [
            121.76451,
            24.3240953
          ],
          [
            121.76312200000001,
            24.320353400000002
          ],
          [
            121.761734,
            24.3166115
          ],
          [
            121.760346,
            24.3128696
          ],
          [
            121.758958,
            24.3091277
          ],
          [
            121.75757,
            24.3053858
          ],
          [
            121.75618200000001,
            24.301643900000002
          ],
          [
            121.754794,
            24.297902
          ],
          [
            121.75243326511102,
            24.291155593584868
          ],
          [
            121.74936032169362,
            24.28564000591954
          ],
          [
            121.74656595615077,
            24.280590236945642
          ],
          [
            121.74586736476513,
            24.27921037574469
          ],
          [
            121.74531599804067,
            24.277964717528032
          ],
          [
            121.74391881526924,
            24.273661639095273
          ],
          [
            121.74215806984782,
            24.26779202466114
          ],
          [
            121.74039732430941,
            24.263275879203
          ],
          [
            121.73852990944047,
            24.25970758394341
          ],
          [
            121.73656313723677,
            24.256863954410516
          ],
          [
            121.73503277718888,
            24.255024270249855
          ],
          [
            121.73311568365244,
            24.25309643731731
          ],
          [
            121.73039335535913,
            24.250871557446317
          ],
          [
            121.72767102706581,
            24.24917558642844
          ],
          [
            121.72442580453799,
            24.24847148742289
          ],
          [
            121.72108658741655,
            24.24759598465718
          ],
          [
            121.71886354231899,
            24.246163230219253
          ],
          [
            121.71630463994903,
            24.244694620561113
          ],
          [
            121.71426679431283,
            24.243357982956
          ],
          [
            121.71324507446766,
            24.24251912422592
          ],
          [
            121.71245493539386,
            24.24141631661125
          ],
          [
            121.70821482941821,
            24.23473609530701
          ],
          [
            121.70562460862817,
            24.232776553615636
          ],
          [
            121.70262802918661,
            24.230446459062954
          ],
          [
            121.70003812400756,
            24.227639055567046
          ],
          [
            121.69504780173352,
            24.22305024312045
          ],
          [
            121.69206387529822,
            24.220036437632416
          ],
          [
            121.68802622602587,
            24.217112529351656
          ],
          [
            121.6822874897232,
            24.213071464120176
          ],
          [
            121.68020086081644,
            24.212329972177553
          ],
          [
            121.67791105258411,
            24.211773786292333
          ],
          [
            121.67424574308522,
            24.210360295749737
          ],
          [
            121.67299087954308,
            24.20985044582603
          ],
          [
            121.67163442633802,
            24.20873833984681
          ],
          [
            121.66950566048851,
            24.20577287934202
          ],
          [
            121.6627909546936,
            24.19641906710804
          ],
          [
            121.66063548963639,
            24.191806031007175
          ],
          [
            121.65992068896173,
            24.191314197368612
          ],
          [
            121.65932420871641,
            24.190757605837334
          ],
          [
            121.65914184997106,
            24.190352126924132
          ],
          [
            121.65914880391134,
            24.189989820240328
          ],
          [
            121.65925041419436,
            24.189703065058502
          ],
          [
            121.65944668082004,
            24.18950265481043
          ],
          [
            121.65987128499683,
            24.189194787795195
          ],
          [
            121.65989467519134,
            24.18881372351853
          ],
          [
            121.65814387801487,
            24.184632210321983
          ],
          [
            121.65809773050879,
            24.182422374757145
          ],
          [
            121.65804088343442,
            24.181050439866016
          ],
          [
            121.65791648971413,
            24.180376861543735
          ],
          [
            121.65737388374554,
            24.178576061861477
          ],
          [
            121.65689393538833,
            24.177004754529968
          ],
          [
            121.65648417472417,
            24.175454790914667
          ],
          [
            121.65583669820703,
            24.172270380620297
          ],
          [
            121.65569209854446,
            24.17149454750283
          ],
          [
            121.65538917481615,
            24.169958263122915
          ],
          [
            121.65496959096893,
            24.167803333292134
          ],
          [
            121.65472263798011,
            24.166589215161622
          ],
          [
            121.65443843226828,
            24.165298624256035
          ],
          [
            121.65403765809245,
            24.163023335306264
          ],
          [
            121.6539892596864,
            24.162529455338614
          ],
          [
            121.65397927652631,
            24.16213634298703
          ],
          [
            121.65404574451456,
            24.16133259372871
          ],
          [
            121.65412165765505,
            24.160591608750156
          ],
          [
            121.65424748481735,
            24.160184595764832
          ],
          [
            121.65462392419255,
            24.15889238237829
          ],
          [
            121.6550003635677,
            24.157702638782965
          ],
          [
            121.65517610475166,
            24.157005295585876
          ],
          [
            121.65526449639816,
            24.15642180952808
          ],
          [
            121.65525114313233,
            24.15559228127959
          ],
          [
            121.65501593907092,
            24.15484428584719
          ],
          [
            121.65460684745743,
            24.1538797990264
          ],
          [
            121.64777952014566,
            24.141454033970653
          ],
          [
            121.64549445963368,
            24.137467751491805
          ],
          [
            121.64384239949881,
            24.133930756043604
          ],
          [
            121.64083719607319,
            24.128413278317804
          ],
          [
            121.64078848393049,
            24.12844111818367
          ],
          [
            121.63860170192963,
            24.124314211011395
          ],
          [
            121.63808084257033,
            24.123480746008106
          ],
          [
            121.6375753205769,
            24.122801257893027
          ],
          [
            121.63725924626195,
            24.122380266382557
          ],
          [
            121.63669388153174,
            24.12189101853584
          ],
          [
            121.63579197474075,
            24.121185624254046
          ],
          [
            121.6349648550744,
            24.12063949610191
          ],
          [
            121.63307378984713,
            24.119331090413656
          ],
          [
            121.63115600966267,
            24.118037150649855
          ],
          [
            121.63000483786863,
            24.11719890748795
          ],
          [
            121.62876250769314,
            24.116320727693427
          ],
          [
            121.62637850346042,
            24.11456401774549
          ],
          [
            121.62494199067021,
            24.11350294099541
          ],
          [
            121.62372587679737,
            24.112628661558304
          ],
          [
            121.62222809333346,
            24.111525469639336
          ],
          [
            121.62081349426893,
            24.11047059472238
          ],
          [
            121.61938442074322,
            24.109363486416207
          ],
          [
            121.61855062843674,
            24.108566827557375
          ],
          [
            121.61794089994554,
            24.107804726896937
          ],
          [
            121.61753177755472,
            24.107196774904494
          ],
          [
            121.61708912822854,
            24.10642673382896
          ],
          [
            121.61623195570567,
            24.104626809484582
          ],
          [
            121.61518415951463,
            24.102397242384654
          ],
          [
            121.61420466390463,
            24.100480685370464
          ],
          [
            121.6136432191393,
            24.0991903557687
          ],
          [
            121.61322908447593,
            24.098232822447002
          ],
          [
            121.61196068866036,
            24.094451691264076
          ],
          [
            121.61069229284479,
            24.09067056008115
          ],
          [
            121.60984311739311,
            24.0879727109442
          ],
          [
            121.60940589944397,
            24.086628659462946
          ],
          [
            121.60910723768905,
            24.085749515912354
          ],
          [
            121.60897380682422,
            24.085282119215208
          ],
          [
            121.60867406982041,
            24.084072805430317
          ],
          [
            121.60855986933254,
            24.083636077913706
          ],
          [
            121.60848341877868,
            24.08319112848538
          ],
          [
            121.60825890268586,
            24.081991988051165
          ],
          [
            121.6080532609171,
            24.080782759925768
          ],
          [
            121.6073981358229,
            24.077117092722773
          ],
          [
            121.60707229237272,
            24.075223842102446
          ],
          [
            121.60674159000463,
            24.073334932569423
          ],
          [
            121.60610224819425,
            24.069713057148522
          ],
          [
            121.6055287583452,
            24.06649992494006
          ],
          [
            121.60520747006716,
            24.06435819149378
          ],
          [
            121.60472504133705,
            24.06158120805443
          ],
          [
            121.60424261260695,
            24.05880422461508
          ],
          [
            121.60306681373869,
            24.052073355143474
          ],
          [
            121.60280595642794,
            24.05073074708794
          ],
          [
            121.60240646277302,
            24.048383878412743
          ],
          [
            121.60181814751087,
            24.044837868385102
          ],
          [
            121.6014071789699,
            24.042507432755023
          ],
          [
            121.60120757187644,
            24.04134033228499
          ],
          [
            121.6011144044797,
            24.04075684730323
          ],
          [
            121.60106055267292,
            24.04043319232955
          ],
          [
            121.60102618622207,
            24.040073018575544
          ],
          [
            121.60098670783489,
            24.03930291355571
          ],
          [
            121.60098755015258,
            24.038933234090475
          ],
          [
            121.60100964601178,
            24.03852204694438
          ],
          [
            121.60111287451826,
            24.036669922580366
          ],
          [
            121.60136352547073,
            24.032694924627478
          ],
          [
            121.60150215288706,
            24.02998420922635
          ],
          [
            121.60161464193109,
            24.028662762250732
          ],
          [
            121.60174821703812,
            24.027809400128795
          ],
          [
            121.60183003204168,
            24.02740705319277
          ],
          [
            121.60223890098976,
            24.02593989525412
          ],
          [
            121.60268593762991,
            24.024600294269142
          ],
          [
            121.60290717497998,
            24.023909611960747
          ],
          [
            121.60310305105583,
            24.02322856286583
          ],
          [
            121.60325018288206,
            24.0225519750079
          ],
          [
            121.60337924398377,
            24.021878503415728
          ],
          [
            121.60377518099453,
            24.0196164490538
          ],
          [
            121.60419436339748,
            24.017228738324896
          ],
          [
            121.60440312314199,
            24.016153532023925
          ],
          [
            121.60465018153621,
            24.01484463726061
          ],
          [
            121.6048715906928,
            24.013449798403183
          ],
          [
            121.6050592999568,
            24.012429075574083
          ],
          [
            121.60577680291664,
            24.008597505270842
          ],
          [
            121.60605655228836,
            24.006697486092566
          ],
          [
            121.60622464744458,
            24.00489728518668
          ],
          [
            121.60622221387723,
            24.004642262175928
          ],
          [
            121.60619851336097,
            24.004362410122106
          ],
          [
            121.60614712613437,
            24.004034341253252
          ],
          [
            121.60608427443114,
            24.00376518340571
          ],
          [
            121.60597494971276,
            24.00331806637592
          ],
          [
            121.60585313923625,
            24.002945069980665
          ],
          [
            121.60549626112143,
            24.002186418109616
          ],
          [
            121.60511120539714,
            24.001427488490734
          ],
          [
            121.60348138771968,
            23.998046755086953
          ],
          [
            121.60231565146077,
            23.995711145718474
          ],
          [
            121.60166689512954,
            23.99434675228662
          ],
          [
            121.60142552372346,
            23.993843478914606
          ],
          [
            121.60115150272624,
            23.99331479784791
          ],
          [
            121.60023003127745,
            23.991408626006766
          ],
          [
            121.59934975155718,
            23.98964266709986
          ],
          [
            121.59616010052927,
            23.983211621302488
          ],
          [
            121.59470550169755,
            23.98030354794534
          ],
          [
            121.59396982139145,
            23.978774315108303
          ],
          [
            121.59358747840406,
            23.97800409059695
          ],
          [
            121.59321056104096,
            23.97726012315617
          ],
          [
            121.59299256409346,
            23.976829342773527
          ],
          [
            121.5927567299283,
            23.97634423558033
          ],
          [
            121.59235196074499,
            23.975454750264596
          ],
          [
            121.59224483944467,
            23.975222956104595
          ],
          [
            121.59214311583919,
            23.975008815003186
          ],
          [
            121.59195873868708,
            23.974601224543612
          ],
          [
            121.59184634493813,
            23.974435881144878
          ],
          [
            121.59174775090045,
            23.974290906390117
          ],
          [
            121.5916418831769,
            23.97416220959669
          ],
          [
            121.59152964635587,
            23.974041272306557
          ],
          [
            121.59138360761781,
            23.973886153381095
          ],
          [
            121.59114319585744,
            23.973673546765593
          ],
          [
            121.59079561706659,
            23.973382006075752
          ],
          [
            121.59022660105074,
            23.9729660754905
          ],
          [
            121.58970585698859,
            23.97262182020122
          ],
          [
            121.58817706265526,
            23.971614993313956
          ],
          [
            121.58736720217352,
            23.97106823851431
          ],
          [
            121.58644750393216,
            23.97041055468597
          ],
          [
            121.58556092555924,
            23.969766735658908
          ],
          [
            121.58517895928975,
            23.969514869415548
          ],
          [
            121.58450789926867,
            23.96905887728133
          ],
          [
            121.58255953418839,
            23.967679182510103
          ]
        ]
      }
    }
  ]
}