{"type": "FeatureCollection", "features": [{"type": "Feature", "properties": {"track_id": "PT-1", "route_id": "PT", "direction": 1, "name": "屏東線 (枋寮→新左營)"}, "geometry": {"type": "LineString", "coordinates": [[120.59534596158534, 22.368194208042194], [120.5935821493177, 22.370534412034022], [120.59325127005829, 22.370973408002005], [120.59306920013775, 22.371214967968356], [120.59243696814947, 22.37206698145451], [120.5915120637255, 22.37333320954977], [120.59151168837175, 22.373333723385304], [120.59117556909204, 22.373793876305335], [120.5884073946612, 22.377479731752796], [120.58837042073837, 22.377528961094097], [120.58530615123267, 22.38160877924025], [120.5852680929137, 22.381659449140038], [120.5846565957928, 22.382473569851925], [120.58462288730406, 22.38251844726531], [120.58393994203438, 22.383427674993808], [120.5838845485471, 22.383501420896362], [120.58305549558288, 22.38460806783441], [120.58129062432504, 22.38696380076632], [120.58124691599936, 22.387022213777186], [120.5811530697839, 22.387147630802964], [120.58110705632868, 22.387209124687814], [120.58077202205376, 22.38765686809245], [120.58045266049736, 22.388082106682305], [120.58031774716608, 22.38826174598205], [120.58001641583527, 22.388622325444693], [120.57979283736788, 22.388916214988974], [120.5796718653468, 22.389080140899658], [120.5795210492586, 22.38928015164945], [120.57802471247739, 22.39127810886131], [120.57727654408683, 22.392285152987675], [120.57690536766458, 22.392799429039062], [120.57654000678849, 22.393300262419345], [120.57627926846234, 22.39365276517566], [120.57603888454759, 22.39396494053481], [120.57578832342713, 22.39429996804646], [120.57554648562787, 22.394616176175795], [120.57520579123081, 22.39506888382717], [120.57502526682758, 22.395303975151897], [120.5748621890626, 22.39552562417224], [120.57388495170756, 22.3968560050115], [120.57365367095726, 22.39717169854425], [120.57352062007422, 22.397325527879346], [120.57325913007884, 22.39761983938494], [120.57274482792164, 22.398330487365733], [120.57248767684297, 22.39868926181323], [120.57232800081707, 22.398916955837034], [120.57214842047664, 22.39913314807452], [120.57163721403296, 22.399775518198332], [120.5711286199282, 22.400405097022947], [120.57101353115526, 22.400551881765637], [120.57052772051216, 22.401026769347407], [120.57040682055012, 22.401141959038874], [120.5702932125677, 22.401239812893095], [120.57017273923555, 22.40133981073853], [120.5700720584162, 22.401426806720686], [120.56979258064933, 22.401661488187894], [120.56940520783786, 22.401902339305373], [120.56894236437387, 22.402172441506934], [120.56856861703955, 22.40239120738833], [120.56811010115993, 22.40264062761476], [120.56771667926597, 22.40285417053891], [120.56673007503912, 22.403391267734584], [120.56629971547162, 22.403625101652494], [120.56586935590411, 22.40384577002202], [120.56493146660063, 22.404359589727306], [120.56400608286066, 22.404861853711807], [120.56279096734502, 22.40552603457934], [120.56160763677133, 22.406173890185936], [120.56038511639022, 22.40684127607637], [120.55978185143185, 22.40717160028371], [120.55945147722605, 22.40735194618518], [120.55917365932243, 22.407504961247135], [120.55767329293963, 22.408322969888584], [120.55710561709267, 22.40864231592878], [120.55653578532008, 22.408955682573477], [120.55507070404562, 22.409749355830616], [120.5547017896443, 22.409953935820212], [120.55435686929458, 22.41013879846404], [120.55397995687886, 22.410349540090934], [120.55360704346941, 22.41054919073263], [120.55268796984456, 22.41103158613741], [120.55191299916447, 22.41142146810253], [120.55124756081028, 22.411785903818327], [120.5509063540834, 22.41197271466061], [120.54928500496732, 22.41286072796901], [120.54845605996536, 22.413321651061167], [120.54800697453456, 22.413568111640142], [120.54757785810352, 22.413801034458636], [120.54336490078532, 22.416081913079065], [120.53902146032706, 22.418436184869883], [120.53691839408818, 22.419584170183267], [120.5356303566511, 22.42028691008243], [120.5344027592053, 22.420958069563085], [120.53336638635277, 22.421524080410293], [120.5323604619031, 22.422076017962354], [120.53133009853157, 22.422632732796586], [120.53100293272888, 22.422824594768073], [120.53072017647187, 22.422998667552704], [120.53028345165927, 22.423226394165752], [120.52825096138429, 22.424287951324345], [120.52715641048465, 22.424857748738297], [120.52651569572434, 22.42519639079696], [120.52627488205314, 22.42533500072748], [120.52605323515729, 22.425455893322606], [120.52467142648511, 22.42621803133166], [120.52331012570247, 22.426962566496947], [120.5218235596772, 22.427782274467187], [120.52140352580454, 22.428012979283842], [120.52103290694077, 22.4282141282373], [120.52057072497041, 22.428470358435725], [120.52017830536761, 22.42869031556299], [120.51897447934844, 22.429356286526453], [120.51779117296391, 22.429999075187276], [120.51652918668488, 22.430679806248428], [120.51590845336273, 22.431021225495122], [120.51559352678285, 22.431200364926745], [120.51528202014202, 22.431370020790286], [120.5138619626331, 22.43209038356353], [120.51337245026768, 22.432379051195298], [120.51277721972541, 22.43271042910394], [120.51249305375903, 22.432874990537332], [120.51231512296897, 22.433000313169362], [120.51210210494345, 22.433160590307832], [120.51188712335966, 22.433341630139108], [120.51170727050749, 22.433511204284052], [120.51153289966491, 22.433707287654258], [120.51138511491048, 22.433896836854863], [120.51123190726479, 22.434115447965944], [120.5110958161921, 22.43433133908036], [120.5109926264798, 22.434524188302856], [120.5108028469525, 22.434976880133092], [120.51068205530532, 22.435412701959507], [120.51064261586434, 22.435614820360662], [120.51061656751129, 22.43582569889174], [120.51059310858916, 22.436213722006116], [120.51069208233662, 22.440653649732724], [120.51086941443245, 22.447837516778307], [120.51088083561652, 22.448145730412378], [120.51088775686416, 22.448332507827395], [120.5108877941888, 22.448333500461153], [120.51089114122352, 22.448423819143468], [120.51092147542431, 22.448963533398476], [120.51099131612476, 22.450006373797503], [120.51101105881409, 22.451249873790328], [120.51101292975096, 22.4513677292769], [120.51101644338684, 22.45158900872441], [120.51106394029581, 22.453656168368635], [120.51110348224613, 22.45519995556455], [120.5111067827937, 22.455306640220975], [120.51119385467801, 22.459461729070497], [120.5112574951329, 22.46194052398887], [120.51135517046765, 22.46403728076246], [120.51136691790879, 22.464906382533975], [120.51139238457542, 22.465984172313416], [120.51140252485247, 22.466175186530563], [120.51142511384454, 22.466805633327212], [120.5114203134396, 22.468510275806842], [120.51147267737055, 22.471333422206744], [120.5115136475893, 22.472923997824513], [120.5115278224379, 22.47333353874161], [120.51157468832315, 22.47535939001105], [120.51157868578615, 22.47540631685387], [120.51160373567978, 22.47678417745828], [120.5116075814738, 22.476845547262283], [120.5116494650906, 22.47871351999459], [120.51165201551783, 22.478817302190294], [120.51172181104839, 22.481926687634683], [120.51172397104055, 22.482009638402012], [120.5117485123249, 22.483026315192642], [120.51175207011799, 22.48312358445528], [120.5118413793261, 22.486467192529318], [120.51184106579821, 22.486556602016126], [120.51186485258285, 22.487473331679727], [120.51191124723633, 22.488817801971564], [120.51195426974178, 22.48954210299051], [120.51200284716164, 22.490513267250815], [120.51202812688676, 22.49071236890343], [120.5120267303992, 22.49077139000167], [120.51203725433128, 22.4908377388819], [120.51203446135428, 22.490955781979416], [120.51205411083912, 22.491147499019213], [120.5120537089557, 22.491322004428916], [120.51208723489955, 22.492199527524036], [120.51208954233859, 22.492787427827054], [120.51208220756511, 22.49296512456744], [120.51207577063497, 22.49327037262159], [120.51207038950396, 22.493400607026025], [120.5120719288172, 22.49359467957505], [120.51206754949136, 22.493767374803195], [120.51206770477732, 22.494003317540667], [120.51210967756103, 22.49482990357325], [120.51211234011278, 22.49492260748565], [120.51211836415187, 22.495132368811806], [120.51214645945723, 22.496950007926674], [120.51215790061654, 22.497320365284434], [120.5121808879343, 22.498333588315088], [120.51226598821856, 22.50127950252442], [120.51227881592668, 22.501776507439686], [120.51228143268716, 22.50187787915296], [120.51234373364107, 22.504291525184446], [120.51234814829353, 22.504490835167704], [120.51234963605518, 22.504558008209532], [120.51238619876735, 22.506208723567376], [120.51238791403621, 22.506286140314423], [120.51242860939287, 22.50812334838959], [120.51244331599403, 22.508576464016105], [120.51246452237648, 22.508889291852537], [120.51249512377444, 22.509151473032585], [120.51257435014305, 22.509603855465805], [120.51264384931406, 22.509859882236007], [120.51274233868382, 22.510159404454804], [120.51288742552687, 22.510515121508906], [120.51303558154807, 22.510816486158838], [120.51314644597693, 22.51101413637036], [120.51331563187782, 22.511285098958155], [120.51348108455302, 22.511523121050907], [120.51371759760163, 22.51181943175376], [120.51544839321119, 22.51367300227047], [120.51576274239306, 22.514019428120985], [120.51689044036665, 22.51521394452941], [120.51692842750792, 22.51525418256385], [120.51799924706827, 22.516388424422498], [120.51963080952378, 22.51813509791089], [120.51969059896473, 22.51819910415363], [120.5208253574678, 22.519413886441523], [120.52257464014656, 22.521271941983528], [120.52319787779476, 22.5219185465683], [120.52404681609876, 22.522838360744363], [120.52450973125262, 22.52333290815805], [120.52451049640483, 22.523333725922093], [120.52493903889027, 22.523791547863784], [120.52498554116265, 22.523841227635163], [120.52573010993618, 22.524636655539528], [120.52615595279087, 22.525077187213867], [120.52827388380412, 22.527349823532866], [120.52922981802766, 22.52836814506653], [120.52929031858001, 22.528432593293928], [120.53271665424657, 22.532082371201227], [120.53305333722825, 22.532456047245823], [120.53305552031719, 22.532458470289146], [120.53309461254267, 22.53250185779472], [120.53331482663029, 22.532789520492962], [120.53356788871984, 22.53314555645969], [120.53380797342726, 22.53352456646288], [120.53407849695749, 22.534054253404644], [120.53424025807166, 22.534433821688417], [120.53436155346621, 22.53476351434514], [120.53460722492729, 22.53551076685024], [120.53461377078362, 22.53557598002873], [120.53470338136273, 22.53598066492256], [120.53474498325099, 22.53639926236914], [120.53481401513204, 22.53706553341536], [120.53493248419039, 22.538266862555684], [120.5350274910238, 22.539209218012086], [120.53509835748729, 22.539954327850182], [120.53515887808011, 22.540529067750427], [120.53527709513679, 22.54180059920128], [120.53539675656945, 22.543028370134785], [120.53561670581735, 22.545128079316925], [120.53571382672787, 22.546281526801955], [120.5358214635068, 22.548092711426104], [120.53585039777766, 22.548333514505615], [120.5360732046056, 22.550187776548288], [120.53632198432847, 22.552024160029895], [120.536374390865, 22.552428053380375], [120.53646844634814, 22.5531633521032], [120.53659813947098, 22.554412522456044], [120.5367759781193, 22.556259500244973], [120.53691261755203, 22.557581279550323], [120.53698330006222, 22.558365796205603], [120.53706935348626, 22.559191855486603], [120.53717794760237, 22.560280537624525], [120.53720844787743, 22.560567700019835], [120.53723784281142, 22.56112353038431], [120.53725939500737, 22.561562458630025], [120.53731066777739, 22.562264215548282], [120.53735658241868, 22.56281260931775], [120.53736686948014, 22.56291159905496], [120.53745407221464, 22.563750703645493], [120.53757072062653, 22.564962730362886], [120.53763978129729, 22.56573113733941], [120.53795267854468, 22.56806023799182], [120.5384566962921, 22.573333677031478], [120.53866787203643, 22.575415547466697], [120.53906516306279, 22.579420896236925], [120.53947226478128, 22.58352172003604], [120.53984351489926, 22.58740655237907], [120.5400445356549, 22.58940286715909], [120.54012711639973, 22.590296753940702], [120.5402844425847, 22.5919070429882], [120.54035531566164, 22.5927067478185], [120.5403680059791, 22.592999732341358], [120.54037392491549, 22.593411484808072], [120.54035261923812, 22.59379365238413], [120.54031981832524, 22.59408062839702], [120.54027051495066, 22.594425434959035], [120.54023163013954, 22.594617212301998], [120.54015603522107, 22.59492686807054], [120.54004024375493, 22.59533689647386], [120.53981582433127, 22.595939090058263], [120.53963001374791, 22.596331139025352], [120.53945386492269, 22.596653599191516], [120.53930150417621, 22.59690797956693], [120.53892256041073, 22.597486458174057], [120.53836288141223, 22.59833294359079], [120.53836241611747, 22.598333642154355], [120.53788593310189, 22.599048157628605], [120.53742370459426, 22.599748179065376], [120.53610557752557, 22.601738525739073], [120.5350836721399, 22.603270992994155], [120.53420768744802, 22.6045920316317], [120.53364468595151, 22.60543594268391], [120.5330555211035, 22.60631395860233], [120.53305332739689, 22.606317227754214], [120.53217540840305, 22.60764876068419], [120.53200328822847, 22.60791230549472], [120.53155369182288, 22.60860070525263], [120.5301616762501, 22.61069814752285], [120.52956181653379, 22.611616130689892], [120.52864874243544, 22.61301340495392], [120.52834774171286, 22.613450712687], [120.52754638050436, 22.614702491778726], [120.52725014060019, 22.615202501453854], [120.52633799399221, 22.616582351440314], [120.52578218989117, 22.617414186387602], [120.52532320104122, 22.618119385586564], [120.52485193435334, 22.618841233472512], [120.52447050679416, 22.619410994930785], [120.52366758334368, 22.620625385285706], [120.5225100767376, 22.622353988556615], [120.52185196510308, 22.623333016410704], [120.5218514663087, 22.623333788875787], [120.52131518781874, 22.62416454343294], [120.52015866518059, 22.62591590980405], [120.51890638778892, 22.627803290985565], [120.51755055872297, 22.62985754775836], [120.51632945082167, 22.631718665544064], [120.51531866293891, 22.633253259158902], [120.5142622845086, 22.634848903034232], [120.51340632136883, 22.636167715912347], [120.51250135077531, 22.63753289033094], [120.5112574049243, 22.639380507997117], [120.51037446636141, 22.64070714913476], [120.5094806176043, 22.64206920239595], [120.5086160131915, 22.64339205989556], [120.50842947091654, 22.643665020631527], [120.50805548900179, 22.644233351536503], [120.50789565266082, 22.64447625108754], [120.50728675669944, 22.645403673452556], [120.50613530139579, 22.647157060437525], [120.505364451578, 22.648332689422745], [120.50536385989705, 22.648333537404405], [120.50532179672386, 22.64839382611122], [120.50515774397061, 22.648629275419857], [120.50292311785927, 22.65203755964916], [120.50268648388219, 22.652434902005876], [120.49971746429046, 22.656917460683268], [120.49825467823092, 22.659154730039106], [120.49727563459655, 22.660622177975934], [120.49683533964698, 22.66132784916426], [120.49407729418988, 22.66548253142661], [120.49299530639271, 22.6668297710931], [120.4925554109078, 22.667340134095852], [120.4921459036407, 22.66769326930552], [120.4917363963736, 22.667953115373045], [120.49140395074923, 22.66812043190153], [120.49103536787915, 22.668259829254566], [120.49050366767182, 22.66840465309626], [120.49003488415255, 22.66848066932293], [120.48932781965607, 22.668535968456446], [120.48828394232797, 22.668618708601322], [120.48579806316508, 22.668872326047083], [120.48454222156964, 22.669059740558676], [120.48412133321371, 22.66913242959858], [120.48390067415954, 22.669169810946016], [120.48377552515156, 22.66919329970254], [120.48346122526496, 22.6692590714617], [120.48305553406684, 22.66932935751905], [120.48301853963348, 22.66933576652906], [120.48248645715017, 22.669435957024934], [120.48170082756356, 22.66958176398086], [120.48152597969924, 22.669611033351657], [120.48130120806024, 22.669641884732858], [120.48106345602645, 22.669664444064644], [120.48076340877061, 22.669681410607964], [120.48056488534951, 22.66968571225527], [120.48032408596985, 22.669679690612675], [120.48010105792396, 22.66966893542447], [120.47992007920836, 22.669654791717797], [120.47975124008224, 22.669633688328254], [120.47955280787801, 22.669602992677206], [120.47935339202847, 22.669567892852427], [120.47914110584489, 22.669521985258307], [120.47890268963992, 22.669466594882806], [120.47853769445524, 22.669366886870478], [120.47791343999079, 22.669197512773806], [120.47734467556248, 22.669039207624895], [120.4766553825922, 22.668850608319556], [120.47588273143289, 22.668637943399826], [120.47507749696196, 22.668416180519056], [120.4742308089176, 22.66818271177084], [120.47381658859, 22.668069991464545], [120.47324171975934, 22.66790811895257], [120.47222435563386, 22.667629154434497], [120.47180076705834, 22.667509757715997], [120.47123734239142, 22.667359405746293], [120.47045747915371, 22.667142708471978], [120.46991002046605, 22.666991511499088], [120.46960099221755, 22.66690830978543], [120.4691884756385, 22.66679487072007], [120.46847751683113, 22.666597319925543], [120.46813239664085, 22.666501726350678], [120.4675648915253, 22.666347051151998], [120.46697498011976, 22.666188934520168], [120.46657079922942, 22.66609319075951], [120.46588076068358, 22.665933811943606], [120.46518263339885, 22.665777740068673], [120.46454049974672, 22.665619946827395], [120.46356129245409, 22.665348726073045], [120.46160272497328, 22.664807606426066], [120.46087511614911, 22.664607810561808], [120.46077322680522, 22.664579832404407], [120.46049615908264, 22.664503750443238], [120.45862544171533, 22.66400527493169], [120.45805553080662, 22.663848731263432], [120.45783078517348, 22.663786997407158], [120.45719983580716, 22.663612092182245], [120.45665629397172, 22.66346258394565], [120.45617790917171, 22.66333249189273], [120.45568683176614, 22.663193495155713], [120.45495385758474, 22.662979384790493], [120.45440287304545, 22.66282764735924], [120.45394377013581, 22.662703911550977], [120.45353384644812, 22.662588545786768], [120.45295379845956, 22.66245164308151], [120.4524021509078, 22.662328331932148], [120.45230345752799, 22.662306270937457], [120.4519007558312, 22.662223916232083], [120.4514825243812, 22.66215191267523], [120.45079808442371, 22.662058233894406], [120.45030151415756, 22.661997286995714], [120.44996503447867, 22.66197216984985], [120.44965902626598, 22.661953854829076], [120.44918211543046, 22.661931705206122], [120.44888411105403, 22.66191357335994], [120.44865059045618, 22.66190801793978], [120.44826593271603, 22.661905733851007], [120.44795248734285, 22.66190750160977], [120.44764172351218, 22.661905429062816], [120.44713236440025, 22.66191788318603], [120.44671332007178, 22.66193086342597], [120.44428101539589, 22.662010875494676], [120.43841522567566, 22.662179170826043], [120.43620670076945, 22.662244571444003], [120.4362045967738, 22.66224463267456], [120.43620434763834, 22.662244640828703], [120.43392656845658, 22.662312040224368], [120.43305553257588, 22.66234033345324], [120.43305340713802, 22.662340402694213], [120.43305058684841, 22.662340493859578], [120.43275338886346, 22.662351278616136], [120.43199334365497, 22.662371434796498], [120.43106069774745, 22.662401957825764], [120.43045842593907, 22.66241443621066], [120.4298630298696, 22.662429694803716], [120.42915905682682, 22.662452811304764], [120.42835472204082, 22.662473717154704], [120.42756417746597, 22.66249832209403], [120.42705556999115, 22.6625093025836], [120.4265490808649, 22.662511137227085], [120.42629652889215, 22.662492682655486], [120.42612728514324, 22.66248031574402], [120.4258148029134, 22.66243704404671], [120.42549591202743, 22.662374682942747], [120.4252120975194, 22.662302183545552], [120.4248038791514, 22.662163663565224], [120.42444268966469, 22.662006842617977], [120.4241681209157, 22.661865677329118], [120.42382816334063, 22.66165795427745], [120.42351559497811, 22.661440030342906], [120.42331233583809, 22.661255388529728], [120.42309734777058, 22.66104965434979], [120.42273066653955, 22.66063807272817], [120.42260716062289, 22.66047097520172], [120.4224717855313, 22.660275121382835], [120.42220972414147, 22.65979220659427], [120.42201992683538, 22.659296280393168], [120.42187678909407, 22.658821372613758], [120.42173472952548, 22.658196402002552], [120.42164199133441, 22.6577884107436], [120.42162654621453, 22.65772044971254], [120.42147965671191, 22.65706508359376], [120.42126799237056, 22.656111428162834], [120.42094768781634, 22.654724279820037], [120.42063610223676, 22.65339678629737], [120.42050523225271, 22.65278704101734], [120.42050523225271, 22.65278704101734], [120.42041179265784, 22.652351690253198], [120.42039775654595, 22.652286290794724], [120.42025856154356, 22.651678923676474], [120.41987148634914, 22.649973463585216], [120.41950005882715, 22.648342463851044], [120.41949802866729, 22.648333804985977], [120.41948312362531, 22.64827023463353], [120.41942269390242, 22.647980125062773], [120.41925190094723, 22.647300546806157], [120.41913065276354, 22.646880079207346], [120.41904163669042, 22.64662781966106], [120.4188549326277, 22.64616563430686], [120.41868882903971, 22.645826372234342], [120.41849689470212, 22.64547026956437], [120.41831412508708, 22.645184700737435], [120.41806916634836, 22.64484189177121], [120.41755666948924, 22.644226053951606], [120.41741756834384, 22.644083024307815], [120.41708984927372, 22.64377523441805], [120.41686609680472, 22.64357972461694], [120.41648095419451, 22.643277321028673], [120.4160602753245, 22.642988775831736], [120.41566596092164, 22.642758510239272], [120.41534448975817, 22.64259333338523], [120.41483784454897, 22.64236161577759], [120.41445582980987, 22.64220958449583], [120.41418257101898, 22.642119437781396], [120.41371886544889, 22.641988483089804], [120.41310372208935, 22.641856975519747], [120.41262212188342, 22.64178939359724], [120.41216979804825, 22.641748767062495], [120.41176205383363, 22.64172693968949], [120.4105611258981, 22.64168724406096], [120.40805555593278, 22.641615351253737], [120.40509924556707, 22.641530475321872], [120.39998193393954, 22.641367305048874], [120.39954928813091, 22.64135575694909], [120.39947441632295, 22.64135375798188], [120.39655985505274, 22.641275928754965], [120.39586090932941, 22.641235402612015], [120.39491755152233, 22.641162478960812], [120.39458175441074, 22.641121878691912], [120.39344135362599, 22.640919789902977], [120.39106951164153, 22.640431613773508], [120.38974149604617, 22.640173482631468], [120.38901073413945, 22.640014394062998], [120.38793370697458, 22.639798496597557], [120.38664466717889, 22.639569490214004], [120.38528625050604, 22.639291039520955], [120.3830555305323, 22.63884849476423], [120.38305358648363, 22.638848109798126], [120.3818900919191, 22.638617274503012], [120.38000970456278, 22.63823117965528], [120.37790061848877, 22.637810538948102], [120.37763020931285, 22.637756605482917], [120.37625403204909, 22.63748211893055], [120.37441024559435, 22.63710330604202], [120.37400040683633, 22.637010663905066], [120.37357151052265, 22.636891114073926], [120.37311479762016, 22.63673578374952], [120.37251226480126, 22.636500104750283], [120.37207723647902, 22.63629900174756], [120.37171263827437, 22.636100814128973], [120.37141762810991, 22.6359306120821], [120.36903637997382, 22.634444480046575], [120.36743335555116, 22.633324321938005], [120.3665927839635, 22.632693335758947], [120.36606817972122, 22.632301645321892], [120.36540316869595, 22.631808857361772], [120.3650261523418, 22.631558186646803], [120.36472885749835, 22.63138630183204], [120.36421240586196, 22.63114333734701], [120.36361719328879, 22.6309358530721], [120.36317278215259, 22.63082946152569], [120.36257859285234, 22.630730449565615], [120.36231891348744, 22.630705475924792], [120.36194850889153, 22.630684615649802], [120.36157451361046, 22.630713277548224], [120.36108000882189, 22.63078252323498], [120.3592714558784, 22.631133856847296], [120.35805552004373, 22.631369554260022], [120.35639043793115, 22.631692297833123], [120.35334016294786, 22.63227958986292], [120.35130318163742, 22.63268050545006], [120.34921096217661, 22.633058859434257], [120.34577431799806, 22.633655533146573], [120.34531660400438, 22.633728535558777], [120.34383912966797, 22.63395018122456], [120.34279747478513, 22.634126245275915], [120.34113136268205, 22.63440153623266], [120.33893588957365, 22.634798771217906], [120.33764002669432, 22.635077324074782], [120.33648157272337, 22.63529035533787], [120.33447821021198, 22.63564178183251], [120.33305551816832, 22.635890551997893], [120.33303251599777, 22.63589457433888], [120.33228974732123, 22.636009687338394], [120.32918539377187, 22.636566136962813], [120.3279157113715, 22.636787033603934], [120.32609540050387, 22.637105996885996], [120.32380601825221, 22.637505490897706], [120.32143926487225, 22.637923999003593], [120.3184343098136, 22.63848884189073], [120.31767802446984, 22.6385835209604], [120.31696055136341, 22.638648993963983], [120.31441955720085, 22.638829591565987], [120.31355231681502, 22.638878907673917], [120.31244218202315, 22.638905968286977], [120.31164960045056, 22.638914985912685], [120.30912289250956, 22.639087674150037], [120.30805555326475, 22.639161047228402], [120.30669643351064, 22.639254467856485], [120.30415736097095, 22.639386489928793], [120.30259894126868, 22.639498422126422], [120.30046973563199, 22.63973279920957], [120.29987754446407, 22.63980593761422], [120.29896864532057, 22.63987526291783], [120.2983066267733, 22.63992131426054], [120.29733866061245, 22.639987234535372], [120.29665035049855, 22.640018479938842], [120.29623119085397, 22.64000685148401], [120.29569642307759, 22.6399163966596], [120.29493832508717, 22.639673220517583], [120.29382316432718, 22.639134781714734], [120.2926370382888, 22.638554416212756], [120.29167972120423, 22.63808763276802], [120.2911510918009, 22.637830768625733], [120.2906564988357, 22.63762055309599], [120.2902012415254, 22.637452115324265], [120.28913368878288, 22.637196132763616], [120.2877494632693, 22.636900371117726], [120.28671446645944, 22.636675504994717], [120.28603950203355, 22.636552282573746], [120.28576741905701, 22.636537604464493], [120.28521102200322, 22.636541274328682], [120.28473970385905, 22.636591384398805], [120.28434901680731, 22.636684273505786], [120.28395810943124, 22.636819582136265], [120.28362625746269, 22.636977996649474], [120.28327076604022, 22.637175461686297], [120.28305553156498, 22.637329084340884], [120.2829390916863, 22.637412192004653], [120.28261420972197, 22.637694636223763], [120.28227827135645, 22.63807492515888], [120.28206574171011, 22.638383976811234], [120.28176222365197, 22.638955951466546], [120.28132040130389, 22.64027916250815], [120.28094083505883, 22.64162255377889], [120.28085715655996, 22.64262860880082], [120.28086686142974, 22.64311034202101], [120.281025031677, 22.64477926284045], [120.28116130349304, 22.646515886145657], [120.28127607351652, 22.648333411079832], [120.28162839141592, 22.653912569922284], [120.28172254721956, 22.65567270955664], [120.28178204496761, 22.656400664820794], [120.28187653194857, 22.65716140897069], [120.2819932522861, 22.657703619462172], [120.28215919477879, 22.658246050363125], [120.28234292107868, 22.658749402150328], [120.28250502034281, 22.65910173532872], [120.28271908286067, 22.6595187488997], [120.28295174520517, 22.65990892424175], [120.28305553333334, 22.66006436497067], [120.28367772432533, 22.660996194620502], [120.28453281929487, 22.662293198455558], [120.28498104848194, 22.66293237930009], [120.28523266831456, 22.663325858155005], [120.28574852780679, 22.664085929022416], [120.28631682483189, 22.664945538913468], [120.28818583418631, 22.667695652943344], [120.28853971629478, 22.668189772255044], [120.28883008931182, 22.668627554896908], [120.2893315363308, 22.669317590367303], [120.28968538601039, 22.669787274737647], [120.29058512180237, 22.670768356322007], [120.29304651924653, 22.6733337817719], [120.29519177753701, 22.675569598563442], [120.2966966514447, 22.67715409089193], [120.29767418906994, 22.67820214587013], [120.2983694499587, 22.67893063263885], [120.29893383966768, 22.679547561711477], [120.29949999034649, 22.680152351273357], [120.30238701647127, 22.68320204560047], [120.30299664718366, 22.683811638989862], [120.30386249138247, 22.68461411780767], [120.30501282456463, 22.68558096645821], [120.30570249820522, 22.686138608174105], [120.30805402878347, 22.688168356139755]]}}]}