{
  "type": "FeatureCollection",
  "features": [
    {
      "type": "Feature",
      "properties": {
        "track_id": "SH-1",
        "route_id": "SH",
        "direction": 1,
        "golden": true,
        "source": "od_track"
      },
      "geometry": {
        "type": "LineString",
        "coordinates": [
          [
            120.286366,
            22.923863
          ],
          [
            120.28988786491126,
            22.916921560821237
          ],
          [
            120.28999110462723,
            22.9167038014382
          ],
          [
            120.2901166702061,
            22.91628040467932
          ],
          [
            120.2901585115643,
            22.915978016154636
          ],
          [
            120.29017344762754,
            22.915730549916454
          ],
          [
            120.29014684097393,
            22.915468604416503
          ],
          [
            120.29011041336997,
            22.915260934218384
          ],
          [
            120.28999827436007,
            22.91487951595262
          ],
          [
            120.28985187378372,
            22.914552034168523
          ],
          [
            120.28968828654612,
            22.914294658397015
          ],
          [
            120.2895173335934,
            22.91407346647859
          ],
          [
            120.28933655969337,
            22.913879412489486
          ],
          [
            120.28914859073112,
            22.913709881226055
          ],
          [
            120.28893115891753,
            22.913544872963424
          ],
          [
            120.28855276575631,
            22.913339239022292
          ],
          [
            120.28810939593686,
            22.91314488099627
          ],
          [
            120.28664056650732,
            22.912649169656692
          ],
          [
            120.28456210825365,
            22.911955809293026
          ],
          [
            120.28044021264219,
            22.910611687167464
          ],
          [
            120.27774835535297,
            22.90948082958652
          ],
          [
            120.27514834780678,
            22.90837353995815
          ],
          [
            120.27262,
            22.90731
          ],
          [
            120.27222712119436,
            22.907137755179484
          ],
          [
            120.27127957951205,
            22.906739526209705
          ],
          [
            120.27094181883851,
            22.906571894413865
          ],
          [
            120.27052762903725,
            22.906320147411563
          ],
          [
            120.26930643892335,
            22.905104497957186
          ],
          [
            120.26889590993503,
            22.90483455559646
          ],
          [
            120.26830816234448,
            22.90454806979374
          ],
          [
            120.26569274593506,
            22.903476886668038
          ],
          [
            120.2649371821721,
            22.903224428283032
          ],
          [
            120.26443389003548,
            22.90311738930986
          ],
          [
            120.26351153132225,
            22.903035494905495
          ],
          [
            120.2613633212817,
            22.903112792081803
          ],
          [
            120.25963659882623,
            22.903090756058354
          ],
          [
            120.25903078329462,
            22.903076161008237
          ],
          [
            120.25882147237024,
            22.90306886348015
          ],
          [
            120.25862944086111,
            22.903029731579313
          ],
          [
            120.25845806193651,
            22.90299227467954
          ],
          [
            120.25827516340067,
            22.902922983386702
          ],
          [
            120.25805336146864,
            22.902810929459648
          ],
          [
            120.25780852031491,
            22.902645818220343
          ],
          [
            120.25762127721404,
            22.902491318471192
          ],
          [
            120.25749262274346,
            22.90235725756362
          ],
          [
            120.25736972808019,
            22.902191362115637
          ],
          [
            120.25720603037237,
            22.901882887718042
          ],
          [
            120.25702383762714,
            22.901433857056546
          ],
          [
            120.25686013991927,
            22.901138160962695
          ],
          [
            120.25668622005108,
            22.900926495502123
          ],
          [
            120.25652138284336,
            22.900758101435848
          ],
          [
            120.25629181300485,
            22.900598226001343
          ],
          [
            120.25601762369872,
            22.90044032925892
          ],
          [
            120.25566806673692,
            22.90033324267109
          ],
          [
            120.25527412092386,
            22.900289442640208
          ],
          [
            120.25499436966538,
            22.900303431695605
          ],
          [
            120.25472386592551,
            22.900351495384054
          ],
          [
            120.25446953152218,
            22.900447622753617
          ],
          [
            120.25410419925362,
            22.900622840399087
          ],
          [
            120.25378042552992,
            22.900862533539108
          ],
          [
            120.25353976889917,
            22.901180066199572
          ],
          [
            120.25342835638213,
            22.901397719890817
          ],
          [
            120.25337198668146,
            22.90156043258568
          ],
          [
            120.252654,
            22.904407
          ],
          [
            120.25196515106379,
            22.906265945940394
          ],
          [
            120.25137780294054,
            22.908366714357733
          ],
          [
            120.25025920736414,
            22.9123486272709
          ],
          [
            120.25005721853202,
            22.913032206111296
          ],
          [
            120.249827122498,
            22.91364181459939
          ],
          [
            120.24950345112855,
            22.914298862337255
          ],
          [
            120.24906490475118,
            22.914991617438634
          ],
          [
            120.24867987840476,
            22.91546812830166
          ],
          [
            120.24833500520316,
            22.91586327373615
          ],
          [
            120.24748464621534,
            22.916786707860894
          ],
          [
            120.24601681648721,
            22.918367291503777
          ],
          [
            120.24502154553245,
            22.919421657348646
          ],
          [
            120.24410658087484,
            22.920409452939836
          ],
          [
            120.2438667161769,
            22.92064684111792
          ],
          [
            120.24357972188349,
            22.92091451523894
          ],
          [
            120.24338317287977,
            22.921102226290834
          ],
          [
            120.24318280997014,
            22.921255752866994
          ],
          [
            120.24269011592544,
            22.921648088635237
          ],
          [
            120.2421331768499,
            22.9220922001846
          ],
          [
            120.24046,
            22.923441
          ],
          [
            120.23992835594854,
            22.92386906537875
          ],
          [
            120.23946222334104,
            22.924245822036596
          ],
          [
            120.23926095187073,
            22.92440814496824
          ],
          [
            120.23868039533032,
            22.92486601888714
          ],
          [
            120.23786792898274,
            22.92551600355674
          ],
          [
            120.23719448832041,
            22.92604974967008
          ],
          [
            120.23642403782317,
            22.926662545828886
          ],
          [
            120.23590646726335,
            22.927080683526583
          ],
          [
            120.23571289594115,
            22.927233979618777
          ],
          [
            120.23551655684489,
            22.92738980415287
          ],
          [
            120.23523548966101,
            22.927615256295827
          ],
          [
            120.2349436348287,
            22.9278548162755
          ],
          [
            120.23471555787384,
            22.928071143047784
          ],
          [
            120.2345069768067,
            22.928282574253892
          ],
          [
            120.23426089269631,
            22.928566530470672
          ],
          [
            120.23396467169391,
            22.9289845838197
          ],
          [
            120.23380641135894,
            22.929243385692544
          ],
          [
            120.23343539672959,
            22.929922524392783
          ],
          [
            120.23323921373786,
            22.930314953647606
          ],
          [
            120.233032297289,
            22.930696860188874
          ],
          [
            120.23239968887232,
            22.931872428764972
          ],
          [
            120.23062708538946,
            22.935085830931527
          ],
          [
            120.23060478487056,
            22.935127267362425
          ],
          [
            120.23056387772057,
            22.9352032770762
          ],
          [
            120.23055422955665,
            22.935221203193937
          ],
          [
            120.2303434078019,
            22.935612914341093
          ],
          [
            120.23022222541364,
            22.935838074543106
          ],
          [
            120.22998100416734,
            22.936291645638736
          ],
          [
            120.22971255800238,
            22.936796394894856
          ],
          [
            120.22944788521279,
            22.937286277401956
          ],
          [
            120.2291606104662,
            22.93782280547424
          ],
          [
            120.2290007526727,
            22.938123810424795
          ],
          [
            120.2288216661434,
            22.938453433386165
          ],
          [
            120.22865351975659,
            22.93875540723627
          ],
          [
            120.22851205124586,
            22.939020580522925
          ],
          [
            120.2284896248472,
            22.93905922204177
          ],
          [
            120.22846912334822,
            22.939094546176708
          ],
          [
            120.22839654798786,
            22.93923763046683
          ],
          [
            120.22836296597345,
            22.939293240619914
          ],
          [
            120.22833130694688,
            22.939354298120275
          ],
          [
            120.22829481276915,
            22.93941227988481
          ],
          [
            120.22819608372642,
            22.93958408487575
          ],
          [
            120.22803494667876,
            22.939830177766215
          ],
          [
            120.227831312782,
            22.94013383370978
          ],
          [
            120.22765369433026,
            22.940379167806768
          ],
          [
            120.22750523550509,
            22.9405762488167
          ],
          [
            120.22731161838787,
            22.94080982853037
          ],
          [
            120.22703646301034,
            22.941145345026293
          ],
          [
            120.22669023494461,
            22.94156579615679
          ],
          [
            120.22644615665186,
            22.941865340249617
          ],
          [
            120.22627017582505,
            22.942082965955326
          ],
          [
            120.22604478888871,
            22.942348692005275
          ],
          [
            120.22586474629568,
            22.94256726454737
          ],
          [
            120.22569779195696,
            22.942759238991357
          ],
          [
            120.22545956980244,
            22.943042223284422
          ],
          [
            120.22504921905174,
            22.94354113538204
          ],
          [
            120.2246928414701,
            22.94397250480971
          ],
          [
            120.2244767776007,
            22.944230315647538
          ],
          [
            120.22421253958684,
            22.944545247900404
          ],
          [
            120.22392878196348,
            22.944887734739588
          ],
          [
            120.22362772193263,
            22.945247298299375
          ],
          [
            120.2234211885274,
            22.94549850795763
          ],
          [
            120.22326369163973,
            22.94568675126636
          ],
          [
            120.223248960662,
            22.945704360321397
          ],
          [
            120.22323813603673,
            22.94571729639678
          ],
          [
            120.22320741844582,
            22.945754010981382
          ],
          [
            120.22304295246104,
            22.94595487126778
          ],
          [
            120.22290127463377,
            22.946127226218344
          ],
          [
            120.2226815067753,
            22.946393184981314
          ],
          [
            120.22242356822491,
            22.94670481901401
          ],
          [
            120.22220507376873,
            22.946965331755912
          ],
          [
            120.22192238082508,
            22.947305536153866
          ],
          [
            120.22171359746395,
            22.94755589705518
          ],
          [
            120.22144115723837,
            22.947884759194313
          ],
          [
            120.22107718227781,
            22.94833539177218
          ],
          [
            120.22101696780332,
            22.948414547556
          ],
          [
            120.2207676366426,
            22.948694602527805
          ],
          [
            120.22060799370598,
            22.948917626719375
          ],
          [
            120.22036048634776,
            22.949216867407685
          ],
          [
            120.22016271296765,
            22.94945165521052
          ],
          [
            120.21998537825785,
            22.94969512283116
          ],
          [
            120.21986451552189,
            22.949880346765152
          ],
          [
            120.21973066016652,
            22.950096084783862
          ],
          [
            120.21960443388096,
            22.95028639772791
          ],
          [
            120.21944820212686,
            22.95056376312159
          ],
          [
            120.21932985626435,
            22.950796611639056
          ],
          [
            120.2192396255503,
            22.950981510770333
          ],
          [
            120.21915790971569,
            22.95116577087246
          ],
          [
            120.21906054040403,
            22.951392383188363
          ],
          [
            120.21903655573199,
            22.951451270283023
          ],
          [
            120.21901079047417,
            22.951516624167052
          ],
          [
            120.21896267047322,
            22.951645846083967
          ],
          [
            120.21891002436678,
            22.951811020223676
          ],
          [
            120.21885633598109,
            22.95197564649232
          ],
          [
            120.21880470254817,
            22.952149172187717
          ],
          [
            120.21875198939219,
            22.952340726760703
          ],
          [
            120.21868290227559,
            22.952559299400814
          ],
          [
            120.2186528779409,
            22.952686708553387
          ],
          [
            120.218617996649,
            22.952845862025214
          ],
          [
            120.21860123016874,
            22.952922226422146
          ],
          [
            120.21859315384019,
            22.952959006386383
          ],
          [
            120.21856418454217,
            22.953137826035622
          ],
          [
            120.2185118837552,
            22.95344758424488
          ],
          [
            120.21847142615958,
            22.9536976063883
          ],
          [
            120.21843630306577,
            22.953944081542456
          ],
          [
            120.21842134399878,
            22.954066641576333
          ],
          [
            120.21839705451941,
            22.954234456537016
          ],
          [
            120.21837365508952,
            22.954410105058198
          ],
          [
            120.2183535620874,
            22.954558613343202
          ],
          [
            120.21831643056343,
            22.954796129610262
          ],
          [
            120.21828549405595,
            22.955039871104677
          ],
          [
            120.21824405884868,
            22.955292872783673
          ],
          [
            120.21821181213107,
            22.955519540710704
          ],
          [
            120.21818132328534,
            22.9557238359401
          ],
          [
            120.21814350692931,
            22.95600098589398
          ],
          [
            120.2181105192079,
            22.95623028874421
          ],
          [
            120.21789089386311,
            22.957773643196916
          ],
          [
            120.21784394751943,
            22.958108200773214
          ],
          [
            120.21780951882421,
            22.958334038710447
          ],
          [
            120.21779703731085,
            22.95841591262885
          ],
          [
            120.21775769677024,
            22.958712951977066
          ],
          [
            120.2177121268799,
            22.959030505170066
          ],
          [
            120.21766883593762,
            22.959326647245824
          ],
          [
            120.21762885514413,
            22.959624187242888
          ],
          [
            120.21759081838093,
            22.95988904750753
          ],
          [
            120.2175571785933,
            22.96012318976526
          ],
          [
            120.21753016608662,
            22.960314054095598
          ],
          [
            120.21751588335107,
            22.960424188093516
          ],
          [
            120.21750756073341,
            22.96048024619636
          ],
          [
            120.21749344460375,
            22.960575314136086
          ],
          [
            120.21746130132327,
            22.9607984351567
          ],
          [
            120.21742745605852,
            22.961046508115587
          ],
          [
            120.21739110650162,
            22.961307453878323
          ],
          [
            120.21737246847657,
            22.961488083111842
          ],
          [
            120.21735853331008,
            22.961633680347205
          ],
          [
            120.2173450392576,
            22.961772433967692
          ],
          [
            120.21732805591947,
            22.961974752835165
          ],
          [
            120.21731299067399,
            22.962188590137927
          ],
          [
            120.21729436492586,
            22.9624485360677
          ],
          [
            120.21729883091852,
            22.963353822814703
          ],
          [
            120.21732322130117,
            22.964085485956236
          ],
          [
            120.21740709974202,
            22.965290345381334
          ],
          [
            120.21749327688453,
            22.96661584568892
          ],
          [
            120.21758503676176,
            22.968011089949528
          ],
          [
            120.21768459503018,
            22.96961101713534
          ],
          [
            120.21777744728145,
            22.970816779644572
          ],
          [
            120.21776593521108,
            22.971241912510788
          ],
          [
            120.21774289687772,
            22.971569088687254
          ],
          [
            120.2176798561963,
            22.972020357036037
          ],
          [
            120.21759890032484,
            22.972428373558742
          ],
          [
            120.21731690350649,
            22.973333764955143
          ],
          [
            120.21694550598242,
            22.974515749933722
          ],
          [
            120.21663836620219,
            22.97546811687456
          ],
          [
            120.21635949681931,
            22.97638036987692
          ],
          [
            120.21603617814422,
            22.977407842263688
          ],
          [
            120.21567579392617,
            22.978556802837698
          ],
          [
            120.21527108474245,
            22.97984554745047
          ],
          [
            120.2149718082615,
            22.980794697163674
          ],
          [
            120.21469330139546,
            22.981680544628755
          ],
          [
            120.21466786318436,
            22.98176145346293
          ],
          [
            120.21466611646564,
            22.981767014612544
          ],
          [
            120.21461387682575,
            22.981933327044313
          ],
          [
            120.21459053057598,
            22.98200764879098
          ],
          [
            120.21393888870985,
            22.984082212115776
          ],
          [
            120.21390223611134,
            22.984198895927637
          ],
          [
            120.21387381658805,
            22.984289369895336
          ],
          [
            120.21380453823194,
            22.984509920169476
          ],
          [
            120.2135527280704,
            22.985309596102837
          ],
          [
            120.21331908382341,
            22.986051573185385
          ],
          [
            120.21308428133158,
            22.98679721931853
          ],
          [
            120.21306791154528,
            22.986849202289864
          ],
          [
            120.21305087402999,
            22.98690330673837
          ],
          [
            120.21251874235489,
            22.988593124351024
          ],
          [
            120.212459592814,
            22.9887809510263
          ],
          [
            120.21226275098246,
            22.989421152149387
          ],
          [
            120.21213371861303,
            22.989849729022588
          ],
          [
            120.21203118230527,
            22.990262951720876
          ],
          [
            120.21198284294762,
            22.99050157774177
          ],
          [
            120.21193231120051,
            22.99091106945085
          ],
          [
            120.21192018630279,
            22.99133615579348
          ],
          [
            120.21192967734896,
            22.991532843527825
          ],
          [
            120.21193647623002,
            22.99167375940705
          ],
          [
            120.21197018366793,
            22.99196913075531
          ],
          [
            120.21206858448933,
            22.992519050514208
          ],
          [
            120.21213089481718,
            22.99284745186176
          ],
          [
            120.21217018302009,
            22.993063811820228
          ],
          [
            120.21236358491383,
            22.993928628073935
          ],
          [
            120.21245305812212,
            22.994401479604534
          ],
          [
            120.21248949710464,
            22.994609938369706
          ],
          [
            120.21260555497979,
            22.99502518319843
          ],
          [
            120.21269778256467,
            22.995474422683188
          ],
          [
            120.21285586621373,
            22.996287822036926
          ],
          [
            120.212901,
            22.996819
          ]
        ]
      }
    }
  ]
}