{
  "type": "FeatureCollection",
  "features": [
    {
      "type": "Feature",
      "properties": {
        "name": "蘇澳支線 (蘇澳新→蘇澳) - 手繪草稿",
        "stroke": "#ff0000",
        "stroke-width": 3
      },
      "geometry": {
        "coordinates": [
          [
            121.82782,
            24.60874
          ],
          [
            121.83071883560771,
            24.605290360672733
          ],
          [
            121.83104964293233,
            24.604994632967134
          ],
          [
            121.83144977800866,
            24.604730421643445
          ],
          [
            121.83195708192733,
            24.604509003419533
          ],
          [
            121.83255104553697,
            24.604319101704718
          ],
          [
            121.83316667406983,
            24.604105562628153
          ],
          [
            121.83369564291195,
            24.603852627785265
          ],
          [
            121.83409215246104,
            24.60354804074254
          ],
          [
            121.8344669970881,
            24.603152842982524
          ],
          [
            121.83475691422038,
            24.602683278359155
          ],
          [
            121.83493417375702,
            24.602229472221474
          ],
          [
            121.8349984948903,
            24.60163312509242
          ],
          [
            121.83495882439357,
            24.601091933119697
          ],
          [
            121.83481995333572,
            24.60050529598793
          ],
          [
            121.83469841421464,
            24.600028970134225
          ],
          [
            121.83451292699579,
            24.59923809184769
          ],
          [
            121.83448084516968,
            24.59887023078754
          ],
          [
            121.83451809109503,
            24.59851812869153
          ],
          [
            121.83463017173835,
            24.598065052868044
          ],
          [
            121.83479424819674,
            24.59772229046917
          ],
          [
            121.83500598748469,
            24.59737164866072
          ],
          [
            121.8352957204925,
            24.59702888642901
          ],
          [
            121.83562220885709,
            24.59675753767914
          ],
          [
            121.83584037260891,
            24.596624082330145
          ],
          [
            121.83631234193811,
            24.59641650619508
          ],
          [
            121.83687097095816,
            24.59623256897285
          ],
          [
            121.83782357558503,
            24.596069565333277
          ],
          [
            121.839452249824,
            24.595807921059546
          ],
          [
            121.8413543511675,
            24.595485638028492
          ],
          [
            121.84474507871795,
            24.594925965833
          ],
          [
            121.84598049662992,
            24.594717820848913
          ],
          [
            121.84640480592418,
            24.594704706942544
          ],
          [
            121.84688246685215,
            24.59471584868092
          ],
          [
            121.84913322719945,
            24.59486350202538
          ],
          [
            121.85146066895528,
            24.595001147137758
          ]
        ],
        "type": "LineString"
      }
    },
    {
      "type": "Feature",
      "properties": {
        "name": "蘇澳新 (7130) - 分岔起點",
        "marker-color": "#00ff00",
        "marker-symbol": "rail"
      },
      "geometry": {
        "coordinates": [
          121.82782,
          24.60874
        ],
        "type": "Point"
      }
    },
    {
      "type": "Feature",
      "properties": {
        "name": "蘇澳 (7120) - 終點",
        "marker-color": "#ff0000",
        "marker-symbol": "rail"
      },
      "geometry": {
        "coordinates": [
          121.851454,
          24.595177
        ],
        "type": "Point"
      }
    }
  ]
}