{
  "type": "FeatureCollection",
  "metadata": {
    "gap_id": "gap-13",
    "name": "八堵 → 三坑",
    "line": "基隆支線",
    "route": "KL",
    "from_name": "八堵",
    "to_name": "三坑",
    "source": "handdrawn",
    "created_at": "2026-01-10T16:30:45.580030",
    "point_count": 13
  },
  "features": [
    {
      "type": "Feature",
      "properties": {
        "name": "八堵 → 三坑",
        "gap_id": "gap-13",
        "line": "基隆支線",
        "note": "八堵到三坑",
        "stroke": "#0066ff",
        "stroke-width": 4,
        "stroke-opacity": 0.9
      },
      "geometry": {
        "coordinates": [
          [
            121.72882631412068,
            25.108610282176475
          ],
          [
            121.73141688382863,
            25.109742115724288
          ],
          [
            121.73440289732983,
            25.111032328008193
          ],
          [
            121.74006348944471,
            25.113468100197316
          ],
          [
            121.74066944588776,
            25.11381378483631
          ],
          [
            121.74131492535827,
            25.1141952562562
          ],
          [
            121.74174302817187,
            25.114594621020792
          ],
          [
            121.74211843361428,
            25.115041701178797
          ],
          [
            121.74235306975766,
            25.115464273956896
          ],
          [
            121.7425602773298,
            25.115961352682046
          ],
          [
            121.74267834205182,
            25.116439805007246
          ],
          [
            121.74272783534987,
            25.117005180229448
          ],
          [
            121.74202698099927,
            25.123024717667015
          ]
        ],
        "type": "LineString"
      }
    }
  ]
}