{
  "type": "FeatureCollection",
  "metadata": {
    "gap_id": "gap-14",
    "name": "三坑 → 基隆",
    "line": "基隆支線",
    "route": "KL",
    "from_name": "三坑",
    "to_name": "基隆",
    "source": "handdrawn",
    "created_at": "2026-01-10T16:30:45.581004",
    "point_count": 20
  },
  "features": [
    {
      "type": "Feature",
      "properties": {
        "name": "三坑 → 基隆",
        "gap_id": "gap-14",
        "line": "基隆支線",
        "note": "三坑到基隆",
        "stroke": "#0066ff",
        "stroke-width": 4,
        "stroke-opacity": 0.9
      },
      "geometry": {
        "coordinates": [
          [
            121.74202,
            25.12305
          ],
          [
            121.7419311894693,
            25.123643639473094
          ],
          [
            121.7417800003335,
            25.124251398237753
          ],
          [
            121.74148845933503,
            25.12489445489178
          ],
          [
            121.7410565664741,
            25.125481034929425
          ],
          [
            121.74058791663869,
            25.12592804374936
          ],
          [
            121.73997651325908,
            25.126328054123036
          ],
          [
            121.73933915469016,
            25.126716314990226
          ],
          [
            121.73902047540571,
            25.12691044542382
          ],
          [
            121.73870179612125,
            25.127104575857416
          ],
          [
            121.7384053907949,
            25.127359125237717
          ],
          [
            121.73813157082725,
            25.127647754655168
          ],
          [
            121.73778712062219,
            25.128131910832764
          ],
          [
            121.73760957186784,
            25.128630308201984
          ],
          [
            121.73753090959507,
            25.128901152518342
          ],
          [
            121.73749770763484,
            25.12920286511509
          ],
          [
            121.73750801799332,
            25.129775421909503
          ],
          [
            121.73762246705192,
            25.130354946754572
          ],
          [
            121.7378569691467,
            25.130914641806783
          ],
          [
            121.73923655800141,
            25.133096311096633
          ]
        ],
        "type": "LineString"
      }
    }
  ]
}