LINESTRING (120.59482603219567 24.112817734550845, 120.59478724893245 24.11283553213417, 120.59469846965874 24.112872027522087, 120.59417485738379 24.113093276033908, 120.59389286056717 24.11321149371554, 120.59377161037162 24.11326092495176, 120.59362593009268 24.113318481562715, 120.59347943682656 24.113374273703812, 120.59306743131697 24.113522904658396, 120.59298239232362 24.113553032846255, 120.59206465306136 24.11387815934961, 120.59114690930244 24.114203279557728, 120.59022916104698 24.114528394369927, 120.5893114073956 24.11485351277946, 120.58839365014694 24.115178616799767, 120.58747588840163 24.115503714524834, 120.58719567943717 24.115602973598413, 120.58673435600576 24.11575971733714, 120.58655211019175 24.115813468017166, 120.58559151913335 24.11600338774622, 120.5853403393852 24.116028450052966, 120.58460997566988 24.11604564329184, 120.58391667751278 24.115985448070035, 120.58363398462075 24.11594029670738, 120.58343274332651 24.115904430844864, 120.58320482903969 24.11586328865991, 120.58272075096193 24.115782942328963, 120.5826668249141 24.115775808007186, 120.5816855161737 24.11573397334422, 120.5807123669822 24.11585717416932, 120.58058995396323 24.115884739289356, 120.57978004701158 24.116141282594185, 120.57891983917932 24.116576744221447, 120.57867113166742 24.11674121493519, 120.5782897156979 24.117026364774972, 120.57814793487933 24.11713571154388, 120.5775381423714 24.11760601740383, 120.57739459528443 24.117716379507385, 120.57708039194654 24.117948146489823, 120.57684974821734 24.118102560984426, 120.57660367931646 24.1182520723753, 120.57621299763184 24.118460367052364, 120.57598377213344 24.118568594165367, 120.57573404299171 24.118672283299304, 120.57550120941335 24.1187604213564, 120.57526705383157 24.118837708193723, 120.57480583022493 24.11896940221618, 120.57470279399877 24.118996942155206, 120.57386117605245 24.11922147678979, 120.57291649849765 24.119473491108806, 120.57197182723814 24.119725500031848, 120.57102714248867 24.11997750265965, 120.57008246493388 24.120229498992217, 120.56913777298985 24.12048149892206, 120.56819308734111 24.12073348356347, 120.56724838820264 24.120985462808903, 120.56669356225814 24.121133450748232, 120.566443683829 24.121196262997216, 120.56630109811726 24.121228715033226, 120.56619180530765 24.121251940025047, 120.56602068320808 24.12128720244249, 120.56587896354335 24.121316413321892)