{"type": "FeatureCollection", "features": [{"type": "Feature", "properties": {"track_id": "LB-1-1", "color": "#6DB7D0", "route_id": "LB-1", "direction": 1, "name": "鶯桃福德站 → 頂埔站", "start_station": "LB12", "end_station": "LB01", "line_id": "LB", "system_id": "trtc", "source": "osm:relation/5341250"}, "geometry": {"type": "LineString", "coordinates": [[121.32987788312332, 24.966757426494667], [121.3295999, 24.9665443], [121.3294298, 24.9664056], [121.3293375, 24.9663359], [121.3291888, 24.9662425], [121.3290441, 24.9661547], [121.3289222, 24.966086], [121.3283331, 24.9657833], [121.3275696, 24.9653986], [121.3275385, 24.9654508], [121.3283072, 24.9658437], [121.328888, 24.9661433], [121.3290944, 24.966256], [121.3292815, 24.9663678], [121.329404, 24.9664541], [121.3295404, 24.9665521], [121.3303029, 24.9671177], [121.3303818, 24.967173], [121.3304639, 24.9672109], [121.3305727, 24.9672473], [121.3306546, 24.9672536], [121.3307298, 24.9672549], [121.3308112, 24.9672451], [121.3308957, 24.9672202], [121.3310043, 24.9671768], [121.3311115, 24.967111], [121.3312122, 24.9670377], [121.3313098, 24.9669542], [121.3313736, 24.9668891], [121.3314537, 24.9667951], [121.333625, 24.9635563], [121.3336766, 24.9634566], [121.3337205, 24.9633434], [121.3337488, 24.9632584], [121.3337874, 24.9631051], [121.3338896, 24.9624623], [121.3340135, 24.9616275], [121.3340246, 24.9615711], [121.3340406, 24.9615182], [121.3340728, 24.9614364], [121.3341167, 24.9613659], [121.3341699, 24.9612975], [121.3349185, 24.9603794], [121.3349694, 24.9603168], [121.3350093, 24.9602771], [121.3350695, 24.9602099], [121.3351262, 24.9601616], [121.3380133, 24.9584535], [121.3381473, 24.9583865], [121.3382677, 24.9583414], [121.3384262, 24.9582942], [121.3386574, 24.9582774], [121.3388634, 24.9582825], [121.3390337, 24.9583058], [121.3393968, 24.9583573], [121.3396797, 24.9583965], [121.3398374, 24.958413], [121.3400035, 24.9584223], [121.3401572, 24.9584249], [121.3404411, 24.9584142], [121.3406526, 24.9583935], [121.3412242, 24.9583238], [121.3420324, 24.9582051], [121.3421689, 24.9581716], [121.3422972, 24.9581242], [121.3424294, 24.9580502], [121.3425564, 24.9579627], [121.3426444, 24.9578855], [121.342759, 24.9577409], [121.3428194, 24.957627], [121.3428597, 24.9575307], [121.3428755, 24.9574517], [121.3428779, 24.9573204], [121.342872, 24.9571842], [121.3428567, 24.9570466], [121.3428341, 24.9569643], [121.3427862, 24.9568672], [121.342309, 24.9561302], [121.3422066, 24.9559276], [121.3421716, 24.9558469], [121.3421606, 24.9557838], [121.3421552, 24.9557094], [121.3421568, 24.9555794], [121.3421633, 24.9554805], [121.3421737, 24.955412], [121.3422065, 24.9552765], [121.3423174, 24.9549488], [121.3426616, 24.9539327], [121.3427117, 24.9537829], [121.3427897, 24.95361], [121.3429038, 24.9533932], [121.3430339, 24.9531755], [121.3432878, 24.9527376], [121.3433638, 24.9526174], [121.3434416, 24.9525152], [121.3435393, 24.9524099], [121.3436307, 24.9523256], [121.3436574, 24.9523072], [121.3437269, 24.9522659], [121.3438345, 24.9522235], [121.3439043, 24.9522057], [121.3440186, 24.9521999], [121.3440924, 24.9522053], [121.3442061, 24.9522226], [121.3443838, 24.9522668], [121.3462598, 24.9527685], [121.3465592, 24.9528511], [121.3468319, 24.9529189], [121.347186, 24.9529725], [121.3474437, 24.9529949], [121.3476911, 24.9529961], [121.3480188, 24.9529798], [121.3482204, 24.9529573], [121.3484267, 24.9529217], [121.3485561, 24.9528923], [121.3487288, 24.9528486], [121.3490113, 24.9527613], [121.3494928, 24.9526088], [121.3502396, 24.9523679], [121.3504863, 24.9522805], [121.350779, 24.9521717], [121.3510971, 24.9520497], [121.3512373, 24.9520071], [121.351366, 24.9519707], [121.3523109, 24.9517092], [121.3526461, 24.9516197], [121.3528944, 24.9515598], [121.3530583, 24.9515399], [121.3531517, 24.9515412], [121.3532987, 24.9515572], [121.3534223, 24.9515987], [121.3535475, 24.951662], [121.3536532, 24.9517165], [121.3541575, 24.9519935], [121.3558317, 24.9529119], [121.3559389, 24.9529707], [121.3561061, 24.9530642], [121.3562708, 24.9531564], [121.356939, 24.9535303], [121.3573932, 24.9537845], [121.3577286, 24.9539741], [121.3578526, 24.9540361], [121.3580507, 24.9541427], [121.3581942, 24.9541763], [121.3583723, 24.9542115], [121.3584676, 24.9542131], [121.3585655, 24.9542163], [121.3586978, 24.9542011], [121.3588235, 24.954171], [121.3589672, 24.9541205], [121.3590699, 24.9540712], [121.3591062, 24.9540518], [121.3591798, 24.954011], [121.3592471, 24.9539676], [121.3592956, 24.9539265], [121.3593541, 24.953865], [121.3594262, 24.9537858], [121.3600139, 24.9529327], [121.3604627, 24.9523349], [121.3615845, 24.9508479], [121.3623752, 24.9498162], [121.3625036, 24.9496601], [121.3626216, 24.9495195], [121.3627429, 24.9493951], [121.3628638, 24.9492736], [121.3630152, 24.9491321], [121.3631544, 24.9490174], [121.3633489, 24.9488618], [121.3638568, 24.9484768], [121.3649315, 24.9476653], [121.3651064, 24.9475336], [121.3652354, 24.9474365], [121.366186, 24.9467208], [121.3663155, 24.9466216], [121.3664067, 24.9465426], [121.366522, 24.9464319], [121.3666025, 24.9463443], [121.366687, 24.9462313], [121.3667688, 24.9460805], [121.366821, 24.9459455], [121.3668639, 24.9458069], [121.3668881, 24.9456659], [121.3668907, 24.9455357], [121.366876, 24.9453922], [121.3668618, 24.9453126], [121.3668519, 24.9452572], [121.3668197, 24.9451489], [121.3667763, 24.945039], [121.3667561, 24.9449877], [121.3667153, 24.9448892], [121.3666759, 24.9448195], [121.3666264, 24.9447568], [121.3665691, 24.9446915], [121.3665147, 24.9446368], [121.3664111, 24.944543], [121.3658022, 24.944005], [121.3650331, 24.943314], [121.3647628, 24.9430668], [121.3647258, 24.9430295], [121.3646458, 24.9429487], [121.3638815, 24.942177], [121.3634109, 24.9416938], [121.3630426, 24.9412947], [121.3628088, 24.9410413], [121.3626276, 24.9408405], [121.362502, 24.940689], [121.3624109, 24.9405564], [121.3623475, 24.9404309], [121.3623094, 24.9403442], [121.362281, 24.9402397], [121.3622713, 24.9401749], [121.3622638, 24.9401248], [121.362255, 24.9400042], [121.3622612, 24.9398363], [121.3622731, 24.9397428], [121.3622792, 24.9396953], [121.3623106, 24.939596], [121.362336, 24.9395359], [121.3623883, 24.939435], [121.3624405, 24.9393492], [121.3625253, 24.9392419], [121.3626446, 24.9391235], [121.362728, 24.9390521], [121.3627979, 24.9390022], [121.3628476, 24.9389668], [121.3629528, 24.9389101], [121.362999, 24.9388851], [121.3631069, 24.9388446], [121.363196, 24.9388136], [121.3632885, 24.9387911], [121.3633823, 24.9387726], [121.3634904, 24.9387583], [121.363718, 24.9387508], [121.3637856, 24.9387543], [121.3646447, 24.9388726], [121.3649463, 24.9389058], [121.3654308, 24.9389524], [121.3657766, 24.9389772], [121.3661533, 24.9389939], [121.3665492, 24.9390049], [121.3671583, 24.9390069], [121.3674652, 24.9390031], [121.3676868, 24.9390034], [121.3677265, 24.9390079], [121.3678363, 24.9390203], [121.367941, 24.9390479], [121.3680148, 24.9390694], [121.3680343, 24.9390789], [121.3681027, 24.9391205], [121.3681859, 24.9391836], [121.3682176, 24.9392155], [121.3682682, 24.9392768], [121.368307, 24.9393401], [121.368323, 24.9393803], [121.3683467, 24.9394398], [121.3683669, 24.9395328], [121.3683981, 24.9397319], [121.3685007, 24.9403861], [121.3685055, 24.9404509], [121.3685477, 24.9406626], [121.3685923, 24.9407609], [121.3686147, 24.9408276], [121.3686456, 24.9408761], [121.3686995, 24.9409396], [121.368767, 24.9410069], [121.3688393, 24.9410641], [121.3689409, 24.9411313], [121.3690293, 24.941177], [121.3691136, 24.941206], [121.3692279, 24.9412248], [121.3693351, 24.9412309], [121.3712029, 24.9412259], [121.3714736, 24.9412208], [121.3717983, 24.941209], [121.3721426, 24.9411915], [121.3727037, 24.9411601], [121.3728526, 24.9411487], [121.3729551, 24.9411398], [121.3730253, 24.9411295], [121.373122, 24.9411149], [121.3732026, 24.9410977], [121.3732597, 24.9410851], [121.3733366, 24.941065], [121.3734322, 24.9410366], [121.3735094, 24.9410114], [121.3736029, 24.9409707], [121.3737151, 24.9409254], [121.3742192, 24.9406995], [121.3745391, 24.9405627], [121.3746446, 24.9405117], [121.374726, 24.9404687], [121.3748022, 24.9404277], [121.374888, 24.9403797], [121.3749514, 24.9403351], [121.375031, 24.9402705], [121.3750968, 24.940216], [121.3752124, 24.9401086], [121.3760662, 24.9393229], [121.3762427, 24.9391605], [121.37665, 24.9387857], [121.3770025, 24.9384613], [121.3770678, 24.9384097], [121.3771163, 24.9383709], [121.377169, 24.9383349], [121.3772392, 24.9383051], [121.3773192, 24.9382823], [121.3773866, 24.9382727], [121.3774379, 24.9382693], [121.3775029, 24.9382678], [121.3775563, 24.938272], [121.3776134, 24.9382814], [121.377674, 24.9382985], [121.377736, 24.9383267], [121.3777981, 24.9383646], [121.3778504, 24.9384007], [121.3779053, 24.9384571], [121.3779553, 24.9385231], [121.3779832, 24.9385771], [121.3780134, 24.9386458], [121.378031, 24.9387167], [121.3780499, 24.9387954], [121.3781458, 24.9393592], [121.3781774, 24.939478], [121.378225, 24.9395678], [121.3783056, 24.9396465], [121.3783588, 24.9396852], [121.3784123, 24.9397162], [121.3784774, 24.9397428], [121.3785485, 24.9397571], [121.3786318, 24.9397646], [121.3787089, 24.9397612], [121.3787663, 24.9397551], [121.3788342, 24.9397398], [121.3796152, 24.9395407], [121.3797591, 24.9395054], [121.3799103, 24.9394723], [121.38008, 24.9394416], [121.3801917, 24.9394226], [121.3803229, 24.9394106], [121.380505, 24.9393992], [121.3806601, 24.939397], [121.3808404, 24.9393964], [121.3810045, 24.9394052], [121.3813679, 24.9394471], [121.3816347, 24.9394824], [121.3842063, 24.9398253], [121.3846684, 24.9398869], [121.3852002, 24.9399495], [121.3852977, 24.939957], [121.3854398, 24.9399542], [121.3855737, 24.9399396], [121.3856622, 24.9399233], [121.3857642, 24.9398928], [121.3858766, 24.939846], [121.3859621, 24.9397895], [121.3860445, 24.9397274], [121.3861245, 24.9396545], [121.3861825, 24.9395953], [121.3865261, 24.9392132], [121.3868643, 24.9388126], [121.3876603, 24.9378724], [121.3882046, 24.9372453], [121.3889652, 24.936369], [121.3890662, 24.9362912], [121.3891264, 24.9362521], [121.3891934, 24.9362245], [121.3892769, 24.9361993], [121.3893764, 24.9361857], [121.3894628, 24.9361843], [121.3895378, 24.9361935], [121.3896219, 24.936213], [121.3896879, 24.9362447], [121.3897586, 24.9362804], [121.3898493, 24.9363519], [121.3899135, 24.936413], [121.3899993, 24.9365169], [121.3901309, 24.9366766], [121.3902732, 24.9368482], [121.3903614, 24.9369493], [121.390474, 24.9370489], [121.3905794, 24.9371341], [121.3906904, 24.9372131], [121.3908053, 24.9372905], [121.3916351, 24.9378067], [121.3936588, 24.9390497], [121.3943041, 24.9394401], [121.3946553, 24.9396826], [121.3947747, 24.9397735], [121.3948673, 24.9398535], [121.3949724, 24.9399675], [121.3950944, 24.9400791], [121.395538, 24.9405287], [121.3957818, 24.9407723], [121.3958349, 24.9408194], [121.3959304, 24.9409072], [121.3960342, 24.9409872], [121.3961621, 24.9410673], [121.3962946, 24.9411339], [121.3963415, 24.9411564], [121.3964351, 24.9412011], [121.3965988, 24.9412633], [121.3976303, 24.9416013], [121.3988571, 24.9420326], [121.3990237, 24.9421059], [121.3991559, 24.9421663], [121.3992574, 24.9422192], [121.3994119, 24.9423039], [121.4011936, 24.9433372], [121.402135, 24.9439093], [121.4032033, 24.944571], [121.4033334, 24.944655], [121.4034733, 24.944752], [121.4036292, 24.9448765], [121.4037843, 24.9450185], [121.4049295, 24.9461685], [121.4060725, 24.9470432], [121.4062442, 24.9472144], [121.4063946, 24.9473975], [121.4065567, 24.9477938], [121.4067015, 24.9482297], [121.4068269, 24.9485489], [121.406936, 24.9487373], [121.4070301, 24.94888], [121.4071502, 24.949044], [121.407289, 24.949191], [121.4075319, 24.9494149], [121.407723, 24.9495694], [121.4078576, 24.9496584], [121.4079709, 24.9497222], [121.4081283, 24.949801], [121.40827, 24.9498547], [121.40842, 24.9499077], [121.4086581, 24.9499788], [121.4088952, 24.9500554], [121.4091075, 24.9501302], [121.4093669, 24.950233], [121.4095164, 24.9503188], [121.4096459, 24.9503986], [121.4097546, 24.950473], [121.4098382, 24.9505401], [121.4099296, 24.95063], [121.4100459, 24.9507381], [121.4101263, 24.9508066], [121.4103045, 24.9509942], [121.4105205, 24.951232], [121.4106238, 24.9513622], [121.4112485, 24.9522168], [121.4123415, 24.9537391], [121.4126325, 24.9541465], [121.4130912, 24.9547817], [121.4138492, 24.9558283], [121.4139392, 24.955951], [121.4140091, 24.9560381], [121.4140785, 24.9561226], [121.4141421, 24.9561832], [121.4141913, 24.956224], [121.4142754, 24.9562794], [121.4165043, 24.957808], [121.4173667, 24.958413], [121.4178716, 24.9587473], [121.4183316, 24.9589838], [121.4187862, 24.9591918], [121.41893662992257, 24.95929495561727]]}}]}