{
  "type": "FeatureCollection",
  "features": [
    {
      "type": "Feature",
      "properties": {
        "track_id": "JJ-ES-CT",
        "origin": "二水",
        "destination": "車埕",
        "origin_station_id": "3430",
        "destination_station_id": "3436",
        "source_tracks": [
          "JJ-0"
        ],
        "stations": [
          {
            "station_id": "3430",
            "name": "二水",
            "progress": 0.0
          },
          {
            "station_id": "3431",
            "name": "源泉",
            "progress": 0.086115
          },
          {
            "station_id": "3432",
            "name": "濁水",
            "progress": 0.351435
          },
          {
            "station_id": "3433",
            "name": "龍泉",
            "progress": 0.519335
          },
          {
            "station_id": "3434",
            "name": "集集",
            "progress": 0.666841
          },
          {
            "station_id": "3435",
            "name": "水里",
            "progress": 0.919327
          },
          {
            "station_id": "3436",
            "name": "車埕",
            "progress": 1.0
          }
        ]
      },
      "geometry": {
        "type": "LineString",
        "coordinates": [
          [
            120.621691,
            23.811299
          ],
          [
            120.621965175598,
            23.810893940177902
          ],
          [
            120.62233955265002,
            23.810635936946397
          ],
          [
            120.62258320519706,
            23.810467170139205
          ],
          [
            120.62279402301931,
            23.81032021869019
          ],
          [
            120.62297990534196,
            23.810192553872042
          ],
          [
            120.62313233146216,
            23.81009269702689
          ],
          [
            120.62331704283916,
            23.80997708715108
          ],
          [
            120.62349872961961,
            23.80987083433664
          ],
          [
            120.62354032312243,
            23.809846509692456
          ],
          [
            120.62374281965526,
            23.80972633847062
          ],
          [
            120.62389837702338,
            23.809632055279913
          ],
          [
            120.6241538234089,
            23.809465345457582
          ],
          [
            120.6245919977787,
            23.80915980455512
          ],
          [
            120.6252128568298,
            23.80873095558103
          ],
          [
            120.62601995310445,
            23.80817248592036
          ],
          [
            120.62641120543017,
            23.807899427589167
          ],
          [
            120.62685291866462,
            23.80759539933053
          ],
          [
            120.62725355711027,
            23.80731669538961
          ],
          [
            120.62769816377651,
            23.807009142842112
          ],
          [
            120.62805956072764,
            23.80675498493318
          ],
          [
            120.6282503075858,
            23.80662556634896
          ],
          [
            120.628389300788,
            23.80653056860409
          ],
          [
            120.62853036598202,
            23.806438519394494
          ],
          [
            120.62868961522088,
            23.80634102197036
          ],
          [
            120.62887721257475,
            23.80623679142249
          ],
          [
            120.62946088988966,
            23.805929337000215
          ],
          [
            120.62991437408958,
            23.805689711444494
          ],
          [
            120.63038695442935,
            23.805441841037254
          ],
          [
            120.63050003604918,
            23.80538252957413
          ],
          [
            120.63117343203959,
            23.80503052057926
          ],
          [
            120.6313924808533,
            23.80491494136212
          ],
          [
            120.63150273488523,
            23.80485676735867
          ],
          [
            120.63166041654979,
            23.804773567882606
          ],
          [
            120.63201205050234,
            23.8045880307627
          ],
          [
            120.6324512570482,
            23.804359889949033
          ],
          [
            120.6325231069297,
            23.804319662303588
          ],
          [
            120.63269641361315,
            23.804222630276485
          ],
          [
            120.63284541332733,
            23.804134909407292
          ],
          [
            120.6330555192403,
            23.80399784023959
          ],
          [
            120.63305798213102,
            23.803996233395875
          ],
          [
            120.63310210374435,
            23.80396744966195
          ],
          [
            120.63380636262004,
            23.80344293878194
          ],
          [
            120.63442749257194,
            23.802983442746296
          ],
          [
            120.63499977777862,
            23.80255000655983
          ],
          [
            120.63558814865081,
            23.802111352709165
          ],
          [
            120.6361348348014,
            23.80170370372203
          ],
          [
            120.636502602107,
            23.801429831474422
          ],
          [
            120.63708087297181,
            23.800995952672324
          ],
          [
            120.63756033810385,
            23.80063964481161
          ],
          [
            120.63802205392194,
            23.800292821008366
          ],
          [
            120.63852007066383,
            23.79992010511572
          ],
          [
            120.63899345951202,
            23.799566537011568
          ],
          [
            120.63921786409698,
            23.799399125832373
          ],
          [
            120.6392448165645,
            23.799379018320383
          ],
          [
            120.63943122463888,
            23.799238226912
          ],
          [
            120.63964227250104,
            23.799082341893588
          ],
          [
            120.63974201350639,
            23.799012452899856
          ],
          [
            120.63987354147339,
            23.798929337289252
          ],
          [
            120.63997157985828,
            23.79887217332846
          ],
          [
            120.64005712493514,
            23.798826997781834
          ],
          [
            120.64014290620558,
            23.798784407939017
          ],
          [
            120.6402630006628,
            23.798733126599693
          ],
          [
            120.64035123771801,
            23.79869709972788
          ],
          [
            120.64047280907386,
            23.798655042788663
          ],
          [
            120.64058137010976,
            23.798626014193335
          ],
          [
            120.64069548346856,
            23.798594522507248
          ],
          [
            120.64083143609822,
            23.798560737461067
          ],
          [
            120.6409416428617,
            23.79853557715005
          ],
          [
            120.64107591089191,
            23.7985169713984
          ],
          [
            120.64121361806953,
            23.79850352767545
          ],
          [
            120.64134457907417,
            23.79849450714774
          ],
          [
            120.64143255155041,
            23.798490355665393
          ],
          [
            120.64153566550651,
            23.798491824173173
          ],
          [
            120.64169099489554,
            23.798497975665722
          ],
          [
            120.64210898334662,
            23.798522218795007
          ],
          [
            120.64251353246746,
            23.798548593174825
          ],
          [
            120.64280741676646,
            23.798565411593696
          ],
          [
            120.64290700911035,
            23.798571775061774
          ],
          [
            120.64317578673057,
            23.79858894733563
          ],
          [
            120.64346313218088,
            23.798604803074788
          ],
          [
            120.64383970745318,
            23.798627615756896
          ],
          [
            120.64414295085763,
            23.798648180695082
          ],
          [
            120.6444567480664,
            23.798666479424146
          ],
          [
            120.64480155688261,
            23.798687698674758
          ],
          [
            120.64509453302179,
            23.798705633044044
          ],
          [
            120.64542915586595,
            23.798725690627816
          ],
          [
            120.64576013289559,
            23.798745826705524
          ],
          [
            120.64607986146537,
            23.798765364695846
          ],
          [
            120.64636842664848,
            23.798781910406817
          ],
          [
            120.64667682742963,
            23.7987997308422
          ],
          [
            120.64699124017085,
            23.798820049388258
          ],
          [
            120.64727912300205,
            23.798836805841095
          ],
          [
            120.64759733194624,
            23.79885634353838
          ],
          [
            120.64790034341749,
            23.798875295092415
          ],
          [
            120.648078254757,
            23.79888536181603
          ],
          [
            120.6482356501967,
            23.798894995097154
          ],
          [
            120.64834813626429,
            23.79890384233394
          ],
          [
            120.64845341213757,
            23.798914597291713
          ],
          [
            120.6485513239764,
            23.79892753955553
          ],
          [
            120.6486579953079,
            23.798945980020132
          ],
          [
            120.64881752286915,
            23.798977695177438
          ],
          [
            120.64895128198806,
            23.799006195670486
          ],
          [
            120.6490983761656,
            23.79904514574252
          ],
          [
            120.64917186972482,
            23.79906958377863
          ],
          [
            120.64921492441509,
            23.799083898920415
          ],
          [
            120.64934502183138,
            23.79912939547912
          ],
          [
            120.64945338153372,
            23.799172645622413
          ],
          [
            120.64953298696402,
            23.7992073767814
          ],
          [
            120.6496641237793,
            23.79926608136839
          ],
          [
            120.64978683188107,
            23.799326976282675
          ],
          [
            120.64988779534607,
            23.79938380625741
          ],
          [
            120.65008149827429,
            23.79949252707766
          ],
          [
            120.65041179636171,
            23.79967720258147
          ],
          [
            120.65078733248029,
            23.799889991701665
          ],
          [
            120.65097852779007,
            23.79999716435811
          ],
          [
            120.65108555355803,
            23.800057156825282
          ],
          [
            120.651095324066,
            23.800062633759424
          ],
          [
            120.65115382287073,
            23.80009462099562
          ],
          [
            120.651236254523,
            23.800139694870435
          ],
          [
            120.65137684291874,
            23.800205991679164
          ],
          [
            120.65149420551916,
            23.800259069700644
          ],
          [
            120.65160827000258,
            23.800303630598194
          ],
          [
            120.65172609648971,
            23.80033811553484
          ],
          [
            120.65182930566846,
            23.800365230769266
          ],
          [
            120.65190208510082,
            23.80038229495765
          ],
          [
            120.65202655104005,
            23.800404108819208
          ],
          [
            120.65214111136653,
            23.8004184706131
          ],
          [
            120.65227510957065,
            23.800429143249293
          ],
          [
            120.65238985105815,
            23.800431131869743
          ],
          [
            120.65252122256013,
            23.80042985930608
          ],
          [
            120.65264322179104,
            23.800422040671442
          ],
          [
            120.65283006469853,
            23.800401600754487
          ],
          [
            120.65310345428692,
            23.800361417626988
          ],
          [
            120.6534933226854,
            23.800300078980783
          ],
          [
            120.65382806385352,
            23.8002483307356
          ],
          [
            120.65416698263556,
            23.8001964999245
          ],
          [
            120.65436148677612,
            23.800172611524346
          ],
          [
            120.65451614111181,
            23.80016008783669
          ],
          [
            120.6546555449635,
            23.800153547255796
          ],
          [
            120.6548009704853,
            23.80015181388877
          ],
          [
            120.65492551553042,
            23.800154192771057
          ],
          [
            120.65507789420725,
            23.800162784805806
          ],
          [
            120.65516441290642,
            23.800171340587056
          ],
          [
            120.65523604727795,
            23.80017842463285
          ],
          [
            120.65531368111151,
            23.800186102657054
          ],
          [
            120.65547112916187,
            23.800209359931202
          ],
          [
            120.65556921328053,
            23.800226840983004
          ],
          [
            120.65568677266187,
            23.80025097788176
          ],
          [
            120.65578525612828,
            23.800273349271446
          ],
          [
            120.65611365288325,
            23.800353935668998
          ],
          [
            120.65653295376309,
            23.800461737903873
          ],
          [
            120.65691566609287,
            23.800558736689737
          ],
          [
            120.65733655947848,
            23.800665274326757
          ],
          [
            120.65777731124106,
            23.800779024449444
          ],
          [
            120.6580555020337,
            23.800850183039692
          ],
          [
            120.65805788515792,
            23.800850792408017
          ],
          [
            120.65822385711674,
            23.800896025107026
          ],
          [
            120.65833485407381,
            23.80092697643052
          ],
          [
            120.65845118210676,
            23.80096384219198
          ],
          [
            120.65855263301755,
            23.8010002035951
          ],
          [
            120.65865729429257,
            23.801043603463587
          ],
          [
            120.6587664449651,
            23.801090549221545
          ],
          [
            120.658911669031,
            23.801165989318896
          ],
          [
            120.65901321278142,
            23.801231183370767
          ],
          [
            120.6591278843628,
            23.80131783294058
          ],
          [
            120.65922478903225,
            23.8014027311558
          ],
          [
            120.65931623291412,
            23.80148897532058
          ],
          [
            120.65941670178655,
            23.80159585326121
          ],
          [
            120.6595094965399,
            23.801700453164404
          ],
          [
            120.65959240773371,
            23.801800271650674
          ],
          [
            120.65968990140527,
            23.801925660963626
          ],
          [
            120.65981721493786,
            23.802094158749092
          ],
          [
            120.65995678034409,
            23.802271688753027
          ],
          [
            120.66008221311218,
            23.802421761580938
          ],
          [
            120.66019608561686,
            23.80254199547966
          ],
          [
            120.66030146279819,
            23.802640615155124
          ],
          [
            120.6604238072737,
            23.802751672592567
          ],
          [
            120.66055385556639,
            23.80285111301405
          ],
          [
            120.6606821543782,
            23.80294937200582
          ],
          [
            120.66088428962004,
            23.80308771892555
          ],
          [
            120.66109047745577,
            23.803212437827877
          ],
          [
            120.66138526357904,
            23.803364626044896
          ],
          [
            120.66165017663319,
            23.8035040732011
          ],
          [
            120.66177770652189,
            23.803575803948146
          ],
          [
            120.6618781080089,
            23.803638836424653
          ],
          [
            120.66197169498953,
            23.803706360630645
          ],
          [
            120.6620748786559,
            23.80378390438854
          ],
          [
            120.66220557819557,
            23.803895767012705
          ],
          [
            120.66236372421032,
            23.804044184938586
          ],
          [
            120.66261641496607,
            23.804273876335394
          ],
          [
            120.66293908901037,
            23.804571944138154
          ],
          [
            120.66329743211081,
            23.804889920146472
          ],
          [
            120.66358029439162,
            23.805152734452637
          ],
          [
            120.6637858695885,
            23.80534196113729
          ],
          [
            120.66446615163083,
            23.805961563128903
          ],
          [
            120.66496556074544,
            23.806423823304247
          ],
          [
            120.66546525848554,
            23.806880147271002
          ],
          [
            120.66568163475675,
            23.807074707933975
          ],
          [
            120.66592485277683,
            23.807282926055002
          ],
          [
            120.66619184214781,
            23.80749433756828
          ],
          [
            120.66650896794674,
            23.80773963802452
          ],
          [
            120.66709658379386,
            23.80819835994
          ],
          [
            120.66754742845868,
            23.808549513000674
          ],
          [
            120.66795608571245,
            23.808864096670046
          ],
          [
            120.66840686164426,
            23.809214760381263
          ],
          [
            120.66896079021846,
            23.809649922881817
          ],
          [
            120.66943095368994,
            23.810008824185232
          ],
          [
            120.67015979769222,
            23.810578592651645
          ],
          [
            120.67104451404663,
            23.811258261063216
          ],
          [
            120.67154276927205,
            23.81165070521102
          ],
          [
            120.6717227243964,
            23.81179015830601
          ],
          [
            120.67208490344177,
            23.81207082316253
          ],
          [
            120.67242473356954,
            23.812336558767573
          ],
          [
            120.67288004230711,
            23.812690359617825
          ],
          [
            120.67313339916039,
            23.812887982539117
          ],
          [
            120.67328335091803,
            23.81300494497995
          ],
          [
            120.67330450267434,
            23.813021279357987
          ],
          [
            120.67371109488016,
            23.81333526195948
          ],
          [
            120.67408977604454,
            23.813629660506383
          ],
          [
            120.67450591359938,
            23.813948464989924
          ],
          [
            120.6749459174606,
            23.814285450288956
          ],
          [
            120.67546799196751,
            23.81469636161929
          ],
          [
            120.67548694472794,
            23.814711143382056
          ],
          [
            120.67550721110274,
            23.81472694826205
          ],
          [
            120.67554459943676,
            23.8147561061572
          ],
          [
            120.67568275558651,
            23.814863850131125
          ],
          [
            120.67571910858864,
            23.81489220035806
          ],
          [
            120.67572123231015,
            23.814893855451956
          ],
          [
            120.67577958574734,
            23.814939310824258
          ],
          [
            120.67581130398973,
            23.81496382359772
          ],
          [
            120.67615536705378,
            23.81523097577038
          ],
          [
            120.67657625884273,
            23.815561820356738
          ],
          [
            120.67705693302894,
            23.815931836110384
          ],
          [
            120.67747821741598,
            23.8162581633155
          ],
          [
            120.67818021912373,
            23.816804827523825
          ],
          [
            120.67835041613931,
            23.816937361089902
          ],
          [
            120.67885021081918,
            23.81732900838176
          ],
          [
            120.67918670625913,
            23.817596166051054
          ],
          [
            120.67954906994139,
            23.81790548221657
          ],
          [
            120.67996341374315,
            23.818263539356735
          ],
          [
            120.6808011453787,
            23.818984662448248
          ],
          [
            120.68160525235874,
            23.8196726087168
          ],
          [
            120.68231089810754,
            23.82029776317226
          ],
          [
            120.68305550670141,
            23.820931157338283
          ],
          [
            120.6830578476948,
            23.820933148682748
          ],
          [
            120.68315609247357,
            23.82101616191092
          ],
          [
            120.68386179520931,
            23.821636008972735
          ],
          [
            120.68447391591522,
            23.8221624749037
          ],
          [
            120.68497149611471,
            23.82259163522998
          ],
          [
            120.6850077677131,
            23.822622500587194
          ],
          [
            120.68540882321064,
            23.82296378396418
          ],
          [
            120.68572524356242,
            23.823247735858583
          ],
          [
            120.6858219154624,
            23.823333182204024
          ],
          [
            120.6858222778901,
            23.823333489952084
          ],
          [
            120.68592647364362,
            23.823420874887216
          ],
          [
            120.68647522976431,
            23.823907798228042
          ],
          [
            120.68689894849888,
            23.82429348670273
          ],
          [
            120.68728095504189,
            23.824637778574115
          ],
          [
            120.68770054914518,
            23.82500173104298
          ],
          [
            120.68819259023378,
            23.82542474764659
          ],
          [
            120.68861062870495,
            23.825796938607354
          ],
          [
            120.68907784586568,
            23.826210222423548
          ],
          [
            120.68949163904145,
            23.826586610274923
          ],
          [
            120.68989940234427,
            23.82693638341717
          ],
          [
            120.69024708697943,
            23.827244453058626
          ],
          [
            120.69056804337211,
            23.82753671146244
          ],
          [
            120.6908946023601,
            23.82782220816369
          ],
          [
            120.69121429595144,
            23.82811008329203
          ],
          [
            120.69146350906107,
            23.8283377241266
          ],
          [
            120.69159293412505,
            23.828447964730294
          ],
          [
            120.6916441576049,
            23.828491590304306
          ],
          [
            120.69196120101981,
            23.82876835206568
          ],
          [
            120.69222383547957,
            23.82899990125709
          ],
          [
            120.69242643868527,
            23.829172592106087
          ],
          [
            120.6927821871893,
            23.829483570659235
          ],
          [
            120.69318747789923,
            23.829848861261794
          ],
          [
            120.6936970217341,
            23.830303526170916
          ],
          [
            120.69419675191392,
            23.83075035924922
          ],
          [
            120.69462036573587,
            23.831120423024533
          ],
          [
            120.6948183786993,
            23.83128593206889
          ],
          [
            120.69514564477613,
            23.831583475816245
          ],
          [
            120.69548073733469,
            23.8318719143448
          ],
          [
            120.69549437260486,
            23.83188417650933
          ],
          [
            120.69565695776463,
            23.83203037222286
          ],
          [
            120.69588001879247,
            23.83222756938838
          ],
          [
            120.6959106405365,
            23.83225468274778
          ],
          [
            120.69599071163778,
            23.83232558829814
          ],
          [
            120.69606682530001,
            23.832392991514478
          ],
          [
            120.6961681242147,
            23.832482684460775
          ],
          [
            120.69627305490357,
            23.832572510912275
          ],
          [
            120.6963879039652,
            23.832664839992944
          ],
          [
            120.6964890786124,
            23.83274062676323
          ],
          [
            120.6966114137375,
            23.832826198151146
          ],
          [
            120.69676009383869,
            23.832920896108874
          ],
          [
            120.69687406112266,
            23.832987443332595
          ],
          [
            120.69697514746352,
            23.833042316852392
          ],
          [
            120.6970720361146,
            23.833091448204488
          ],
          [
            120.69717627455879,
            23.833141677497924
          ],
          [
            120.69731428810094,
            23.833205562729557
          ],
          [
            120.69743138963871,
            23.833258390570887
          ],
          [
            120.69773059582496,
            23.833393519959827
          ],
          [
            120.69822590209614,
            23.833616720123455
          ],
          [
            120.69861115767999,
            23.83379039243018
          ],
          [
            120.69876032363501,
            23.833854343327317
          ],
          [
            120.69899052363415,
            23.833938958771895
          ],
          [
            120.69916940049517,
            23.833991454439534
          ],
          [
            120.69926243495027,
            23.834014165059127
          ],
          [
            120.6995298625567,
            23.834062950288104
          ],
          [
            120.69974394111605,
            23.834085399894956
          ],
          [
            120.69986641311708,
            23.834091643160527
          ],
          [
            120.69997961863805,
            23.83409362433866
          ],
          [
            120.70015140038915,
            23.834094283673746
          ],
          [
            120.70040622003087,
            23.834093740754707
          ],
          [
            120.7006902040588,
            23.834092983158577
          ],
          [
            120.7009836201614,
            23.834092785118322
          ],
          [
            120.70120684090178,
            23.83409250464183
          ],
          [
            120.70132006127568,
            23.834092299679444
          ],
          [
            120.70141214730648,
            23.834092134962344
          ],
          [
            120.70321045424626,
            23.834111373619187
          ],
          [
            120.703389120985,
            23.834134972630693
          ],
          [
            120.70362105453785,
            23.834194007402907
          ],
          [
            120.70378907752156,
            23.834244564757203
          ],
          [
            120.70403457950673,
            23.834290692645098
          ],
          [
            120.70479675999003,
            23.834513617585355
          ],
          [
            120.70561707491322,
            23.834736957885966
          ],
          [
            120.70615840913587,
            23.834824440805328
          ],
          [
            120.70647836292339,
            23.834907083854674
          ],
          [
            120.70664046160832,
            23.8349438767734
          ],
          [
            120.7068435815751,
            23.83497549414449
          ],
          [
            120.70699706868629,
            23.83498948570316
          ],
          [
            120.7071350377108,
            23.83499496050277
          ],
          [
            120.70732033690138,
            23.834992628274914
          ],
          [
            120.70748204198696,
            23.834982945401762
          ],
          [
            120.70760340004394,
            23.834967584688876
          ],
          [
            120.70782869591457,
            23.834936917111094
          ],
          [
            120.7079547794582,
            23.83491159791525
          ],
          [
            120.70809261916219,
            23.83486784411713
          ],
          [
            120.7084120891787,
            23.83475643873045
          ],
          [
            120.70891850448362,
            23.834487822143643
          ],
          [
            120.71123080273283,
            23.83322452502141
          ],
          [
            120.71185866911023,
            23.83288138708187
          ],
          [
            120.71232492850763,
            23.83264059048922
          ],
          [
            120.71249429625622,
            23.83257173932368
          ],
          [
            120.71273480446064,
            23.832505846081837
          ],
          [
            120.71291683575545,
            23.832472860494597
          ],
          [
            120.71307668582088,
            23.832461742757694
          ],
          [
            120.7131885097306,
            23.832458487485795
          ],
          [
            120.71332887474185,
            23.832464446600444
          ],
          [
            120.71342913427569,
            23.832473861124107
          ],
          [
            120.71349896005167,
            23.832483275647775
          ],
          [
            120.71369052085623,
            23.832519600905137
          ],
          [
            120.7138045615113,
            23.832551682875657
          ],
          [
            120.71392063108499,
            23.832591188494106
          ],
          [
            120.71403999346697,
            23.83264156806339
          ],
          [
            120.71416747151802,
            23.832703083096767
          ],
          [
            120.71480537675762,
            23.83300392870394
          ],
          [
            120.7162377903432,
            23.833688195225502
          ],
          [
            120.71748310765507,
            23.83427951476604
          ],
          [
            120.71777047700476,
            23.834391561474146
          ],
          [
            120.71861738559771,
            23.834685115388254
          ],
          [
            120.7194417136042,
            23.83496981721793
          ],
          [
            120.7228521313909,
            23.836149089051688
          ],
          [
            120.72361235843317,
            23.836323669235668
          ],
          [
            120.72399049954555,
            23.836354597624894
          ],
          [
            120.72451927951157,
            23.83643763141746
          ],
          [
            120.72595114361968,
            23.83666062685236
          ],
          [
            120.72737516823732,
            23.83698670666191
          ],
          [
            120.72838240826434,
            23.837214042747508
          ],
          [
            120.72879324242469,
            23.837273701951162
          ],
          [
            120.72945712891678,
            23.837312786368386
          ],
          [
            120.7302943685387,
            23.837341923187505
          ],
          [
            120.73074672865957,
            23.837369350824744
          ],
          [
            120.73132868414635,
            23.837381263380035
          ],
          [
            120.73186902232804,
            23.837399520467592
          ],
          [
            120.73200670602961,
            23.83739590903927
          ],
          [
            120.73215826216767,
            23.8373827808132
          ],
          [
            120.73236357399163,
            23.83734586059082
          ],
          [
            120.73252033229224,
            23.837305768101338
          ],
          [
            120.73267969167404,
            23.837249021206542
          ],
          [
            120.73281477429428,
            23.837189102042487
          ],
          [
            120.73338666500717,
            23.836878927384777
          ],
          [
            120.73399090037871,
            23.83654566501189
          ],
          [
            120.73479975417357,
            23.83613309546842
          ],
          [
            120.7355496501199,
            23.835752248768465
          ],
          [
            120.7359182819828,
            23.835565285807107
          ],
          [
            120.73603190401545,
            23.835507831615256
          ],
          [
            120.73617253779804,
            23.835457857651285
          ],
          [
            120.73633942931566,
            23.835407883687317
          ],
          [
            120.73645680778463,
            23.835378729076645
          ],
          [
            120.7366171451755,
            23.835351360601017
          ],
          [
            120.73683215755726,
            23.835335602004285
          ],
          [
            120.73715456724116,
            23.8353252018132
          ],
          [
            120.73852709784175,
            23.83529252512846
          ],
          [
            120.73988585199697,
            23.835250397344687
          ],
          [
            120.74050656502985,
            23.835233323620606
          ],
          [
            120.74121682495304,
            23.835222550631762
          ],
          [
            120.74193483412395,
            23.835216503189535
          ],
          [
            120.74226800787537,
            23.83524498314314
          ],
          [
            120.74256674051807,
            23.835289214931638
          ],
          [
            120.74281502236029,
            23.835338905633442
          ],
          [
            120.74312529820219,
            23.835423250345976
          ],
          [
            120.74362375255072,
            23.835591362192602
          ],
          [
            120.74414088498527,
            23.835770864045422
          ],
          [
            120.74459259865708,
            23.835916876249645
          ],
          [
            120.74515436900413,
            23.83611186282856
          ],
          [
            120.7453926449087,
            23.836197059873093
          ],
          [
            120.74568113690671,
            23.836282256917624
          ],
          [
            120.74597153278579,
            23.836337796103635
          ],
          [
            120.74629261627973,
            23.836363989308673
          ],
          [
            120.74652093935947,
            23.83636340918701
          ],
          [
            120.74669485287954,
            23.836347112663027
          ],
          [
            120.74694465341841,
            23.83630855122923
          ],
          [
            120.74710678128142,
            23.836269624999737
          ],
          [
            120.74722309056679,
            23.836230698770244
          ],
          [
            120.74814472092265,
            23.835905056506753
          ],
          [
            120.74864250751861,
            23.8357186408577
          ],
          [
            120.74882984253952,
            23.835647644209928
          ],
          [
            120.74930329044582,
            23.835496349742314
          ],
          [
            120.75003729966149,
            23.83524612254399
          ],
          [
            120.75036068574377,
            23.835125810523984
          ],
          [
            120.75064455595319,
            23.834963433038048
          ],
          [
            120.75075845520307,
            23.834885702865915
          ],
          [
            120.75113209361706,
            23.83463243956254
          ],
          [
            120.7515074951921,
            23.834382514819175
          ],
          [
            120.75190949171702,
            23.834128167011258
          ],
          [
            120.75216021663981,
            23.834042344941338
          ],
          [
            120.75235654280536,
            23.83399080171911
          ],
          [
            120.75359935095742,
            23.833759749740572
          ],
          [
            120.75387308011076,
            23.833708618529357
          ],
          [
            120.75420954797397,
            23.833652497014818
          ],
          [
            120.7547788284388,
            23.83351530245581
          ],
          [
            120.7550786783685,
            23.83338152724172
          ],
          [
            120.75583912864822,
            23.832918927820455
          ],
          [
            120.75661916959331,
            23.832439798243783
          ],
          [
            120.7569714461614,
            23.832196812740385
          ],
          [
            120.75734474251651,
            23.83185768978342
          ],
          [
            120.75804509169487,
            23.831187134634277
          ],
          [
            120.75839938267109,
            23.830865750325405
          ],
          [
            120.75861450871687,
            23.83071369917871
          ],
          [
            120.75883286585,
            23.830603263446562
          ],
          [
            120.75897626186469,
            23.830547709550267
          ],
          [
            120.75909123972323,
            23.830507752862346
          ],
          [
            120.75922119494633,
            23.83047217732985
          ],
          [
            120.75939661921575,
            23.830434002260922
          ],
          [
            120.75957247549206,
            23.830404435537595
          ],
          [
            120.7598922175361,
            23.83032551173121
          ],
          [
            120.76013056089417,
            23.830235431121984
          ],
          [
            120.76037269072027,
            23.830124568560723
          ],
          [
            120.76086688651435,
            23.829755946406273
          ],
          [
            120.76119948277992,
            23.829342113600788
          ],
          [
            120.76132950423,
            23.829094387158325
          ],
          [
            120.76147681894474,
            23.828635260226243
          ],
          [
            120.76151924937929,
            23.828250677877254
          ],
          [
            120.76136647237392,
            23.8268993339346
          ],
          [
            120.76136051751357,
            23.82678151557791
          ],
          [
            120.7613633499285,
            23.826639582189642
          ],
          [
            120.76138617677553,
            23.8264829382653
          ],
          [
            120.76141559407742,
            23.82634036147488
          ],
          [
            120.76145105263163,
            23.82622642144637
          ],
          [
            120.76149749527862,
            23.82610243344576
          ],
          [
            120.76161229058218,
            23.82586747752866
          ],
          [
            120.76182313304338,
            23.825639843426895
          ],
          [
            120.76297443725709,
            23.82468368526093
          ],
          [
            120.76377419939837,
            23.824117742608653
          ],
          [
            120.76406818610926,
            23.82404398447897
          ],
          [
            120.76439418853944,
            23.824021479764987
          ],
          [
            120.76470418310998,
            23.824028262702523
          ],
          [
            120.76501417768051,
            23.824078977145504
          ],
          [
            120.76531775390065,
            23.824123841576956
          ],
          [
            120.7656133261903,
            23.824214145558276
          ],
          [
            120.76662124823424,
            23.82456868261336
          ],
          [
            120.76743560647094,
            23.824838549697436
          ],
          [
            120.76767052774976,
            23.82496312081203
          ],
          [
            120.76790456586352,
            23.82508607611532
          ],
          [
            120.76805239552684,
            23.82521482642586
          ],
          [
            120.76817234741844,
            23.825346507964916
          ],
          [
            120.76843857461839,
            23.825690501096837
          ],
          [
            120.76866091922739,
            23.82606214776361
          ],
          [
            120.7687506378199,
            23.82617348401117
          ],
          [
            120.7688364557371,
            23.826254490209408
          ],
          [
            120.76897463229568,
            23.826364681635244
          ],
          [
            120.76911865986582,
            23.826465952471075
          ],
          [
            120.76921407770196,
            23.82652640052298
          ],
          [
            120.76931144587422,
            23.82657971211193
          ],
          [
            120.76949838087094,
            23.826669386193412
          ],
          [
            120.76998573309959,
            23.82688702422017
          ],
          [
            120.77072178240303,
            23.82716819654624
          ],
          [
            120.77144370538531,
            23.82748013628933
          ],
          [
            120.77163470285464,
            23.827562561345893
          ],
          [
            120.77199720381253,
            23.827695308149384
          ],
          [
            120.77208950587678,
            23.827727411503645
          ],
          [
            120.7722278804836,
            23.827744943228943
          ],
          [
            120.7723436036864,
            23.82775063455911
          ],
          [
            120.77249556706823,
            23.827753079731878
          ],
          [
            120.77268673440358,
            23.827747248973044
          ],
          [
            120.77286885467022,
            23.82771107312832
          ],
          [
            120.77303438865314,
            23.827665242027017
          ],
          [
            120.7735197122511,
            23.82747898602913
          ],
          [
            120.77414494132233,
            23.82718372959294
          ],
          [
            120.77449308714868,
            23.82703327506206
          ],
          [
            120.77463573779377,
            23.82698859557776
          ],
          [
            120.77481289600004,
            23.826941248646946
          ],
          [
            120.77504771585947,
            23.826893583923322
          ],
          [
            120.77521983059623,
            23.826866521546705
          ],
          [
            120.77545477936391,
            23.826840733740582
          ],
          [
            120.7756285848321,
            23.826832988543533
          ],
          [
            120.77629571882458,
            23.826772391621695
          ],
          [
            120.77995288575028,
            23.826492002248134
          ],
          [
            120.78184161440475,
            23.826347130441548
          ],
          [
            120.78274461205226,
            23.826283103685796
          ],
          [
            120.78384984680355,
            23.82626252422753
          ],
          [
            120.78496130246499,
            23.826318069302054
          ],
          [
            120.78562270761526,
            23.82632974499973
          ],
          [
            120.78607473483927,
            23.82629101714106
          ],
          [
            120.7907971814287,
            23.826521023053584
          ],
          [
            120.79395013822715,
            23.826653445546235
          ],
          [
            120.7964322672945,
            23.826809707165594
          ],
          [
            120.79668177058585,
            23.826829092428262
          ],
          [
            120.79680576786645,
            23.826841010499344
          ],
          [
            120.79688505529063,
            23.826837843425544
          ],
          [
            120.7969730844121,
            23.826827236696623
          ],
          [
            120.79707351057743,
            23.826826348110394
          ],
          [
            120.79717804881946,
            23.82681936855503
          ],
          [
            120.79729351884079,
            23.826769824386368
          ],
          [
            120.7974336942093,
            23.826765479685474
          ],
          [
            120.79804397576842,
            23.82678604868901
          ],
          [
            120.79872013825496,
            23.82676895146946
          ],
          [
            120.7992254220868,
            23.826783870545746
          ],
          [
            120.80001893497553,
            23.826670724442252
          ],
          [
            120.80368502643901,
            23.82544113384963
          ],
          [
            120.80815435306091,
            23.82345430903724
          ],
          [
            120.81092089760415,
            23.822204017934304
          ],
          [
            120.81172273449292,
            23.821929441210706
          ],
          [
            120.81243207029468,
            23.821860371243798
          ],
          [
            120.8151024990878,
            23.822049243336252
          ],
          [
            120.81828603660426,
            23.822644923486784
          ],
          [
            120.82157219586543,
            23.823350127364687
          ],
          [
            120.82540567110142,
            23.82421179429508
          ],
          [
            120.8270405039921,
            23.824366210781207
          ],
          [
            120.82759497937442,
            23.824438510128296
          ],
          [
            120.82811905969481,
            23.824464842030498
          ],
          [
            120.82890574910104,
            23.824429556150335
          ],
          [
            120.8293377890524,
            23.824381485250186
          ],
          [
            120.82975356212658,
            23.82430365286052
          ],
          [
            120.83057600716768,
            23.824002609040605
          ],
          [
            120.83108483096038,
            23.823710719582238
          ],
          [
            120.83180498633129,
            23.82341254273445
          ],
          [
            120.83261939403367,
            23.823256379377078
          ],
          [
            120.83388101475217,
            23.82309261074858
          ],
          [
            120.83553648889556,
            23.822887912767467
          ],
          [
            120.83688893681824,
            23.822746197869947
          ],
          [
            120.83759168275209,
            23.822588918974937
          ],
          [
            120.83857529521637,
            23.822240058976153
          ],
          [
            120.83928413209858,
            23.82193725020292
          ],
          [
            120.8400273549303,
            23.8214854370992
          ],
          [
            120.84083978791384,
            23.820662300126592
          ],
          [
            120.84172994573407,
            23.81988664207558
          ],
          [
            120.84231967893655,
            23.819496744830342
          ],
          [
            120.84356968103961,
            23.818952058299885
          ],
          [
            120.84385987152399,
            23.818822100223905
          ],
          [
            120.84454428324857,
            23.81862301410766
          ],
          [
            120.84524317326671,
            23.818473597293846
          ],
          [
            120.84659003144222,
            23.818176646804226
          ],
          [
            120.847780000446,
            23.818055353500522
          ],
          [
            120.84812814286515,
            23.81802188881037
          ],
          [
            120.84873455524385,
            23.817862968966907
          ],
          [
            120.84943744919694,
            23.817664437153887
          ],
          [
            120.85011291625261,
            23.817461723491675
          ],
          [
            120.85060881704425,
            23.817429657492184
          ],
          [
            120.85098018848134,
            23.817457533975023
          ],
          [
            120.8512122321257,
            23.81751444089365
          ],
          [
            120.85141098486339,
            23.817575320298033
          ],
          [
            120.8518885821257,
            23.817857037658946
          ],
          [
            120.85236617938799,
            23.81812499071482
          ],
          [
            120.85334328629386,
            23.81867142192843
          ],
          [
            120.85350467426994,
            23.818765211789504
          ],
          [
            120.85491073300066,
            23.819766368957445
          ],
          [
            120.85563611240968,
            23.82042948650895
          ],
          [
            120.85618355793186,
            23.8209478534819
          ],
          [
            120.8562891620995,
            23.821074698517677
          ],
          [
            120.85662541903122,
            23.82153988684393
          ],
          [
            120.85671155198183,
            23.821673216359976
          ],
          [
            120.85671907366887,
            23.821829255582767
          ],
          [
            120.85665212152648,
            23.82205720883455
          ],
          [
            120.85654793246762,
            23.82233815130766
          ],
          [
            120.85638460874469,
            23.822967144779675
          ],
          [
            120.85637906870097,
            23.823325282538455
          ],
          [
            120.85646729062447,
            23.82364253095148
          ],
          [
            120.85707185896462,
            23.82485076606116
          ],
          [
            120.85739897475827,
            23.82549750331552
          ],
          [
            120.85773380161625,
            23.826090160444473
          ],
          [
            120.85816222439226,
            23.826605179272107
          ],
          [
            120.85862767428722,
            23.82699889958667
          ],
          [
            120.85896279060833,
            23.827205266250264
          ],
          [
            120.85921409773462,
            23.82731360896699
          ],
          [
            120.85950683867773,
            23.827372678690992
          ],
          [
            120.85973892592895,
            23.82738522527799
          ],
          [
            120.86007704675976,
            23.82735564876576
          ],
          [
            120.86044759771524,
            23.827279598994465
          ],
          [
            120.86075819108629,
            23.82723570105362
          ],
          [
            120.86106687281409,
            23.827162046030274
          ],
          [
            120.86143781881815,
            23.82712105597644
          ],
          [
            120.86197343362775,
            23.827228288134158
          ],
          [
            120.86229238046268,
            23.827390084582184
          ],
          [
            120.86249500277694,
            23.827536768088443
          ],
          [
            120.86268164401565,
            23.827718537073444
          ],
          [
            120.86279769525872,
            23.82791257660609
          ],
          [
            120.8633767967629,
            23.82948154076213
          ],
          [
            120.86365879578268,
            23.829902869379815
          ],
          [
            120.86404581870687,
            23.830393561094944
          ],
          [
            120.86447915589966,
            23.8308355300428
          ],
          [
            120.867393,
            23.833916
          ]
        ]
      }
    }
  ]
}