{
  "type": "FeatureCollection",
  "metadata": {
    "gap_id": "gap-03",
    "name": "新城 → 吉安",
    "line": "北迴線",
    "route": "BH",
    "from_name": "新城",
    "to_name": "吉安",
    "source": "handdrawn",
    "created_at": "2026-01-10T16:30:45.580632",
    "point_count": 121
  },
  "features": [
    {
      "type": "Feature",
      "properties": {
        "name": "新城 → 吉安",
        "gap_id": "gap-03",
        "line": "北迴線",
        "note": "新城到吉安，中間軌道移除",
        "stroke": "#0066ff",
        "stroke-width": 4,
        "stroke-opacity": 0.9
      },
      "geometry": {
        "coordinates": [
          [
            121.64078848393049,
            24.12844111818367
          ],
          [
            121.63860170192963,
            24.124314211011395
          ],
          [
            121.63808084257033,
            24.123480746008106
          ],
          [
            121.6375753205769,
            24.122801257893027
          ],
          [
            121.63725924626195,
            24.122380266382557
          ],
          [
            121.63669388153174,
            24.12189101853584
          ],
          [
            121.63579197474075,
            24.121185624254046
          ],
          [
            121.6349648550744,
            24.12063949610191
          ],
          [
            121.63307378984713,
            24.119331090413656
          ],
          [
            121.63115600966267,
            24.118037150649855
          ],
          [
            121.63000483786863,
            24.11719890748795
          ],
          [
            121.62876250769314,
            24.116320727693427
          ],
          [
            121.62637850346042,
            24.11456401774549
          ],
          [
            121.62494199067021,
            24.11350294099541
          ],
          [
            121.62372587679737,
            24.112628661558304
          ],
          [
            121.62222809333346,
            24.111525469639336
          ],
          [
            121.62081349426893,
            24.11047059472238
          ],
          [
            121.61938442074322,
            24.109363486416207
          ],
          [
            121.61855062843674,
            24.108566827557375
          ],
          [
            121.61794089994554,
            24.107804726896937
          ],
          [
            121.61753177755472,
            24.107196774904494
          ],
          [
            121.61708912822854,
            24.10642673382896
          ],
          [
            121.61623195570567,
            24.104626809484582
          ],
          [
            121.61518415951463,
            24.102397242384654
          ],
          [
            121.61420466390463,
            24.100480685370464
          ],
          [
            121.6136432191393,
            24.0991903557687
          ],
          [
            121.61322908447593,
            24.098232822447002
          ],
          [
            121.61196068866036,
            24.094451691264076
          ],
          [
            121.61069229284479,
            24.09067056008115
          ],
          [
            121.60984311739311,
            24.0879727109442
          ],
          [
            121.60940589944397,
            24.086628659462946
          ],
          [
            121.60910723768905,
            24.085749515912354
          ],
          [
            121.60897380682422,
            24.085282119215208
          ],
          [
            121.60867406982041,
            24.084072805430317
          ],
          [
            121.60855986933254,
            24.083636077913706
          ],
          [
            121.60848341877868,
            24.08319112848538
          ],
          [
            121.60825890268586,
            24.081991988051165
          ],
          [
            121.6080532609171,
            24.080782759925768
          ],
          [
            121.6073981358229,
            24.077117092722773
          ],
          [
            121.60707229237272,
            24.075223842102446
          ],
          [
            121.60674159000463,
            24.073334932569423
          ],
          [
            121.60610224819425,
            24.069713057148522
          ],
          [
            121.6055287583452,
            24.06649992494006
          ],
          [
            121.60520747006716,
            24.06435819149378
          ],
          [
            121.60472504133705,
            24.06158120805443
          ],
          [
            121.60424261260695,
            24.05880422461508
          ],
          [
            121.60306681373869,
            24.052073355143474
          ],
          [
            121.60280595642794,
            24.05073074708794
          ],
          [
            121.60240646277302,
            24.048383878412743
          ],
          [
            121.60181814751087,
            24.044837868385102
          ],
          [
            121.6014071789699,
            24.042507432755023
          ],
          [
            121.60120757187644,
            24.04134033228499
          ],
          [
            121.6011144044797,
            24.04075684730323
          ],
          [
            121.60106055267292,
            24.04043319232955
          ],
          [
            121.60102618622207,
            24.040073018575544
          ],
          [
            121.60098670783489,
            24.03930291355571
          ],
          [
            121.60098755015258,
            24.038933234090475
          ],
          [
            121.60100964601178,
            24.03852204694438
          ],
          [
            121.60111287451826,
            24.036669922580366
          ],
          [
            121.60136352547073,
            24.032694924627478
          ],
          [
            121.60150215288706,
            24.02998420922635
          ],
          [
            121.60161464193109,
            24.028662762250732
          ],
          [
            121.60174821703812,
            24.027809400128795
          ],
          [
            121.60183003204168,
            24.02740705319277
          ],
          [
            121.60223890098976,
            24.02593989525412
          ],
          [
            121.60268593762991,
            24.024600294269142
          ],
          [
            121.60290717497998,
            24.023909611960747
          ],
          [
            121.60310305105583,
            24.02322856286583
          ],
          [
            121.60325018288206,
            24.0225519750079
          ],
          [
            121.60337924398377,
            24.021878503415728
          ],
          [
            121.60377518099453,
            24.0196164490538
          ],
          [
            121.60419436339748,
            24.017228738324896
          ],
          [
            121.60440312314199,
            24.016153532023925
          ],
          [
            121.60465018153621,
            24.01484463726061
          ],
          [
            121.6048715906928,
            24.013449798403183
          ],
          [
            121.6050592999568,
            24.012429075574083
          ],
          [
            121.60577680291664,
            24.008597505270842
          ],
          [
            121.60605655228836,
            24.006697486092566
          ],
          [
            121.60622464744458,
            24.00489728518668
          ],
          [
            121.60622221387723,
            24.004642262175928
          ],
          [
            121.60619851336097,
            24.004362410122106
          ],
          [
            121.60614712613437,
            24.004034341253252
          ],
          [
            121.60608427443114,
            24.00376518340571
          ],
          [
            121.60597494971276,
            24.00331806637592
          ],
          [
            121.60585313923625,
            24.002945069980665
          ],
          [
            121.60549626112143,
            24.002186418109616
          ],
          [
            121.60511120539714,
            24.001427488490734
          ],
          [
            121.60348138771968,
            23.998046755086953
          ],
          [
            121.60231565146077,
            23.995711145718474
          ],
          [
            121.60166689512954,
            23.99434675228662
          ],
          [
            121.60142552372346,
            23.993843478914606
          ],
          [
            121.60115150272624,
            23.99331479784791
          ],
          [
            121.60023003127745,
            23.991408626006766
          ],
          [
            121.59934975155718,
            23.98964266709986
          ],
          [
            121.59616010052927,
            23.983211621302488
          ],
          [
            121.59470550169755,
            23.98030354794534
          ],
          [
            121.59396982139145,
            23.978774315108303
          ],
          [
            121.59358747840406,
            23.97800409059695
          ],
          [
            121.59321056104096,
            23.97726012315617
          ],
          [
            121.59299256409346,
            23.976829342773527
          ],
          [
            121.5927567299283,
            23.97634423558033
          ],
          [
            121.59235196074499,
            23.975454750264596
          ],
          [
            121.59224483944467,
            23.975222956104595
          ],
          [
            121.59214311583919,
            23.975008815003186
          ],
          [
            121.59195873868708,
            23.974601224543612
          ],
          [
            121.59184634493813,
            23.974435881144878
          ],
          [
            121.59174775090045,
            23.974290906390117
          ],
          [
            121.5916418831769,
            23.97416220959669
          ],
          [
            121.59152964635587,
            23.974041272306557
          ],
          [
            121.59138360761781,
            23.973886153381095
          ],
          [
            121.59114319585744,
            23.973673546765593
          ],
          [
            121.59079561706659,
            23.973382006075752
          ],
          [
            121.59022660105074,
            23.9729660754905
          ],
          [
            121.58970585698859,
            23.97262182020122
          ],
          [
            121.58817706265526,
            23.971614993313956
          ],
          [
            121.58736720217352,
            23.97106823851431
          ],
          [
            121.58644750393216,
            23.97041055468597
          ],
          [
            121.58556092555924,
            23.969766735658908
          ],
          [
            121.58517895928975,
            23.969514869415548
          ],
          [
            121.58450789926867,
            23.96905887728133
          ],
          [
            121.58255953418839,
            23.967679182510103
          ]
        ],
        "type": "LineString"
      }
    }
  ]
}