{
  "type": "FeatureCollection",
  "metadata": {
    "gap_id": "gap-16",
    "name": "和平 → 新城",
    "line": "北迴線",
    "route": "BH",
    "from_name": "和平",
    "to_name": "新城",
    "source": "handdrawn",
    "created_at": "2026-01-10T16:30:45.580244",
    "point_count": 76
  },
  "features": [
    {
      "type": "Feature",
      "properties": {
        "name": "和平 → 新城",
        "gap_id": "gap-16",
        "line": "北迴線",
        "note": "和平→和仁→崇德→新城",
        "stroke": "#ff6600",
        "stroke-width": 4,
        "stroke-opacity": 0.9
      },
      "geometry": {
        "coordinates": [
          [
            121.75457037236934,
            24.297338732257888
          ],
          [
            121.75243326511102,
            24.291155593584868
          ],
          [
            121.74936032169362,
            24.28564000591954
          ],
          [
            121.74656595615077,
            24.280590236945642
          ],
          [
            121.74586736476513,
            24.27921037574469
          ],
          [
            121.74531599804067,
            24.277964717528032
          ],
          [
            121.74391881526924,
            24.273661639095273
          ],
          [
            121.74215806984782,
            24.26779202466114
          ],
          [
            121.74039732430941,
            24.263275879203
          ],
          [
            121.73852990944047,
            24.25970758394341
          ],
          [
            121.73656313723677,
            24.256863954410516
          ],
          [
            121.73503277718888,
            24.255024270249855
          ],
          [
            121.73311568365244,
            24.25309643731731
          ],
          [
            121.73039335535913,
            24.250871557446317
          ],
          [
            121.72767102706581,
            24.24917558642844
          ],
          [
            121.72442580453799,
            24.24847148742289
          ],
          [
            121.72108658741655,
            24.24759598465718
          ],
          [
            121.71886354231899,
            24.246163230219253
          ],
          [
            121.71630463994903,
            24.244694620561113
          ],
          [
            121.71426679431283,
            24.243357982956
          ],
          [
            121.71324507446766,
            24.24251912422592
          ],
          [
            121.71245493539386,
            24.24141631661125
          ],
          [
            121.70821482941821,
            24.23473609530701
          ],
          [
            121.70562460862817,
            24.232776553615636
          ],
          [
            121.70262802918661,
            24.230446459062954
          ],
          [
            121.70003812400756,
            24.227639055567046
          ],
          [
            121.69504780173352,
            24.22305024312045
          ],
          [
            121.69206387529822,
            24.220036437632416
          ],
          [
            121.68802622602587,
            24.217112529351656
          ],
          [
            121.6822874897232,
            24.213071464120176
          ],
          [
            121.68020086081644,
            24.212329972177553
          ],
          [
            121.67791105258411,
            24.211773786292333
          ],
          [
            121.67424574308522,
            24.210360295749737
          ],
          [
            121.67299087954308,
            24.20985044582603
          ],
          [
            121.67163442633802,
            24.20873833984681
          ],
          [
            121.66950566048851,
            24.20577287934202
          ],
          [
            121.6627909546936,
            24.19641906710804
          ],
          [
            121.66063548963639,
            24.191806031007175
          ],
          [
            121.65992068896173,
            24.191314197368612
          ],
          [
            121.65932420871641,
            24.190757605837334
          ],
          [
            121.65914184997106,
            24.190352126924132
          ],
          [
            121.65914880391134,
            24.189989820240328
          ],
          [
            121.65925041419436,
            24.189703065058502
          ],
          [
            121.65944668082004,
            24.18950265481043
          ],
          [
            121.65987128499683,
            24.189194787795195
          ],
          [
            121.65989467519134,
            24.18881372351853
          ],
          [
            121.65814387801487,
            24.184632210321983
          ],
          [
            121.65809773050879,
            24.182422374757145
          ],
          [
            121.65804088343442,
            24.181050439866016
          ],
          [
            121.65791648971413,
            24.180376861543735
          ],
          [
            121.65737388374554,
            24.178576061861477
          ],
          [
            121.65689393538833,
            24.177004754529968
          ],
          [
            121.65648417472417,
            24.175454790914667
          ],
          [
            121.65583669820703,
            24.172270380620297
          ],
          [
            121.65569209854446,
            24.17149454750283
          ],
          [
            121.65538917481615,
            24.169958263122915
          ],
          [
            121.65496959096893,
            24.167803333292134
          ],
          [
            121.65472263798011,
            24.166589215161622
          ],
          [
            121.65443843226828,
            24.165298624256035
          ],
          [
            121.65403765809245,
            24.163023335306264
          ],
          [
            121.6539892596864,
            24.162529455338614
          ],
          [
            121.65397927652631,
            24.16213634298703
          ],
          [
            121.65404574451456,
            24.16133259372871
          ],
          [
            121.65412165765505,
            24.160591608750156
          ],
          [
            121.65424748481735,
            24.160184595764832
          ],
          [
            121.65462392419255,
            24.15889238237829
          ],
          [
            121.6550003635677,
            24.157702638782965
          ],
          [
            121.65517610475166,
            24.157005295585876
          ],
          [
            121.65526449639816,
            24.15642180952808
          ],
          [
            121.65525114313233,
            24.15559228127959
          ],
          [
            121.65501593907092,
            24.15484428584719
          ],
          [
            121.65460684745743,
            24.1538797990264
          ],
          [
            121.64777952014566,
            24.141454033970653
          ],
          [
            121.64549445963368,
            24.137467751491805
          ],
          [
            121.64384239949881,
            24.133930756043604
          ],
          [
            121.64083719607319,
            24.128413278317804
          ]
        ],
        "type": "LineString"
      }
    }
  ]
}