{
  "type": "FeatureCollection",
  "features": [
    {
      "type": "Feature",
      "properties": {
        "segment_id": "EL-yilan",
        "name": "宜蘭線（新北-宜蘭）",
        "station_count": 27,
        "stations": [
          "八堵",
          "暖暖",
          "四腳亭",
          "瑞芳",
          "猴硐",
          "三貂嶺",
          "牡丹",
          "雙溪",
          "貢寮",
          "福隆",
          "石城",
          "大里",
          "大溪",
          "龜山",
          "外澳",
          "頭城",
          "頂埔",
          "礁溪",
          "四城",
          "宜蘭",
          "二結",
          "中里",
          "羅東",
          "冬山",
          "新馬",
          "蘇澳新",
          "蘇澳"
        ],
        "status": "draft"
      },
      "geometry": {
        "type": "LineString",
        "coordinates": [
          [
            121.717,
            25.1095
          ],
          [
            121.7385,
            25.1015
          ],
          [
            121.7595,
            25.0985
          ],
          [
            121.8065,
            25.1085
          ],
          [
            121.8275,
            25.0865
          ],
          [
            121.8575,
            25.0685
          ],
          [
            121.8915,
            25.0375
          ],
          [
            121.8655,
            25.0335
          ],
          [
            121.9085,
            25.0215
          ],
          [
            121.9415,
            25.0175
          ],
          [
            121.9475,
            24.9835
          ],
          [
            121.9275,
            24.9615
          ],
          [
            121.8975,
            24.9375
          ],
          [
            121.8705,
            24.9265
          ],
          [
            121.8485,
            24.9105
          ],
          [
            121.8235,
            24.8595
          ],
          [
            121.8025,
            24.8315
          ],
          [
            121.7805,
            24.8275
          ],
          [
            121.7615,
            24.8055
          ],
          [
            121.7585,
            24.7535
          ],
          [
            121.7695,
            24.7225
          ],
          [
            121.7785,
            24.6995
          ],
          [
            121.7715,
            24.6775
          ],
          [
            121.7925,
            24.6365
          ],
          [
            121.8115,
            24.5975
          ],
          [
            121.8315,
            24.5905
          ],
          [
            121.8565,
            24.5935
          ]
        ]
      }
    }
  ]
}