{
  "type": "FeatureCollection",
  "features": [
    {
      "type": "Feature",
      "properties": {
        "segment_id": "PT-kaohsiung-pingtung",
        "name": "高雄-屏東段",
        "station_count": 15,
        "stations": [
          "新左營",
          "左營",
          "內惟",
          "美術館",
          "鼓山",
          "三塊厝",
          "高雄",
          "民族",
          "科工館",
          "正義",
          "鳳山",
          "後庄",
          "九曲堂",
          "六塊厝",
          "屏東"
        ],
        "status": "draft"
      },
      "geometry": {
        "type": "LineString",
        "coordinates": [
          [
            120.3075,
            22.687
          ],
          [
            120.294,
            22.6745
          ],
          [
            120.287,
            22.6659
          ],
          [
            120.2815,
            22.6518
          ],
          [
            120.2807,
            22.6418
          ],
          [
            120.2941,
            22.6393
          ],
          [
            120.3029,
            22.6395
          ],
          [
            120.3149,
            22.6388
          ],
          [
            120.326,
            22.6371
          ],
          [
            120.3424,
            22.6343
          ],
          [
            120.3575,
            22.6315
          ],
          [
            120.3913,
            22.6402
          ],
          [
            120.4209,
            22.6564
          ],
          [
            120.465,
            22.666
          ],
          [
            120.4862,
            22.669
          ]
        ]
      }
    }
  ]
}