
    {
      "type": "Feature",
      "properties": {
        "segment_id": "WL-chiayi",
        "name": "嘉義縣市段",
        "station_count": 5,
        "stations": [
          "石龜",
          "大林",
          "民雄",
          "嘉北",
          "嘉義"
        ],
        "status": "draft"
      },
      "geometry": {
        "coordinates": [
          [
            120.47092484718652,
            23.639577330827755
          ],
          [
            120.47002397243944,
            23.634112914198106
          ],
          [
            120.46941105301958,
            23.63033239357423
          ],
          [
            120.46911561717533,
            23.628507616618442
          ],
          [
            120.4688201813311,
            23.62671750482414
          ],
          [
            120.46860046850014,
            23.625347767128417
          ],
          [
            120.46850064531031,
            23.624732493789658
          ],
          [
            120.46845073371534,
            23.624440943712774
          ],
          [
            120.4683807556692,
            23.62414939363589
          ],
          [
            120.46815384895189,
            23.623287160197396
          ],
          [
            120.46792694223456,
            23.62259629372131
          ],
          [
            120.46744048163163,
            23.62141344097421
          ],
          [
            120.46684900412104,
            23.62027869705468
          ],
          [
            120.46553514106805,
            23.617649311352007
          ],
          [
            120.46441278712945,
            23.615342097040994
          ],
          [
            120.46321838715446,
            23.612959248887243
          ],
          [
            120.46259153436095,
            23.61168631352386
          ],
          [
            120.46205684654035,
            23.61062486397147
          ],
          [
            120.46140660537588,
            23.609279335860705
          ],
          [
            120.46106364563403,
            23.608610700913864
          ],
          [
            120.46073768886096,
            23.60798880554836
          ],
          [
            120.46034154828615,
            23.607152708899218
          ],
          [
            120.46013852686232,
            23.6067323921514
          ],
          [
            120.45991570089174,
            23.606307538524966
          ],
          [
            120.45933726467712,
            23.605116275435513
          ],
          [
            120.45878751562996,
            23.60406086285121
          ],
          [
            120.45826277581821,
            23.60328572314947
          ],
          [
            120.45727361419392,
            23.602214466445194
          ],
          [
            120.45589847096066,
            23.60082734331526
          ],
          [
            120.45057750099747,
            23.595407541959343
          ],
          [
            120.44765615776741,
            23.592333090355133
          ],
          [
            120.44508111071104,
            23.589702930124794
          ],
          [
            120.4433010730715,
            23.58785963101387
          ],
          [
            120.44243941566847,
            23.58698996513683
          ],
          [
            120.44156641369807,
            23.58606831539603
          ],
          [
            120.44124381461509,
            23.58573855817241
          ],
          [
            120.44089731646335,
            23.58535769488632
          ],
          [
            120.44056675102578,
            23.584925725316875
          ],
          [
            120.44026406783398,
            23.584486454886502
          ],
          [
            120.43945363507575,
            23.58321955859401
          ],
          [
            120.43889261333234,
            23.581553942769755
          ],
          [
            120.43804073032427,
            23.578421968155375
          ],
          [
            120.43594053220585,
            23.571012834944995
          ],
          [
            120.43402308110628,
            23.56371354600433
          ],
          [
            120.43335366096417,
            23.561434937507236
          ],
          [
            120.43274180065444,
            23.55917743348133
          ],
          [
            120.43248425204891,
            23.55821979427224
          ],
          [
            120.43221604371256,
            23.557275183452795
          ],
          [
            120.43165400783886,
            23.55517340046271
          ],
          [
            120.42846091398809,
            23.54360015695236
          ],
          [
            120.42808425888987,
            23.542285684083943
          ],
          [
            120.42790854254774,
            23.54100428244471
          ],
          [
            120.42787908079157,
            23.540331993406937
          ],
          [
            120.42790647074509,
            23.539633644133765
          ],
          [
            120.42798360594459,
            23.5390069607584
          ],
          [
            120.42811759285391,
            23.538393307630777
          ],
          [
            120.42822920598552,
            23.537959027931493
          ],
          [
            120.42837350734663,
            23.537484950873512
          ],
          [
            120.42856254570452,
            23.537023178175687
          ],
          [
            120.42877842626056,
            23.53658601446568
          ],
          [
            120.42901157540769,
            23.53616974503042
          ],
          [
            120.42925872851734,
            23.535740636645755
          ],
          [
            120.42974603275633,
            23.534908097816242
          ],
          [
            120.43025020256528,
            23.534114737238934
          ],
          [
            120.43075437237422,
            23.5332774696655
          ],
          [
            120.43190638316692,
            23.531449258698483
          ],
          [
            120.43731581503911,
            23.522769750750705
          ],
          [
            120.43922602099539,
            23.519625515353663
          ],
          [
            120.44121949778761,
            23.51636250863305
          ],
          [
            120.44299079319303,
            23.513504699612888
          ],
          [
            120.44440725199604,
            23.511238472411364
          ],
          [
            120.44510024853605,
            23.51010595498139
          ],
          [
            120.44543401753756,
            23.5095701839788
          ],
          [
            120.44577031503543,
            23.5090011057369
          ],
          [
            120.44602111274952,
            23.50854963569761
          ],
          [
            120.44626168331845,
            23.50806065246389
          ],
          [
            120.44643066387266,
            23.507688898334404
          ],
          [
            120.44656896299145,
            23.507289009121465
          ],
          [
            120.44669051779086,
            23.5069169693228
          ],
          [
            120.44678147692724,
            23.506572985425713
          ],
          [
            120.44694299809147,
            23.506015948006098
          ],
          [
            120.44718445198538,
            23.505051508655676
          ],
          [
            120.44738511166189,
            23.50409174533095
          ],
          [
            120.44762656555568,
            23.50315068680176
          ],
          [
            120.44800961052772,
            23.501476705758243
          ],
          [
            120.44842649734014,
            23.49983375936441
          ],
          [
            120.44860181302712,
            23.499072001932525
          ],
          [
            120.44870522053303,
            23.49859521798809
          ],
          [
            120.44892365189293,
            23.49770026459838
          ],
          [
            120.44933092121822,
            23.495883218858694
          ],
          [
            120.44986078120093,
            23.493622745910436
          ],
          [
            120.45001777033407,
            23.492877936567787
          ],
          [
            120.45008096162877,
            23.492527987585667
          ],
          [
            120.45012578900023,
            23.49214435504663
          ],
          [
            120.4501511151664,
            23.491699553510927
          ],
          [
            120.45015438816858,
            23.49132216979595
          ],
          [
            120.45014030425799,
            23.49110256839407
          ],
          [
            120.45012989587535,
            23.49093353054748
          ],
          [
            120.4500429196224,
            23.490433651119147
          ],
          [
            120.44994475910273,
            23.490004158680968
          ],
          [
            120.4498237669439,
            23.48965543313415
          ],
          [
            120.44961010174717,
            23.489090488609186
          ],
          [
            120.44931488251041,
            23.48855826737868
          ],
          [
            120.44868366702008,
            23.487658640836948
          ],
          [
            120.44717207286602,
            23.485956211755592
          ],
          [
            120.44329123604325,
            23.481796290902867
          ],
          [
            120.44207742454397,
            23.480477118944542
          ],
          [
            120.44117643129985,
            23.47947833635296
          ]
        ],
        "type": "LineString"
      }
    }