{
  "type": "FeatureCollection",
  "features": [
    {
      "type": "Feature",
      "properties": {
        "segment_id": "WL-hsinchu",
        "name": "新竹縣市段",
        "station_count": 8,
        "stations": [
          "北湖",
          "湖口",
          "新豐",
          "竹北",
          "北新竹",
          "新竹",
          "三姓橋",
          "香山"
        ],
        "status": "draft"
      },
      "geometry": {
        "type": "LineString",
        "coordinates": [
          [
            121.0565,
            24.8755
          ],
          [
            121.0435,
            24.8685
          ],
          [
            120.998,
            24.8475
          ],
          [
            120.9945,
            24.8315
          ],
          [
            120.9795,
            24.8145
          ],
          [
            120.9725,
            24.8015
          ],
          [
            120.9565,
            24.7745
          ],
          [
            120.9235,
            24.7475
          ]
        ]
      }
    }
  ]
}