{
  "type": "FeatureCollection",
  "features": [
    {
      "type": "Feature",
      "properties": {
        "segment_id": "WL-taichung-coast",
        "name": "台中市段（海線）",
        "station_count": 9,
        "stations": [
          "苑裡",
          "日南",
          "大甲",
          "台中港",
          "清水",
          "沙鹿",
          "龍井",
          "大肚",
          "追分"
        ],
        "status": "draft"
      },
      "geometry": {
        "type": "LineString",
        "coordinates": [
          [
            120.6575,
            24.4415
          ],
          [
            120.6305,
            24.4025
          ],
          [
            120.6225,
            24.3785
          ],
          [
            120.5975,
            24.3285
          ],
          [
            120.5735,
            24.2995
          ],
          [
            120.5645,
            24.2395
          ],
          [
            120.5445,
            24.1985
          ],
          [
            120.5345,
            24.1555
          ],
          [
            120.5135,
            24.1135
          ]
        ]
      }
    }
  ]
}