{
  "type": "FeatureCollection",
  "features": [
    {
      "type": "Feature",
      "properties": {
        "segment_id": "WL-taichung-mountain",
        "name": "台中市段（山線）",
        "station_count": 22,
        "stations": [
          "竹南",
          "造橋",
          "豐富",
          "苗栗",
          "南勢",
          "銅鑼",
          "三義",
          "泰安",
          "后里",
          "豐原",
          "栗林",
          "潭子",
          "頭家厝",
          "松竹",
          "太原",
          "精武",
          "臺中",
          "五權",
          "大慶",
          "烏日",
          "新烏日",
          "成功"
        ],
        "status": "draft"
      },
      "geometry": {
        "type": "LineString",
        "coordinates": [
          [
            120.8785,
            24.6855
          ],
          [
            120.8695,
            24.6385
          ],
          [
            120.8225,
            24.5955
          ],
          [
            120.8215,
            24.5705
          ],
          [
            120.8105,
            24.5305
          ],
          [
            120.7875,
            24.4865
          ],
          [
            120.7615,
            24.4145
          ],
          [
            120.7365,
            24.3315
          ],
          [
            120.7175,
            24.3045
          ],
          [
            120.7195,
            24.2545
          ],
          [
            120.7095,
            24.2265
          ],
          [
            120.7055,
            24.2095
          ],
          [
            120.6955,
            24.1905
          ],
          [
            120.6855,
            24.1755
          ],
          [
            120.6815,
            24.1595
          ],
          [
            120.6875,
            24.1465
          ],
          [
            120.6865,
            24.1375
          ],
          [
            120.6655,
            24.1235
          ],
          [
            120.6485,
            24.1125
          ],
          [
            120.6205,
            24.1095
          ],
          [
            120.6125,
            24.1085
          ],
          [
            120.5885,
            24.1095
          ]
        ]
      }
    }
  ]
}