{
  "type": "Feature",
  "properties": {
    "segment_id": "WL-yunlin",
    "name": "雲林縣段",
    "station_count": 6,
    "stations": [
      "二水",
      "林內",
      "石榴",
      "斗六",
      "斗南",
      "石龜"
    ],
    "status": "draft"
  },
  "geometry": {
    "coordinates": [
      [
        120.61850122378918,
        23.81302783129557
      ],
      [
        120.62394540307349,
        23.809310049590906
      ],
      [
        120.62670659150072,
        23.807482405783283
      ],
      [
        120.62803921256751,
        23.806487072609176
      ],
      [
        120.62941295347628,
        23.805328714556737
      ],
      [
        120.63186989020213,
        23.802646551165466
      ],
      [
        120.63501509560587,
        23.799151883401365
      ],
      [
        120.63824909723317,
        23.795720462265088
      ],
      [
        120.63918317896571,
        23.79467109752638
      ],
      [
        120.6399498189298,
        23.793529807538476
      ],
      [
        120.6403983195402,
        23.792403837888102
      ],
      [
        120.64059162802451,
        23.79156335599801
      ],
      [
        120.64070362581622,
        23.790741474308952
      ],
      [
        120.64069365756399,
        23.789873091552444
      ],
      [
        120.64054139559715,
        23.789097711050626
      ],
      [
        120.63829811947093,
        23.777416283955297
      ],
      [
        120.63787718987435,
        23.77564082561635
      ],
      [
        120.63717016743249,
        23.7741853600159
      ],
      [
        120.63624062833186,
        23.77284625699498
      ],
      [
        120.63518393685357,
        23.771739881054803
      ],
      [
        120.63384401855737,
        23.770787844910195
      ],
      [
        120.63238424857141,
        23.770000334797814
      ],
      [
        120.6292430608527,
        23.76875190665507
      ],
      [
        120.62593098200954,
        23.76737098218668
      ],
      [
        120.62436706160909,
        23.7667311039297
      ],
      [
        120.6230794982734,
        23.766023780248766
      ],
      [
        120.61871850194856,
        23.762883788928534
      ],
      [
        120.61654507614125,
        23.76113238334868
      ],
      [
        120.61465235129116,
        23.75970211102477
      ],
      [
        120.61008451103211,
        23.75624615612586
      ],
      [
        120.60870563552244,
        23.75518719022867
      ],
      [
        120.60730551677915,
        23.754231922238944
      ],
      [
        120.60516981241885,
        23.753044960471392
      ],
      [
        120.60304472190253,
        23.75198429035315
      ],
      [
        120.60141452223372,
        23.75114496962547
      ],
      [
        120.59980334319175,
        23.750218600647216
      ],
      [
        120.59654294385402,
        23.74789579768644
      ],
      [
        120.59418955596138,
        23.745928645232336
      ],
      [
        120.59253538163713,
        23.744304916943584
      ],
      [
        120.58896153103339,
        23.740797614818543
      ],
      [
        120.5797594064064,
        23.73169348317382
      ],
      [
        120.57228381220102,
        23.724377554945683
      ],
      [
        120.56627920120064,
        23.718540235328103
      ],
      [
        120.5638625234656,
        23.71635363912999
      ],
      [
        120.56267188914327,
        23.715697965704347
      ],
      [
        120.56134215464377,
        23.715195116102855
      ],
      [
        120.56008294628668,
        23.714934501450244
      ],
      [
        120.55866919459864,
        23.714801230778644
      ],
      [
        120.55590350855493,
        23.714605436248647
      ],
      [
        120.55199777004069,
        23.714441738023517
      ],
      [
        120.55002302715518,
        23.714324842268525
      ],
      [
        120.54811390515471,
        23.71423798650235
      ],
      [
        120.54659055652711,
        23.71413766981817
      ],
      [
        120.54552748689281,
        23.714002774104344
      ],
      [
        120.54477430662209,
        23.71382330549021
      ],
      [
        120.54400608726968,
        23.713538424992677
      ],
      [
        120.54324184021273,
        23.713137163275036
      ],
      [
        120.5411029427786,
        23.711844964059992
      ],
      [
        120.53886240803715,
        23.710359859072096
      ],
      [
        120.53670884931711,
        23.709087112293666
      ],
      [
        120.53454714037275,
        23.707656508919783
      ],
      [
        120.53081012376188,
        23.704236031259523
      ],
      [
        120.52750562665261,
        23.70099556671736
      ],
      [
        120.52687534110092,
        23.700453381368398
      ],
      [
        120.52624505554924,
        23.699985568219752
      ],
      [
        120.52495742862922,
        23.69932240539362
      ],
      [
        120.52097527234162,
        23.69757492165587
      ],
      [
        120.50170138679748,
        23.6890915128928
      ],
      [
        120.49580438922041,
        23.686582613636762
      ],
      [
        120.4926969627335,
        23.68516121124334
      ],
      [
        120.49213126860865,
        23.68493571300894
      ],
      [
        120.49162703300857,
        23.684676445715137
      ],
      [
        120.49075377055905,
        23.68406786001581
      ],
      [
        120.49008808286447,
        23.68357475535476
      ],
      [
        120.48949962826329,
        23.683022710212015
      ],
      [
        120.48839912897182,
        23.68174970243464
      ],
      [
        120.48640216453649,
        23.67925572648612
      ],
      [
        120.48399571945717,
        23.676341133172464
      ],
      [
        120.48117694289837,
        23.672750391570048
      ],
      [
        120.47782415175979,
        23.668752714448964
      ],
      [
        120.47627068227823,
        23.666962964019053
      ],
      [
        120.47529672149328,
        23.665028457289736
      ],
      [
        120.47510436424213,
        23.664318432163725
      ],
      [
        120.47487688525112,
        23.663447564662302
      ],
      [
        120.47452729248846,
        23.660965947584224
      ],
      [
        120.47384566783171,
        23.656823017195588
      ],
      [
        120.47092668522433,
        23.63960080985739
      ]
    ],
    "type": "LineString"
  }
}