{
  "type": "FeatureCollection",
  "features": [
    {
      "type": "Feature",
      "properties": {
        "track_id": "BH-0",
        "route_id": "BH",
        "direction": 0,
        "line_name": "北迴線",
        "origin": "蘇澳新",
        "destination": "花蓮",
        "rebuilt_from_gaps": true
      },
      "geometry": {
        "type": "LineString",
        "coordinates": [
          [
            121.82855667746867,
            24.607847723120763
          ],
          [
            121.82985240386678,
            24.60629497398001
          ],
          [
            121.83050026706584,
            24.605495112313477
          ],
          [
            121.83088772289943,
            24.604962728941757
          ],
          [
            121.83126748115941,
            24.604531824700956
          ],
          [
            121.8316189554223,
            24.604074713606966
          ],
          [
            121.83199737119217,
            24.603530118913547
          ],
          [
            121.83207027738266,
            24.60342612972156
          ],
          [
            121.83214694266502,
            24.60329821586714
          ],
          [
            121.83226644140237,
            24.603069730632672
          ],
          [
            121.83243544315769,
            24.602679329740084
          ],
          [
            121.83251349129026,
            24.60244676317161
          ],
          [
            121.83257812973585,
            24.602238581268317
          ],
          [
            121.83264053323359,
            24.60200703062634
          ],
          [
            121.83268058725281,
            24.601812057106518
          ],
          [
            121.8327222406187,
            24.60147884746671
          ],
          [
            121.83276389398456,
            24.601199515818585
          ],
          [
            121.83277591883282,
            24.600742386164416
          ],
          [
            121.83275238946001,
            24.600446891419253
          ],
          [
            121.83272104295753,
            24.60012771822403
          ],
          [
            121.8326695026537,
            24.59986362776435
          ],
          [
            121.83257315331309,
            24.599415011061282
          ],
          [
            121.83241958820199,
            24.598975575024113
          ],
          [
            121.83227275435804,
            24.598578981512635
          ],
          [
            121.83214204020447,
            24.598199573929385
          ],
          [
            121.83201132605092,
            24.597820166346132
          ],
          [
            121.83192479527098,
            24.597445674842398
          ],
          [
            121.83189211462812,
            24.59716911030062
          ],
          [
            121.83189071992282,
            24.596772178445967
          ],
          [
            121.83190397265214,
            24.596518037803005
          ],
          [
            121.83191439470932,
            24.596390967471038
          ],
          [
            121.83192987768979,
            24.596284604819232
          ],
          [
            121.83194798882522,
            24.596116119935065
          ],
          [
            121.83199302502912,
            24.595941514549516
          ],
          [
            121.83204910707641,
            24.595747115322503
          ],
          [
            121.83211865165788,
            24.595589439205533
          ],
          [
            121.83227793462225,
            24.595286328070536
          ],
          [
            121.83250675696021,
            24.594890455737943
          ],
          [
            121.83281719822354,
            24.59449458340535
          ],
          [
            121.83310431979396,
            24.59421003227812
          ],
          [
            121.83344974059665,
            24.593883072977423
          ],
          [
            121.83485766276046,
            24.592555922440177
          ],
          [
            121.83623643530808,
            24.591249978808023
          ],
          [
            121.83845931207098,
            24.58915869502191
          ],
          [
            121.83912958117548,
            24.588622235757043
          ],
          [
            121.83971264816708,
            24.58808577649218
          ],
          [
            121.84037201700748,
            24.587489846288687
          ],
          [
            121.84116218901744,
            24.586755149395493
          ],
          [
            121.8416363019378,
            24.586266379681554
          ],
          [
            121.84202321274523,
            24.585837081981747
          ],
          [
            121.84256272724849,
            24.58514015985571
          ],
          [
            121.84290878635093,
            24.584662841665214
          ],
          [
            121.84334204756651,
            24.584106226448526
          ],
          [
            121.84355823321943,
            24.583790163812807
          ],
          [
            121.84372615664205,
            24.583474101177092
          ],
          [
            121.84390905592642,
            24.583125158766485
          ],
          [
            121.84413056499507,
            24.582662108385072
          ],
          [
            121.84435207406372,
            24.58220344657341
          ],
          [
            121.84457358313236,
            24.581744784761746
          ],
          [
            121.84480900907933,
            24.58116894655961
          ],
          [
            121.84500232949068,
            24.580516529108394
          ],
          [
            121.8453289840979,
            24.57927061734211
          ],
          [
            121.84558546281245,
            24.578114049387306
          ],
          [
            121.84562040972685,
            24.57776355213643
          ],
          [
            121.84564692835897,
            24.577336408274583
          ],
          [
            121.84565647908173,
            24.576989241891884
          ],
          [
            121.84566131011546,
            24.576646367550254
          ],
          [
            121.84559922043871,
            24.57572480489082
          ],
          [
            121.8455088126282,
            24.574820410805096
          ],
          [
            121.84547163245426,
            24.57429419689523
          ],
          [
            121.84544389165835,
            24.573810904904686
          ],
          [
            121.84538311303959,
            24.573143048781404
          ],
          [
            121.84535390015019,
            24.572819994307654
          ],
          [
            121.84532912528536,
            24.57251510222971
          ],
          [
            121.8453057158642,
            24.572265912482738
          ],
          [
            121.84528896347996,
            24.572038921317827
          ],
          [
            121.84516105190686,
            24.570659223215753
          ],
          [
            121.84503762865731,
            24.56995807660371
          ],
          [
            121.84481664954521,
            24.56929625037391
          ],
          [
            121.84447126855159,
            24.56858180704309
          ],
          [
            121.84420127068026,
            24.567996862607473
          ],
          [
            121.84384960775986,
            24.56734702909216
          ],
          [
            121.84353982435177,
            24.566735283866894
          ],
          [
            121.84317350360206,
            24.565967374946126
          ],
          [
            121.84295794909673,
            24.565458469128153
          ],
          [
            121.84253294485174,
            24.56433866776475
          ],
          [
            121.84201936370107,
            24.562919642409273
          ],
          [
            121.84099220139971,
            24.559770851769315
          ],
          [
            121.83981333301588,
            24.555573711322953
          ],
          [
            121.8381759924923,
            24.549464071992524
          ],
          [
            121.83626332605337,
            24.54067917856506
          ],
          [
            121.83470395518815,
            24.536689375215055
          ],
          [
            121.8334105657508,
            24.534425809553827
          ],
          [
            121.83187868855234,
            24.53280801977077
          ],
          [
            121.83101625529733,
            24.53016186982691
          ],
          [
            121.83072816203594,
            24.52892787549002
          ],
          [
            121.83044006877455,
            24.527693881153134
          ],
          [
            121.83028272409638,
            24.526228839479945
          ],
          [
            121.83016301210594,
            24.524729560261306
          ],
          [
            121.8300653265515,
            24.522809462695704
          ],
          [
            121.83000527368486,
            24.52093338481902
          ],
          [
            121.83010551196874,
            24.519142539122846
          ],
          [
            121.8307324231397,
            24.51756950179294
          ],
          [
            121.83248225932724,
            24.514332573339992
          ],
          [
            121.83328535839095,
            24.51258341629945
          ],
          [
            121.83360966392097,
            24.511226334982393
          ],
          [
            121.83397099886085,
            24.508632110714984
          ],
          [
            121.83409293703383,
            24.506212147863195
          ],
          [
            121.83436551101039,
            24.49999029645654
          ],
          [
            121.83443365450458,
            24.49765636347756
          ],
          [
            121.83438172029923,
            24.4956502342824
          ],
          [
            121.83398051038581,
            24.493308621279983
          ],
          [
            121.83321906737413,
            24.491349459551955
          ],
          [
            121.82467163592612,
            24.482349880874132
          ],
          [
            121.82370948679215,
            24.480606480421255
          ],
          [
            121.82310757075905,
            24.478644513989266
          ],
          [
            121.82298443798763,
            24.47592270511574
          ],
          [
            121.8232680949879,
            24.474274926637754
          ],
          [
            121.8236718296876,
            24.47240857127155
          ],
          [
            121.82380538956343,
            24.470842761015444
          ],
          [
            121.82333856094215,
            24.46938624231089
          ],
          [
            121.81950454779522,
            24.46672688989949
          ],
          [
            121.81617213006922,
            24.464866504324046
          ],
          [
            121.81403958446433,
            24.463653623531044
          ],
          [
            121.81203846719588,
            24.462680001135794
          ],
          [
            121.81103790856059,
            24.462324781942748
          ],
          [
            121.81008992125805,
            24.462137045400414
          ],
          [
            121.8089973627903,
            24.462021087286956
          ],
          [
            121.80790480432253,
            24.46200083378634
          ],
          [
            121.80617468329729,
            24.46220060349469
          ],
          [
            121.80454970493763,
            24.462448225440497
          ],
          [
            121.80137860521768,
            24.46301524742136
          ],
          [
            121.79596323695192,
            24.463903398349284
          ],
          [
            121.79426557487974,
            24.464163247533016
          ],
          [
            121.79313240672784,
            24.46431359538066
          ],
          [
            121.7926537356395,
            24.46436981714181
          ],
          [
            121.79180490460337,
            24.464383923073946
          ],
          [
            121.79097458156451,
            24.46430958573117
          ],
          [
            121.7903478464971,
            24.464193132541013
          ],
          [
            121.789695755455,
            24.464037348386796
          ],
          [
            121.78915703728565,
            24.46386682217492
          ],
          [
            121.78812009125863,
            24.463555253888174
          ],
          [
            121.7862324546387,
            24.462968972633046
          ],
          [
            121.782484495169,
            24.46177737839721
          ],
          [
            121.78172089886485,
            24.461286066628503
          ],
          [
            121.78093366602253,
            24.4607086951333
          ],
          [
            121.78022916106084,
            24.46010980844764
          ],
          [
            121.77959556570548,
            24.45948940648793
          ],
          [
            121.7789745594257,
            24.4588874797586
          ],
          [
            121.77847173582676,
            24.45826403766651
          ],
          [
            121.77786254781509,
            24.457468471266026
          ],
          [
            121.77748972516503,
            24.45684502956891
          ],
          [
            121.77686290497955,
            24.45569876721276
          ],
          [
            121.77637790401118,
            24.45470311608712
          ],
          [
            121.77595812950567,
            24.454076194549458
          ],
          [
            121.77570381075344,
            24.453384724492807
          ],
          [
            121.77561701437315,
            24.452623387590233
          ],
          [
            121.77557407549584,
            24.451901974335733
          ],
          [
            121.77560276614841,
            24.450311022060518
          ],
          [
            121.77582809789695,
            24.448636786336156
          ],
          [
            121.77607835144539,
            24.44741335995066
          ],
          [
            121.77674219435241,
            24.446001679856174
          ],
          [
            121.77844211058938,
            24.443479526833286
          ],
          [
            121.78031336318918,
            24.44022398149477
          ],
          [
            121.78104644987582,
            24.43678558113134
          ],
          [
            121.78167293744278,
            24.435566592199937
          ],
          [
            121.7827570764843,
            24.43448648935494
          ],
          [
            121.78451498019658,
            24.433869344214454
          ],
          [
            121.78535579442989,
            24.433583919917012
          ],
          [
            121.78599320800788,
            24.43311331111179
          ],
          [
            121.78852458335359,
            24.428885485325356
          ],
          [
            121.78921421995506,
            24.42566142558566
          ],
          [
            121.78980877752863,
            24.423075319866154
          ],
          [
            121.78984398330005,
            24.420882763400876
          ],
          [
            121.78974570739248,
            24.41851076979757
          ],
          [
            121.78941860574764,
            24.41662494262275
          ],
          [
            121.78836444998751,
            24.408850115062698
          ],
          [
            121.784994064785,
            24.395054300634083
          ],
          [
            121.78396664487451,
            24.37958455356128
          ],
          [
            121.78292283172865,
            24.372516657176114
          ],
          [
            121.78254876861834,
            24.36996957449262
          ],
          [
            121.78220702260056,
            24.367834614531752
          ],
          [
            121.7813457865559,
            24.36572838190464
          ],
          [
            121.78020408345809,
            24.36332556508442
          ],
          [
            121.77846995939981,
            24.35995569825613
          ],
          [
            121.77714409850316,
            24.357292748126724
          ],
          [
            121.77600274837577,
            24.354920126094914
          ],
          [
            121.77433313591735,
            24.35051953526311
          ],
          [
            121.77252823582054,
            24.346539539456728
          ],
          [
            121.77202775478557,
            24.344975634065058
          ],
          [
            121.77143100783881,
            24.343078445947906
          ],
          [
            121.77012540623281,
            24.339403651246883
          ],
          [
            121.76890601887067,
            24.33594487310176
          ],
          [
            121.76790081434314,
            24.33324319025168
          ],
          [
            121.76674780147006,
            24.330137474053608
          ],
          [
            121.76625575694524,
            24.32879625471143
          ],
          [
            121.76576371242041,
            24.32758971775054
          ],
          [
            121.76501828216055,
            24.32612824284185
          ],
          [
            121.76433619833435,
            24.32493613830868
          ],
          [
            121.76390222969289,
            24.324065875191934
          ],
          [
            121.76356464027853,
            24.32323074154284
          ],
          [
            121.76296656483142,
            24.32150777992942
          ],
          [
            121.76171258640119,
            24.317728119621087
          ],
          [
            121.76010224112983,
            24.313253723362873
          ],
          [
            121.75881958523087,
            24.309481975281116
          ],
          [
            121.75774936972051,
            24.306348851724422
          ],
          [
            121.75677553343738,
            24.303672474502306
          ],
          [
            121.75545473193645,
            24.299643363365874
          ],
          [
            121.75497263275449,
            24.298397397216235
          ],
          [
            121.75458691280305,
            24.29732711391964
          ],
          [
            121.75243326511102,
            24.291155593584868
          ],
          [
            121.74936032169362,
            24.28564000591954
          ],
          [
            121.74656595615077,
            24.280590236945642
          ],
          [
            121.74586736476513,
            24.27921037574469
          ],
          [
            121.74531599804067,
            24.277964717528032
          ],
          [
            121.74391881526924,
            24.273661639095273
          ],
          [
            121.74215806984782,
            24.26779202466114
          ],
          [
            121.74039732430941,
            24.263275879203
          ],
          [
            121.73852990944047,
            24.25970758394341
          ],
          [
            121.73656313723677,
            24.256863954410516
          ],
          [
            121.73503277718888,
            24.255024270249855
          ],
          [
            121.73311568365244,
            24.25309643731731
          ],
          [
            121.73039335535913,
            24.250871557446317
          ],
          [
            121.72767102706581,
            24.24917558642844
          ],
          [
            121.72442580453799,
            24.24847148742289
          ],
          [
            121.72108658741655,
            24.24759598465718
          ],
          [
            121.71886354231899,
            24.246163230219253
          ],
          [
            121.71630463994903,
            24.244694620561113
          ],
          [
            121.71426679431283,
            24.243357982956
          ],
          [
            121.71324507446766,
            24.24251912422592
          ],
          [
            121.71245493539386,
            24.24141631661125
          ],
          [
            121.70821482941821,
            24.23473609530701
          ],
          [
            121.70562460862817,
            24.232776553615636
          ],
          [
            121.70262802918661,
            24.230446459062954
          ],
          [
            121.70003812400756,
            24.227639055567046
          ],
          [
            121.69504780173352,
            24.22305024312045
          ],
          [
            121.69206387529822,
            24.220036437632416
          ],
          [
            121.68802622602587,
            24.217112529351656
          ],
          [
            121.6822874897232,
            24.213071464120176
          ],
          [
            121.68020086081644,
            24.212329972177553
          ],
          [
            121.67791105258411,
            24.211773786292333
          ],
          [
            121.67424574308522,
            24.210360295749737
          ],
          [
            121.67299087954308,
            24.20985044582603
          ],
          [
            121.67163442633802,
            24.20873833984681
          ],
          [
            121.66950566048851,
            24.20577287934202
          ],
          [
            121.6627909546936,
            24.19641906710804
          ],
          [
            121.66063548963639,
            24.191806031007175
          ],
          [
            121.65992068896173,
            24.191314197368612
          ],
          [
            121.65932420871641,
            24.190757605837334
          ],
          [
            121.65914184997106,
            24.190352126924132
          ],
          [
            121.65914880391134,
            24.189989820240328
          ],
          [
            121.65925041419436,
            24.189703065058502
          ],
          [
            121.65944668082004,
            24.18950265481043
          ],
          [
            121.65987128499683,
            24.189194787795195
          ],
          [
            121.65989467519134,
            24.18881372351853
          ],
          [
            121.65814387801487,
            24.184632210321983
          ],
          [
            121.65809773050879,
            24.182422374757145
          ],
          [
            121.65804088343442,
            24.181050439866016
          ],
          [
            121.65791648971413,
            24.180376861543735
          ],
          [
            121.65737388374554,
            24.178576061861477
          ],
          [
            121.65689393538833,
            24.177004754529968
          ],
          [
            121.65648417472417,
            24.175454790914667
          ],
          [
            121.65583669820703,
            24.172270380620297
          ],
          [
            121.65569209854446,
            24.17149454750283
          ],
          [
            121.65538917481615,
            24.169958263122915
          ],
          [
            121.65496959096893,
            24.167803333292134
          ],
          [
            121.65472263798011,
            24.166589215161622
          ],
          [
            121.65443843226828,
            24.165298624256035
          ],
          [
            121.65403765809245,
            24.163023335306264
          ],
          [
            121.6539892596864,
            24.162529455338614
          ],
          [
            121.65397927652631,
            24.16213634298703
          ],
          [
            121.65404574451456,
            24.16133259372871
          ],
          [
            121.65412165765505,
            24.160591608750156
          ],
          [
            121.65424748481735,
            24.160184595764832
          ],
          [
            121.65462392419255,
            24.15889238237829
          ],
          [
            121.6550003635677,
            24.157702638782965
          ],
          [
            121.65517610475166,
            24.157005295585876
          ],
          [
            121.65526449639816,
            24.15642180952808
          ],
          [
            121.65525114313233,
            24.15559228127959
          ],
          [
            121.65501593907092,
            24.15484428584719
          ],
          [
            121.65460684745743,
            24.1538797990264
          ],
          [
            121.64777952014566,
            24.141454033970653
          ],
          [
            121.64549445963368,
            24.137467751491805
          ],
          [
            121.64384239949881,
            24.133930756043604
          ],
          [
            121.64083719607319,
            24.128413278317804
          ],
          [
            121.63860170192963,
            24.124314211011395
          ],
          [
            121.63808084257033,
            24.123480746008106
          ],
          [
            121.6375753205769,
            24.122801257893027
          ],
          [
            121.63725924626195,
            24.122380266382557
          ],
          [
            121.63669388153174,
            24.12189101853584
          ],
          [
            121.63579197474075,
            24.121185624254046
          ],
          [
            121.6349648550744,
            24.12063949610191
          ],
          [
            121.63307378984713,
            24.119331090413656
          ],
          [
            121.63115600966267,
            24.118037150649855
          ],
          [
            121.63000483786863,
            24.11719890748795
          ],
          [
            121.62876250769314,
            24.116320727693427
          ],
          [
            121.62637850346042,
            24.11456401774549
          ],
          [
            121.62494199067021,
            24.11350294099541
          ],
          [
            121.62372587679737,
            24.112628661558304
          ],
          [
            121.62222809333346,
            24.111525469639336
          ],
          [
            121.62081349426893,
            24.11047059472238
          ],
          [
            121.61938442074322,
            24.109363486416207
          ],
          [
            121.61855062843674,
            24.108566827557375
          ],
          [
            121.61794089994554,
            24.107804726896937
          ],
          [
            121.61753177755472,
            24.107196774904494
          ],
          [
            121.61708912822854,
            24.10642673382896
          ],
          [
            121.61623195570567,
            24.104626809484582
          ],
          [
            121.61518415951463,
            24.102397242384654
          ],
          [
            121.61420466390463,
            24.100480685370464
          ],
          [
            121.6136432191393,
            24.0991903557687
          ],
          [
            121.61322908447593,
            24.098232822447002
          ],
          [
            121.61196068866036,
            24.094451691264076
          ],
          [
            121.61069229284479,
            24.09067056008115
          ],
          [
            121.60984311739311,
            24.0879727109442
          ],
          [
            121.60940589944397,
            24.086628659462946
          ],
          [
            121.60910723768905,
            24.085749515912354
          ],
          [
            121.60897380682422,
            24.085282119215208
          ],
          [
            121.60867406982041,
            24.084072805430317
          ],
          [
            121.60855986933254,
            24.083636077913706
          ],
          [
            121.60848341877868,
            24.08319112848538
          ],
          [
            121.60825890268586,
            24.081991988051165
          ],
          [
            121.6080532609171,
            24.080782759925768
          ],
          [
            121.6073981358229,
            24.077117092722773
          ],
          [
            121.60707229237272,
            24.075223842102446
          ],
          [
            121.60674159000463,
            24.073334932569423
          ],
          [
            121.60610224819425,
            24.069713057148522
          ],
          [
            121.6055287583452,
            24.06649992494006
          ],
          [
            121.60520747006716,
            24.06435819149378
          ],
          [
            121.60472504133705,
            24.06158120805443
          ],
          [
            121.60424261260695,
            24.05880422461508
          ],
          [
            121.60306681373869,
            24.052073355143474
          ],
          [
            121.60280595642794,
            24.05073074708794
          ],
          [
            121.60240646277302,
            24.048383878412743
          ],
          [
            121.60181814751087,
            24.044837868385102
          ],
          [
            121.6014071789699,
            24.042507432755023
          ],
          [
            121.60120757187644,
            24.04134033228499
          ],
          [
            121.6011144044797,
            24.04075684730323
          ],
          [
            121.60106055267292,
            24.04043319232955
          ],
          [
            121.60102618622207,
            24.040073018575544
          ],
          [
            121.60098670783489,
            24.03930291355571
          ],
          [
            121.60098755015258,
            24.038933234090475
          ],
          [
            121.60100964601178,
            24.03852204694438
          ],
          [
            121.60111287451826,
            24.036669922580366
          ],
          [
            121.60136352547073,
            24.032694924627478
          ],
          [
            121.60150215288706,
            24.02998420922635
          ],
          [
            121.60161464193109,
            24.028662762250732
          ],
          [
            121.60174821703812,
            24.027809400128795
          ],
          [
            121.60183003204168,
            24.02740705319277
          ],
          [
            121.60223890098976,
            24.02593989525412
          ],
          [
            121.60268593762991,
            24.024600294269142
          ],
          [
            121.60290717497998,
            24.023909611960747
          ],
          [
            121.60310305105583,
            24.02322856286583
          ],
          [
            121.60325018288206,
            24.0225519750079
          ],
          [
            121.60337924398377,
            24.021878503415728
          ],
          [
            121.60377518099453,
            24.0196164490538
          ],
          [
            121.60419436339748,
            24.017228738324896
          ],
          [
            121.60440312314199,
            24.016153532023925
          ],
          [
            121.60465018153621,
            24.01484463726061
          ],
          [
            121.6048715906928,
            24.013449798403183
          ],
          [
            121.6050592999568,
            24.012429075574083
          ],
          [
            121.60577680291664,
            24.008597505270842
          ],
          [
            121.60605655228836,
            24.006697486092566
          ],
          [
            121.60622464744458,
            24.00489728518668
          ],
          [
            121.60622221387723,
            24.004642262175928
          ],
          [
            121.60619851336097,
            24.004362410122106
          ],
          [
            121.60614712613437,
            24.004034341253252
          ],
          [
            121.60608427443114,
            24.00376518340571
          ],
          [
            121.60597494971276,
            24.00331806637592
          ],
          [
            121.60585313923625,
            24.002945069980665
          ],
          [
            121.60549626112143,
            24.002186418109616
          ],
          [
            121.60511120539714,
            24.001427488490734
          ],
          [
            121.60348138771968,
            23.998046755086953
          ],
          [
            121.60231565146077,
            23.995711145718474
          ],
          [
            121.60166689512954,
            23.99434675228662
          ],
          [
            121.60142552372346,
            23.993843478914606
          ],
          [
            121.60115150272624,
            23.99331479784791
          ],
          [
            121.60023003127745,
            23.991408626006766
          ],
          [
            121.59934975155718,
            23.98964266709986
          ],
          [
            121.59616010052927,
            23.983211621302488
          ],
          [
            121.59470550169755,
            23.98030354794534
          ],
          [
            121.59396982139145,
            23.978774315108303
          ],
          [
            121.59358747840406,
            23.97800409059695
          ],
          [
            121.59321056104096,
            23.97726012315617
          ],
          [
            121.59299256409346,
            23.976829342773527
          ],
          [
            121.5927567299283,
            23.97634423558033
          ],
          [
            121.59235196074499,
            23.975454750264596
          ],
          [
            121.59224483944467,
            23.975222956104595
          ],
          [
            121.59214311583919,
            23.975008815003186
          ],
          [
            121.59195873868708,
            23.974601224543612
          ],
          [
            121.59184634493813,
            23.974435881144878
          ],
          [
            121.59174775090045,
            23.974290906390117
          ],
          [
            121.5916418831769,
            23.97416220959669
          ],
          [
            121.59152964635587,
            23.974041272306557
          ],
          [
            121.59138360761781,
            23.973886153381095
          ],
          [
            121.59114319585744,
            23.973673546765593
          ],
          [
            121.59079561706659,
            23.973382006075752
          ],
          [
            121.59022660105074,
            23.9729660754905
          ],
          [
            121.58970585698859,
            23.97262182020122
          ],
          [
            121.58817706265526,
            23.971614993313956
          ],
          [
            121.58736720217352,
            23.97106823851431
          ],
          [
            121.58644750393216,
            23.97041055468597
          ],
          [
            121.58556092555924,
            23.969766735658908
          ],
          [
            121.58517895928975,
            23.969514869415548
          ],
          [
            121.58450789926867,
            23.96905887728133
          ],
          [
            121.58255953418839,
            23.967679182510103
          ]
        ]
      }
    }
  ]
}