{"type": "FeatureCollection", "features": [{"type": "Feature", "properties": {"track_id": "BH-1", "line_id": "BH", "direction": 1, "name": "北迴線 (花蓮→蘇澳新)", "origin": "花蓮", "destination": "蘇澳新"}, "geometry": {"type": "MultiLineString", "coordinates": [[[121.80598145079489, 24.46223255536984], [121.80634950485809, 24.462199850573988], [121.80645502741125, 24.46218442681043], [121.80656065248033, 24.462169616360473], [121.80666639056281, 24.462155518480667], [121.80677224206302, 24.462142196367648], [121.80687823720575, 24.46212974917263], [121.80698434703581, 24.462118276362656], [121.80712711103557, 24.462105352808056], [121.8075122317727, 24.462065412568037], [121.80797624863517, 24.46204812633173], [121.80805546386227, 24.46204963496676], [121.8082752146775, 24.462053831975975], [121.80828214718926, 24.46205356919481], [121.80863102300252, 24.462060722644992], [121.8090320769295, 24.46209397711172], [121.80905034234311, 24.46209672330562], [121.80923448789846, 24.46211522995907], [121.80943178040674, 24.462135056365128], [121.80963353863707, 24.462163733543072], [121.80990733338442, 24.462201928678912], [121.81041144725714, 24.462295776799653], [121.81096881657606, 24.462434362295454], [121.81145982755675, 24.462582772786757], [121.8119218732724, 24.462754802135187], [121.81199315017035, 24.462782705322546], [121.81228004769181, 24.462894985241523], [121.81275221885112, 24.463115124247377], [121.81322945481581, 24.463361850290628], [121.81327173011097, 24.46338320077241], [121.81336520803625, 24.463430593584132], [121.81345863717682, 24.463478058826237], [121.81371035532749, 24.463606009035978], [121.81482847381464, 24.464173940486333], [121.81534536194941, 24.46446529005037], [121.81568803014719, 24.464683752706442], [121.81596605782947, 24.464877193675516], [121.81641505950009, 24.465219275478063], [121.8164230383835, 24.465226762081056], [121.81668219490845, 24.4654425676892], [121.81710274869478, 24.46580847357041], [121.8173255088443, 24.466036419373694], [121.8176380148806, 24.46636857285774], [121.817862074382, 24.466652297368167], [121.81817325275513, 24.467068565560634], [121.81841848346276, 24.46743627423698], [121.81862930975305, 24.46779944697121], [121.81895656297984, 24.46839576119379], [121.81924955293759, 24.46910822126048], [121.8194457947966, 24.469664860286624], [121.81966237167478, 24.470238696147412], [121.81996110135753, 24.471047095337497], [121.8204846182315, 24.472516263227686], [121.82077312957608, 24.47333381646704], [121.82083954505991, 24.473522022940198], [121.82112600516136, 24.474314604856566], [121.82139864141331, 24.4750969688466], [121.82187222193257, 24.47640118222867], [121.8221968769613, 24.477297687307672], [121.82257115044972, 24.478326665849522], [121.822947430977, 24.479341701454494], [121.82335141572186, 24.480448710587467], [121.82383538371054, 24.48180702076243], [121.82440068949883, 24.483363229689743], [121.82481502233158, 24.48452051959236], [121.82528519733776, 24.48580261825889], [121.82561637877302, 24.486734550730915], [121.82595754876023, 24.487661859278948], [121.826358174256, 24.488758186834403], [121.82666721876357, 24.48961548248079], [121.82702538694164, 24.49059151132196], [121.82748229026177, 24.491876725460862], [121.82777934988684, 24.492683732608384], [121.82821750871845, 24.493904954211217], [121.8287016444681, 24.495270881315413], [121.82919069318984, 24.496623038254878], [121.82963386253822, 24.497841184473735], [121.82981304268844, 24.49833351856118], [121.83045570365762, 24.5000993089395], [121.83093299888797, 24.50143169697826], [121.83149336400055, 24.50297111518487], [121.83189086532172, 24.50408422475871], [121.83251746217181, 24.505801790671192], [121.83305551407277, 24.507304642278605], [121.83320545454542, 24.507723452211266], [121.83336027592532, 24.508189471302426], [121.833464650623, 24.50859321135002], [121.83357170982009, 24.509149506435563], [121.83361202866678, 24.509700066840185], [121.83361187964115, 24.51002747146274], [121.83359711058937, 24.510380832044063], [121.83359367565153, 24.510501821762563], [121.83359201073324, 24.510560560318485], [121.83357687501105, 24.510713268020393], [121.83353048969327, 24.511079984554936], [121.83349737805166, 24.511274999007068], [121.83347050627704, 24.511416720810537], [121.83343941734316, 24.51154741520665], [121.83333208695214, 24.511999045679268], [121.8332018929705, 24.512501604756093], [121.8331425718941, 24.512704067731196], [121.83306806414139, 24.512945409284555], [121.83305549706714, 24.512980481523822], [121.83294869096052, 24.513278518696563], [121.83273047109286, 24.513744655298748], [121.8325580099276, 24.514088548250143], [121.832403064236, 24.5143891799133], [121.83214250905726, 24.51489147294467], [121.83201613690524, 24.51513790302832], [121.83199268014067, 24.515184203271414], [121.83177480778788, 24.515614205195128], [121.83149512433357, 24.516163062391968], [121.83107403091331, 24.51698938939624], [121.83077638779541, 24.517581174633662], [121.83077517994195, 24.51758357379281], [121.83073311987526, 24.517667200097318], [121.83073196076475, 24.517669508704397], [121.8306681480539, 24.51779462258267], [121.83066495248426, 24.51780087875446], [121.83052558695428, 24.51807411205017], [121.83035837065644, 24.518467051718407], [121.83027414200731, 24.518682525032837], [121.83016511653061, 24.51901541281786], [121.83010491279356, 24.519276924771482], [121.83006835042778, 24.519470485785455], [121.83003604513446, 24.51968867975635], [121.83000925256268, 24.51991835452085], [121.83000616225641, 24.520508246846127], [121.83001894011842, 24.521035061147703], [121.83001894011842, 24.521035061147703], [121.83006604885901, 24.52089205499988], [121.83009258554463, 24.520504828187363], [121.83015734837399, 24.51974778904729], [121.83021094890559, 24.519418492556703], [121.83027742811564, 24.519126881679], [121.83038278204965, 24.51876991739605], [121.83047959236683, 24.518506416257328], [121.83053604852891, 24.518359476317325], [121.83065184277855, 24.518110740251412], [121.8307583706295, 24.517907034288466], [121.83076319462272, 24.517897807855174], [121.83086397217845, 24.51770507582145], [121.83086480059656, 24.5177035003295], [121.83092268840649, 24.517592801137646], [121.83144393643293, 24.51657337541539], [121.83157750846004, 24.516303522733583], [121.83168663348366, 24.516048096528934], [121.83194657658967, 24.515363841490984], [121.83202890414432, 24.5151960744497], [121.83207809604616, 24.515095823413002], [121.83217903228305, 24.51490383899755], [121.83239223801806, 24.514498310985637], [121.83275284009159, 24.513787904011057], [121.83301142916929, 24.513299407078918], [121.83304432049475, 24.51322643906203], [121.8330554984737, 24.51320666849815], [121.83305900986566, 24.513200455675374], [121.83319931923208, 24.512908851243612], [121.83334837778658, 24.512571948337726], [121.83346459906822, 24.51227436448082], [121.83356037999876, 24.51200607302053], [121.8336153998843, 24.51181438639341], [121.83369701332258, 24.511531583296566], [121.83377070261595, 24.511184451861254], [121.83380788064258, 24.51099114833339], [121.83384704806676, 24.510671680797664], [121.8338764236056, 24.510371163658874], [121.83388530619317, 24.51003802295943], [121.83388494199347, 24.51001423529157], [121.83388449081691, 24.510008667297473], [121.83388410156887, 24.509867448127963], [121.83388611938169, 24.509639417178146], [121.83386995079974, 24.509346961131925], [121.83383838435526, 24.50900590931001], [121.83383219388314, 24.508920120080496], [121.83371402412871, 24.50835349492758], [121.8335636540674, 24.5078355296503], [121.83339542687722, 24.507358145854482], [121.83318896084765, 24.506772262565008], [121.83305551371603, 24.506404967551045], [121.83291511328773, 24.506018543569116], [121.8327024062321, 24.50543269385382], [121.83247431722408, 24.504789715925188], [121.83224373961386, 24.50414904446967], [121.832019751197, 24.50355867833481], [121.83180294957046, 24.50291906765682], [121.83158155964897, 24.502343565098336], [121.83136999806106, 24.501739397150946], [121.8310532851486, 24.50088852097912], [121.83085437220156, 24.5003060227517], [121.83064302830215, 24.499733893926585], [121.83044177859456, 24.49917658794002], [121.83019600783443, 24.498502807764087], [121.83013505569724, 24.498333499991325], [121.82994889431859, 24.497816448918165], [121.82967118019252, 24.497038710092514], [121.82942786158405, 24.49635690667207], [121.82917335615448, 24.49568545650932], [121.82880656318247, 24.494649343446174], [121.8285492364375, 24.49392870281722], [121.8282754315143, 24.493172679536155], [121.82799422203267, 24.49243043739401], [121.8276281473714, 24.491395517463136], [121.82730723116634, 24.4905093081616], [121.82702707205715, 24.489734239818155], [121.82675031103494, 24.488969841801957], [121.82640929101537, 24.488066956342248], [121.82617156165634, 24.487406088490808], [121.82587769066606, 24.486571595381015], [121.82556029366339, 24.48570977480121], [121.82526655040286, 24.484893589015456], [121.82491660995171, 24.48389767436186], [121.82453469052123, 24.482853107688666], [121.8241814276015, 24.48185720896291], [121.82385713778251, 24.48095574161329], [121.8235381422895, 24.48010002748113], [121.82321216500209, 24.479193990153558], [121.82290322098629, 24.478344313698123], [121.82262803007421, 24.47755701041457], [121.82232256728707, 24.476727157889563], [121.82209166953969, 24.476084554160423], [121.8217758945908, 24.475207447511686], [121.82157389741677, 24.47465013035654], [121.82129888186277, 24.4738872357805], [121.8210987984852, 24.47333381670327], [121.82101370907081, 24.47309845714257], [121.82076406223345, 24.472390343250833], [121.82042978126458, 24.471484352310465], [121.82014453075732, 24.470681839772492], [121.81981867309936, 24.469787998759468], [121.81950985566786, 24.46895052812395], [121.81936474833718, 24.468571850793964], [121.81916812048226, 24.468154928320125], [121.81904431203128, 24.46791351149035], [121.81882379916755, 24.467495643549494], [121.81838730666101, 24.46684779040696], [121.81795017884525, 24.466271904803648], [121.81775198943971, 24.46604106432316], [121.8173627238368, 24.46564800516961], [121.81683787676661, 24.465168706983228], [121.81658966161217, 24.464974619064527], [121.81655123557589, 24.464947678207114], [121.81641739851209, 24.464853837528082], [121.81639073104137, 24.46483312592145], [121.81638760637954, 24.464830407187627], [121.81599896370294, 24.46456644735802], [121.8155947060664, 24.464291447729973], [121.81528449008567, 24.464098856783085], [121.814929106526, 24.463913623105817], [121.81402336983338, 24.46345807213032], [121.81348031123254, 24.46317300706546], [121.8130429468985, 24.46296039342332], [121.81241458641612, 24.462690012033182], [121.81190579272678, 24.462506696973684], [121.81141302397381, 24.462357999432374], [121.81102056609797, 24.46225022063343], [121.81052907306105, 24.462137175626193], [121.81003783367318, 24.462063654122424], [121.80982406705128, 24.462040467906903], [121.80965984525743, 24.462021810109956], [121.80957705821643, 24.46201240350961], [121.80930686728597, 24.461988579793324], [121.80905181768628, 24.461972547345162], [121.80903605902672, 24.461971557307383], [121.80876484064103, 24.46196135299766], [121.8084934191582, 24.46195795672706], [121.80842582867601, 24.461958814797974], [121.80822200183798, 24.461961394472553], [121.80807643879544, 24.461966894588198], [121.80805546378902, 24.46196769287934], [121.80802689554376, 24.461968775526184], [121.80795079565195, 24.461971647071863], [121.80767998801815, 24.46198872255403], [121.80740980552045, 24.46201258359796], [121.80729957425955, 24.462024286370173], [121.8071894876231, 24.462037017531934], [121.80707953522733, 24.462050695883153], [121.80696970663116, 24.46206523119549], [121.80686001106307, 24.4620805241072], [121.80675041824081, 24.462096466438954], [121.80664093756614, 24.462112985913357], [121.80653152889408, 24.462129974403588], [121.80642220151196, 24.46214734157591], [121.80631292519637, 24.462164988278914], [121.80598145079489, 24.46223255536984], [121.80598145079489, 24.46223255536984], [121.8058238430939, 24.462258115540223], [121.8057238348491, 24.46227518876188], [121.80571886892353, 24.462276036820345], [121.80543485515926, 24.46232451640604], [121.80490430792607, 24.462415071870566], [121.80408199861726, 24.462550469206843], [121.79783690004886, 24.463568746206295], [121.7988539955986, 24.463536685992608], [121.8020583659761, 24.463013979035207], [121.80206189355113, 24.463013400553265], [121.80250898131587, 24.46294046118496], [121.802669287856, 24.46290470602742], [121.80267321793801, 24.46290382745524], [121.80363687720279, 24.462688858936183], [121.80384047420117, 24.46262343063141], [121.80408199861726, 24.462550469206843], [121.80408199861726, 24.462550469206843], [121.80391216441033, 24.462578430804697], [121.80293528952176, 24.462729694337668], [121.80271251970026, 24.462766034298507], [121.80270865712178, 24.462766668745182], [121.80262568989562, 24.462780200568368], [121.80242418398043, 24.462813077641567], [121.80221125759401, 24.462847811720565], [121.8021330397482, 24.46286057773646], [121.80212951217777, 24.462861156219965], [121.80143458627697, 24.462974528998547], [121.79933841315062, 24.463318597883486], [121.79783690004886, 24.463568746206295], [121.79783690004886, 24.463568746206295], [121.79782892854001, 24.46357007032319], [121.7973986170504, 24.46364037044129], [121.7973837280457, 24.463642796385567], [121.79599856898068, 24.463869100566406], [121.79440715941024, 24.464134531239132], [121.79440491477258, 24.464133649219708], [121.79360180769095, 24.464261368323513], [121.79302515755374, 24.46433599060532], [121.79260002893288, 24.464365323973983], [121.79232487947654, 24.46437707708708], [121.79193196634638, 24.46437964186687], [121.79184725235343, 24.464377638991753], [121.79168256960729, 24.46437374367091], [121.79168180977177, 24.46437369348007], [121.79140604577128, 24.4643565841616], [121.79113326188093, 24.464328606533037], [121.79079258058574, 24.464281003682512], [121.79047153324947, 24.46423096803493], [121.79018744136509, 24.464169091790257], [121.78982528004262, 24.464074497559064], [121.78937315834185, 24.46394473695859], [121.78894510243977, 24.463812917280173], [121.7886670951348, 24.463722043072867], [121.78841896748818, 24.46364093477176], [121.78769885890647, 24.46341466204751], [121.78649023575042, 24.463042139397395], [121.78312362972295, 24.46197926340119], [121.78305548617277, 24.461957749467317], [121.78291336810969, 24.46191287378479], [121.78121052892801, 24.461375235490287], [121.7811095053172, 24.461343318242708], [121.78100853040434, 24.46131129233315], [121.78100849089513, 24.461311283508802], [121.78090760352163, 24.461279049423382], [121.78090753436663, 24.461279031723688], [121.78080677331847, 24.46124648092052], [121.7808066843811, 24.461246454294482], [121.78070608850031, 24.461213487259915], [121.78070597978058, 24.461213451707525], [121.78060558785378, 24.461179959899837], [121.78060545935169, 24.461179915421045], [121.78050532008481, 24.46114579927588], [121.78050517180043, 24.461145745870674], [121.78040533378841, 24.46111088776737], [121.78040516577737, 24.461110834463916], [121.78030567778232, 24.461075143866562], [121.78030548993337, 24.46107507260842], [121.78020640071769, 24.46103845898118], [121.78020634137064, 24.46103843220207], [121.7802061930865, 24.46103837879655], [121.78010758089157, 24.46100073339463], [121.7801073534782, 24.461000644283477], [121.78000924728451, 24.460961867644926], [121.78000885174936, 24.46096170717332], [121.77978475208344, 24.460867667104846], [121.77978434657433, 24.460867488627134], [121.77978419823496, 24.460867426193012], [121.77956343298031, 24.46076700351009], [121.77956287902151, 24.46076674454102], [121.77934566586461, 24.460660046476967], [121.7793452206256, 24.460659823060478], [121.7793451216589, 24.460659769399847], [121.77913165850154, 24.46054689426255], [121.77913112404902, 24.460546599077396], [121.77892162862825, 24.460427663130353], [121.77892116338653, 24.460427394673253], [121.77892111384784, 24.460427358814588], [121.77871578417137, 24.46030247842397], [121.77871527914425, 24.460302156000267], [121.77851432308053, 24.46017144748216], [121.77851382786223, 24.460171115978767], [121.77831744346904, 24.460034704729086], [121.7783169580041, 24.460034355117838], [121.77812534344739, 24.459892384589576], [121.77812486779133, 24.4598920258987], [121.77793820145197, 24.459744630618786], [121.77793817169582, 24.459744603686463], [121.77793774541264, 24.459744253769397], [121.77775621564287, 24.45959158627093], [121.77775576941242, 24.459591200342018], [121.77757954472398, 24.459433395203625], [121.7775794752933, 24.45943333236137], [121.77757910830248, 24.45943300019522], [121.77740837715236, 24.459270228007185], [121.77740796029217, 24.4592698058122], [121.7772428814338, 24.459102219260906], [121.77724277227355, 24.45910211148034], [121.77724247443791, 24.459101797014718], [121.7770832165403, 24.458929557764154], [121.77708281929796, 24.458929117410413], [121.77692952154827, 24.458752405333243], [121.77692939232995, 24.458752243484607], [121.77692915384122, 24.458751955798768], [121.77678197503931, 24.4585709326098], [121.77678161708575, 24.458570464967863], [121.77664071613924, 24.458385310438263], [121.7766405570554, 24.45838510360037], [121.7766403680499, 24.45838484274528], [121.77650586441082, 24.458195736848815], [121.77650553599346, 24.458195260025963], [121.77637757875587, 24.45800239161229], [121.77637740953314, 24.45800213968372], [121.77637726014731, 24.458001905710265], [121.77625595894986, 24.457805463831406], [121.77625566001319, 24.457804968799593], [121.77614114421822, 24.45760514240587], [121.77614096480146, 24.457604836358417], [121.77614086495339, 24.457604638244316], [121.77603323444181, 24.457401634493866], [121.77603297484876, 24.457401121202615], [121.77593233925165, 24.457195129145997], [121.77593216931194, 24.457194759850207], [121.77593209933025, 24.457194606725107], [121.77583856838685, 24.45698583346872], [121.77583833827404, 24.456985301968793], [121.77575199207676, 24.456773945742], [121.77575183166948, 24.45677352222611], [121.77575179155386, 24.456773414090083], [121.77567272016672, 24.45655969112725], [121.77567252945225, 24.456559150396387], [121.77560080310069, 24.456343258975913], [121.77560065222583, 24.456342781239982], [121.77560064197587, 24.45634271809313], [121.77553634091227, 24.456124883526584], [121.77553618959578, 24.456124333564897], [121.77547937417904, 24.455904754179482], [121.77547924264428, 24.455904213144755], [121.7754299634794, 24.455683105373733], [121.77542985161575, 24.45568255520954], [121.77538816927976, 24.455460153491025], [121.77538806722421, 24.455459594247998], [121.77535401253844, 24.455236106086165], [121.77535401231741, 24.455236069973335], [121.775353940072, 24.45523554669133], [121.7753275439672, 24.455011197645725], [121.77532749117161, 24.455010629121507], [121.77530878452252, 24.454785635722352], [121.77530877410709, 24.454785545490846], [121.77530874159001, 24.45478506714751], [121.77529774540785, 24.45455964597448], [121.77529773206413, 24.454559077247907], [121.77529444763384, 24.454333444980694], [121.77529444680509, 24.454333309557548], [121.77529445572868, 24.45433315602743], [121.7752944452028, 24.454333047739496], [121.77529540505515, 24.45423524618624], [121.77529540367387, 24.454235020481004], [121.77529769512049, 24.454137230155297], [121.7752977037678, 24.45413703148412], [121.77530120856213, 24.454039271049307], [121.77530121731995, 24.454039090434545], [121.77530581716054, 24.45394136952571], [121.77530582602887, 24.453941206967347], [121.7753114026147, 24.45384353521959], [121.7753114115935, 24.453843390717672], [121.7753178366506, 24.453745759760192], [121.77531784573989, 24.453745633314675], [121.77532501083073, 24.45364805273199], [121.77532501016769, 24.45364794439347], [121.77533277710099, 24.453550396837144], [121.77533278646652, 24.453550315532677], [121.77534104675024, 24.453452801559013], [121.77534104636347, 24.453452738361552], [121.77534967172517, 24.453355249599785], [121.77534967150416, 24.453355213486944], [121.77535854347927, 24.453257732487543], [121.77536752398854, 24.453160259958562], [121.77558707070872, 24.450784477270318], [121.775673661332, 24.449847507141936], [121.7756826808846, 24.44975003436042], [121.77569179916097, 24.449652579127946], [121.77569179899517, 24.449652552043304], [121.77570111461986, 24.44955511385399], [121.77570112420601, 24.44955506866232], [121.77571072599605, 24.449457656088978], [121.77571073547163, 24.44945759284089], [121.7757207221063, 24.449360214405754], [121.77572073141606, 24.44936012407302], [121.77573120157429, 24.449262788298338], [121.77573121088406, 24.449262697965604], [121.77574226324448, 24.449165413373574], [121.77574228225086, 24.449165295905594], [121.77575400568468, 24.44906808009717], [121.77575402463577, 24.44906795360098], [121.77576651782105, 24.448970815098317], [121.77576653666156, 24.448970670545705], [121.77577989833135, 24.448873626899125], [121.77577992692372, 24.448873464239483], [121.77579424600358, 24.448776542078072], [121.77579427454066, 24.448776370390185], [121.77580964970781, 24.448679578235982], [121.77580970683717, 24.448679243888442], [121.77585351647083, 24.448435908743203], [121.77585361210986, 24.448435420713587], [121.77587506210891, 24.448333712964523], [121.77590466808805, 24.448193276246666], [121.77590478345148, 24.44819278811581], [121.77595356253364, 24.447991166186256], [121.77627543596923, 24.447111330188925], [121.77675818670872, 24.445997217342736], [121.77714717507207, 24.445323489470795], [121.77730842700092, 24.445069537721327], [121.77737897438985, 24.4449684621869], [121.77743461474854, 24.444889113595778], [121.7774901474968, 24.444809919022465], [121.77776143354308, 24.444425896277547], [121.7779613217392, 24.444136245089137], [121.77822985028759, 24.44375172108688], [121.77841536434597, 24.443487332795204], [121.77841647891111, 24.443485747071094], [121.7784649520227, 24.44341667331961], [121.77850496815611, 24.44335964196215], [121.77882840586781, 24.44290598293094], [121.77895055545739, 24.442722310052332], [121.77911833936305, 24.44246998402775], [121.77935281401979, 24.44211069662329], [121.77957628187771, 24.441740297340893], [121.77957935366184, 24.441734638694978], [121.77982280059739, 24.441285633260563], [121.78003250272283, 24.440866288557487], [121.78022131846669, 24.440429779783788], [121.78040024270315, 24.439971066552435], [121.7804697133903, 24.4397760445764], [121.78053579092328, 24.439590565147242], [121.78053856747673, 24.439581820257807], [121.7805991326488, 24.43939164733837], [121.78064168280034, 24.4392580135661], [121.78076729680129, 24.438781138805222], [121.78084900147199, 24.43843343568434], [121.78090108016431, 24.438170518648874], [121.78095532358607, 24.437818786051892], [121.78099692920262, 24.437498339241532], [121.78102920925633, 24.437194534950994], [121.7810539516331, 24.436842196207827], [121.78106097308104, 24.43674772179348], [121.78106783612542, 24.436653148882215], [121.78107462021443, 24.43655856734882], [121.7812354814081, 24.434310704004076], [121.78138922225152, 24.432652474511958], [121.78149721703306, 24.430902083100808], [121.78162446467803, 24.429355898038203], [121.78174945543846, 24.427443934010782], [121.78189435223622, 24.42525835673351], [121.78203754565385, 24.423382556099625], [121.78204106836438, 24.423333359551503], [121.78218334910312, 24.421345266366757], [121.78236918693275, 24.418796980377852], [121.78251126120958, 24.41673993613286], [121.78265333187929, 24.41468289131701], [121.7828035011061, 24.412774097649375], [121.78299210481616, 24.410093986707107], [121.78305551700207, 24.40918038642797], [121.78314083222025, 24.407951224739094], [121.78331679910855, 24.405557869569485], [121.78350795786204, 24.402712971818087], [121.78366053439642, 24.400613028163455], [121.78382489300705, 24.398333336788486], [121.78384616206822, 24.398038381480315], [121.78393520244889, 24.39672305722182], [121.78395408743364, 24.39628467764422], [121.78396599949191, 24.39588258375681], [121.78397744243924, 24.394821408168134], [121.78395302638638, 24.394363480079697], [121.78386660660452, 24.39318747100088], [121.78382779869749, 24.392729617256148], [121.7837859418291, 24.39236075563493], [121.78372550486736, 24.39189641384286], [121.78360585186438, 24.391165458137777], [121.78349048672116, 24.3905508942601], [121.78347324505776, 24.39045661697056], [121.78338520220316, 24.390016993387786], [121.78328973501156, 24.389578672102658], [121.78318687335188, 24.389141689059677], [121.78317473882218, 24.389092230153736], [121.78316251524878, 24.389042717535276], [121.7831502129347, 24.3889932233795], [121.78313785153988, 24.388943738556183], [121.78312544086648, 24.388894253986088], [121.78311300063005, 24.38884476956729], [121.78308804143734, 24.388745819189104], [121.78305549364542, 24.388616806815744]], [[121.77644578656577, 24.362416085119765], [121.77610860482943, 24.36101241966058], [121.77576910468879, 24.35961031782883], [121.77525330256339, 24.357612650510795], [121.77481049336507, 24.35578266619494], [121.77426525499845, 24.35366980378797], [121.77378749835324, 24.351875340425146], [121.77289446054742, 24.34833380505322], [121.77224892560199, 24.345773650442116], [121.77223643521761, 24.34572417396911], [121.77222392518938, 24.345674706623203], [121.77221137586322, 24.34562525753306], [121.77219878718445, 24.345575817670305], [121.77218613949903, 24.34552639616362], [121.77217341304342, 24.345476984084947], [121.7721606280193, 24.345427662589067], [121.77207140780187, 24.345095204235463], [121.77195838376589, 24.344693599325538], [121.77195792055886, 24.34469196750148], [121.77193361717663, 24.344608765988248], [121.77190704942421, 24.344517793316225], [121.77178009794167, 24.3440830156873], [121.77160416850002, 24.343516235700843], [121.77118319937776, 24.342328032840044], [121.77094138718812, 24.34166498941923], [121.77079882870648, 24.341244194084844], [121.77059754063463, 24.34061842190683], [121.7702626195136, 24.339681262176246], [121.77004838972046, 24.3390818009836], [121.76999558219718, 24.33893856786553], [121.76938349180229, 24.33664060738972], [121.76942476950714, 24.3367954468907], [121.76946605717134, 24.336950286324846], [121.76958340568083, 24.33744553493766], [121.7697385590891, 24.338052239745426], [121.76993870604385, 24.33868465527316], [121.76999558219718, 24.33893856786553], [121.76999558219718, 24.33893856786553], [121.76965705886757, 24.33811151086358], [121.769428916834, 24.33757828098915], [121.76914155823805, 24.336818939709385], [121.76899660274474, 24.33653288872574], [121.76891049785823, 24.33629448145048], [121.76890936536985, 24.336291336193998], [121.7684828232891, 24.335118293025417], [121.76812956935683, 24.33415395366049], [121.76745815941132, 24.332315597442925], [121.76735404934733, 24.332029979014084], [121.76735404934733, 24.332029979014084], [121.767249949566, 24.331744351413352], [121.7671428698106, 24.3314415843544], [121.76699869553555, 24.33105596819824], [121.76690973145676, 24.3308307376911], [121.76673476606676, 24.330461465187486], [121.76583307281152, 24.327708125835343], [121.7660311682543, 24.32828408419801], [121.76621932886889, 24.328803591075072], [121.7670319953094, 24.331015784929228], [121.76726752138539, 24.331664629905163], [121.76735404934733, 24.332029979014084], [121.76783190512724, 24.332399749875936], [121.7681061902171, 24.333152759287486], [121.7684130300153, 24.333988143075725], [121.76897398618723, 24.335515665237097], [121.76938349180229, 24.33664060738972], [121.76938349180229, 24.33664060738972], [121.769259273029, 24.336099067422193], [121.76902226293817, 24.335426262754805], [121.7681862958493, 24.3331485798317], [121.76804471820516, 24.33280880819877], [121.76783190512724, 24.332399749875936], [121.76783190512724, 24.332399749875936], [121.76760388673874, 24.33192649318206], [121.76739560699389, 24.331611941150307], [121.76732072248345, 24.331453767720536], [121.76715340300689, 24.331124038704814], [121.76686317777877, 24.330345240640238], [121.7664902818032, 24.329307023865525], [121.76620230044321, 24.3285066975807], [121.76599411157181, 24.328002459871467], [121.76583307281152, 24.327708125835343], [121.76583307281152, 24.327708125835343], [121.76564712325806, 24.327278920822597], [121.76553166389708, 24.3270413814626], [121.7653777308788, 24.326753475540112], [121.76508802590645, 24.326220241043266], [121.76500653557116, 24.326086603314007], [121.76450553835204, 24.325199597051625], [121.7644123256574, 24.325030083938135], [121.7642277544403, 24.324684655887225], [121.7642209421907, 24.324670885364064], [121.76405135282387, 24.32432778325711], [121.76389568154859, 24.323998605310887], [121.76377294649988, 24.323723135481227], [121.76367798636971, 24.32347704952613], [121.76362017670623, 24.323333640164694], [121.76361925651747, 24.323331351513513], [121.76359852304627, 24.323279911179178], [121.76337060196674, 24.322644663196005], [121.76272685592464, 24.320768663647296], [121.76271282651578, 24.32072766272991], [121.76208277016508, 24.318886929039635], [121.76116386714023, 24.316254155342573], [121.7603952102637, 24.31402600974775], [121.76039433790314, 24.314023459000644], [121.76039395695871, 24.31402235940969], [121.76039395498293, 24.31402235851672], [121.76039075985769, 24.31401310206546], [121.76011136021906, 24.31320316769198], [121.75911535396051, 24.310353997918625], [121.75909990281488, 24.310309433732193], [121.75806182666865, 24.307315311140133], [121.75805904266406, 24.307307372567337], [121.75805551306765, 24.30729731055699], [121.75784848308109, 24.306706879766338], [121.75763688889842, 24.3061016986355], [121.75727945408337, 24.30507516564124], [121.75677223150382, 24.303601027417788], [121.75665206408299, 24.30326303557719], [121.75516075891338, 24.29898287033153], [121.75493452175957, 24.29833352008429], [121.75493407078193, 24.29833222219213], [121.75493306464774, 24.298329334395497], [121.753566027986, 24.29440546479135], [121.75271368381172, 24.29193122525869], [121.75261049247105, 24.29162174815568], [121.75253177069933, 24.29141524505857], [121.75228078084159, 24.290896175671087], [121.75145004255128, 24.289383062616373], [121.75055589963347, 24.287800133235923], [121.74940713621187, 24.285717669971536], [121.74854053259189, 24.28417637976056], [121.74768773242984, 24.28271115347855], [121.7472275986448, 24.281854717065176], [121.74678994058463, 24.28108724069773], [121.74659551409566, 24.280713906007517], [121.74640546371919, 24.280334453336557], [121.74621558021529, 24.27998302657318], [121.74599007395945, 24.279515655773967], [121.74583069904176, 24.27915206688346], [121.74564889884017, 24.27868848616758], [121.74546156672336, 24.278205701093885], [121.74528618455012, 24.277699456453185], [121.74497891444582, 24.27675261249811], [121.7445869482413, 24.275521007890873], [121.74432579354128, 24.27473223366351], [121.74387819018376, 24.273380317414958], [121.74386342445015, 24.27333382750671], [121.74370505135522, 24.27283517168534], [121.7436664034139, 24.272701177276772], [121.74344935278454, 24.27204795061485], [121.7433545081912, 24.27172971754215], [121.743107418746, 24.270954772437076], [121.74305626162162, 24.270790251349975], [121.74302358315643, 24.270685156568373], [121.7429087638792, 24.270315899033417], [121.74264426794603, 24.269485318826522], [121.74252546853587, 24.269145635067602], [121.74243859163875, 24.268880843236165], [121.74233494810589, 24.268556648143427], [121.74224549304117, 24.268276834971324], [121.74217003161873, 24.268040789845923], [121.74204184226329, 24.26763989401899], [121.74192466480451, 24.26730145943649], [121.74177265824416, 24.266818996344348], [121.74167470071542, 24.266511062600195], [121.74153316114112, 24.266093417962793], [121.74127517202075, 24.26542706399638], [121.74106223328258, 24.264884779885797], [121.74096689009949, 24.264663685885413], [121.74057020902379, 24.26385080844922], [121.73971067383386, 24.262320036604216], [121.73918373777033, 24.26157127336039], [121.73877081775201, 24.260971245014165], [121.73817983477527, 24.260248465052697], [121.73748454942495, 24.259440035827495], [121.73668597049414, 24.258648656854902], [121.73604262502057, 24.25802582270361], [121.7351165650138, 24.25725681299185], [121.73319841869287, 24.255882556547682], [121.73306097938597, 24.255790025662826], [121.7330583160968, 24.255788232741047], [121.73305549859546, 24.255786337634248], [121.73156751812347, 24.25478454878447], [121.72875954249025, 24.252890516104074], [121.72588210787353, 24.250930410133982], [121.72311864317749, 24.24907021097168], [121.72203951434321, 24.248333785762895], [121.72203858709402, 24.24833315272952], [121.7220344214014, 24.248330310366573], [121.72146434567742, 24.247941269131154], [121.71905488556149, 24.246324982657878], [121.71872141537858, 24.246099108823707], [121.71767885479396, 24.245457330946195], [121.71684063135541, 24.24496087983008], [121.71662502808414, 24.244833184161795], [121.71611052107225, 24.244519037935778], [121.71604774852834, 24.244480709854876], [121.71523568683651, 24.243984875879278], [121.71505133137526, 24.243869900710006], [121.71445286021962, 24.24349665772711], [121.71440824154088, 24.243464866352983], [121.71419893779168, 24.243315732925502], [121.71388476465715, 24.243055358613855], [121.71365087605739, 24.242844715300816], [121.71349384892726, 24.242703292790655], [121.71300049607213, 24.242165937811848], [121.71275133605815, 24.241888101636125], [121.71237075410379, 24.2413354360426], [121.71112589155136, 24.23930871687893], [121.71085347321427, 24.238849979574816], [121.71064126173634, 24.23847868655652], [121.70997286893812, 24.237357490394313], [121.70949171681788, 24.2365627280093], [121.70945032696207, 24.236492476150467]]]}}]}