{
  "type": "FeatureCollection",
  "features": [
    {
      "type": "Feature",
      "properties": {
        "track_id": "CZ-1",
        "line_id": "CZ",
        "direction": 1,
        "name": "成追線 (追分→成功)",
        "origin": "追分",
        "destination": "成功"
      },
      "geometry": {
        "type": "LineString",
        "coordinates": [
          [
            120.57013559112698,
            24.12021846103429
          ],
          [
            120.57030702842752,
            24.12018371839143
          ],
          [
            120.57106316263027,
            24.119989113771997
          ],
          [
            120.57190591664614,
            24.119763003045197
          ],
          [
            120.57213370076259,
            24.119701886436786
          ],
          [
            120.5727690219387,
            24.119529815036014
          ],
          [
            120.57296572696073,
            24.119469551103336
          ],
          [
            120.57327436067841,
            24.1193810960188
          ],
          [
            120.57333186376307,
            24.11936461388694
          ],
          [
            120.57380780937405,
            24.11923451421944
          ],
          [
            120.5742931177546,
            24.11910495562176
          ],
          [
            120.57473294517263,
            24.118987393370887
          ],
          [
            120.57480236073903,
            24.118966931234013
          ],
          [
            120.57519519286994,
            24.118860601069642
          ],
          [
            120.57552420241616,
            24.11875097204523
          ],
          [
            120.57582907452806,
            24.11863630918637
          ],
          [
            120.5759123127065,
            24.11860239879799
          ],
          [
            120.57600813240947,
            24.118563362151
          ],
          [
            120.57602155560865,
            24.11855658772221
          ],
          [
            120.57608388054457,
            24.118525132945724
          ],
          [
            120.57609470423957,
            24.118519669570755
          ],
          [
            120.57615832790384,
            24.118487559230207
          ],
          [
            120.57632256522488,
            24.11840466920034
          ],
          [
            120.57635289682796,
            24.11838729973269
          ],
          [
            120.57641855121129,
            24.118349701503423
          ],
          [
            120.57644974619991,
            24.11833183599418
          ],
          [
            120.57651336816456,
            24.118295404088016
          ],
          [
            120.57658600854444,
            24.118253805318414
          ],
          [
            120.5765952149847,
            24.118248909880812
          ],
          [
            120.57678774006902,
            24.118146515051155
          ],
          [
            120.57701723786269,
            24.117994664274114
          ],
          [
            120.57722257921588,
            24.117850784154403
          ],
          [
            120.5774994747853,
            24.117644626298784
          ],
          [
            120.57793868850533,
            24.117294847132424
          ],
          [
            120.57834592847445,
            24.116983894598107
          ],
          [
            120.57854893167786,
            24.116833290212988
          ],
          [
            120.57858901275576,
            24.11680355540601
          ],
          [
            120.5786015727341,
            24.11679532465078
          ],
          [
            120.57865433252292,
            24.11676074718199
          ],
          [
            120.57909502097634,
            24.116471928913924
          ],
          [
            120.57945522619106,
            24.1162802740016
          ],
          [
            120.5797717815828,
            24.11613978446888
          ],
          [
            120.58004813993828,
            24.116035597058694
          ],
          [
            120.58052264717485,
            24.115897934605172
          ],
          [
            120.58082792816656,
            24.11582648408119
          ],
          [
            120.58090142274119,
            24.11581536028071
          ],
          [
            120.58106663785634,
            24.115790353542316
          ],
          [
            120.58153435453711,
            24.115738853779987
          ],
          [
            120.58185963319163,
            24.11572584289448
          ],
          [
            120.58216450796034,
            24.115730695025324
          ],
          [
            120.58237809347344,
            24.115741483900695
          ],
          [
            120.5827115418972,
            24.115781024083848
          ],
          [
            120.58305556289561,
            24.115834220289017
          ],
          [
            120.58305844776582,
            24.115834666082108
          ],
          [
            120.58369730838945,
            24.115946767715766
          ],
          [
            120.58406230429371,
            24.115999806626412
          ],
          [
            120.58443485711997,
            24.116037172331023
          ],
          [
            120.58475713529192,
            24.116051177179816
          ],
          [
            120.5850364613534,
            24.116051674266707
          ],
          [
            120.58537943855968,
            24.116031829066298
          ],
          [
            120.58574097680695,
            24.115985160471464
          ],
          [
            120.58605721893346,
            24.115930284380873
          ],
          [
            120.58631118223698,
            24.11587523900932
          ],
          [
            120.58668050669051,
            24.11577477563416
          ],
          [
            120.58709042240372,
            24.115640123329843
          ],
          [
            120.58752843065464,
            24.115484110236597
          ],
          [
            120.5897761682674,
            24.114671310418277
          ],
          [
            120.59069767203687,
            24.114341494998516
          ],
          [
            120.59170738049134,
            24.11398473242818
          ],
          [
            120.59224356403898,
            24.113795480147036
          ],
          [
            120.59290607857822,
            24.113552153003514
          ]
        ]
      }
    }
  ]
}