{
  "type": "FeatureCollection",
  "features": [
    {
      "type": "Feature",
      "properties": {
        "track_id": "JJ-0",
        "line_id": "JJ",
        "direction": 0,
        "name": "集集線 (二水→車埕)",
        "origin": "二水",
        "destination": "車埕"
      },
      "geometry": {
        "type": "LineString",
        "coordinates": [
          [
            120.62169079720957,
            23.811299234976026
          ],
          [
            120.6213598967771,
            23.811491284080365
          ],
          [
            120.62119391169067,
            23.811600708876792
          ],
          [
            120.62105637263362,
            23.811680000049652
          ],
          [
            120.6208322008203,
            23.81178241713728
          ],
          [
            120.620457132639,
            23.81193974859535
          ],
          [
            120.61608232148727,
            23.814840810944293
          ],
          [
            120.61691097041351,
            23.814403213708477
          ],
          [
            120.6173327123883,
            23.814121058932447
          ],
          [
            120.61977303294206,
            23.812413946004636
          ],
          [
            120.620457132639,
            23.81193974859535
          ],
          [
            120.620457132639,
            23.81193974859535
          ],
          [
            120.62110577987045,
            23.811492858802094
          ],
          [
            120.62154599018393,
            23.811185869872542
          ],
          [
            120.621965175598,
            23.810893940177902
          ],
          [
            120.62233955265002,
            23.810635936946397
          ],
          [
            120.62258320519706,
            23.810467170139205
          ],
          [
            120.62279402301931,
            23.81032021869019
          ],
          [
            120.62297990534196,
            23.810192553872042
          ],
          [
            120.62313233146216,
            23.81009269702689
          ],
          [
            120.62331704283916,
            23.80997708715108
          ],
          [
            120.62349872961961,
            23.80987083433664
          ],
          [
            120.62354032312243,
            23.809846509692456
          ],
          [
            120.62374281965526,
            23.80972633847062
          ],
          [
            120.62389837702338,
            23.809632055279913
          ],
          [
            120.6241538234089,
            23.809465345457582
          ],
          [
            120.6245919977787,
            23.80915980455512
          ],
          [
            120.6252128568298,
            23.80873095558103
          ],
          [
            120.62601995310445,
            23.80817248592036
          ],
          [
            120.62641120543017,
            23.807899427589167
          ],
          [
            120.62685291866462,
            23.80759539933053
          ],
          [
            120.62725355711027,
            23.80731669538961
          ],
          [
            120.62769816377651,
            23.807009142842112
          ],
          [
            120.62805956072764,
            23.80675498493318
          ],
          [
            120.6282503075858,
            23.80662556634896
          ],
          [
            120.628389300788,
            23.80653056860409
          ],
          [
            120.62853036598202,
            23.806438519394494
          ],
          [
            120.62868961522088,
            23.80634102197036
          ],
          [
            120.62887721257475,
            23.80623679142249
          ],
          [
            120.62946088988966,
            23.805929337000215
          ],
          [
            120.62991437408958,
            23.805689711444494
          ],
          [
            120.63038695442935,
            23.805441841037254
          ],
          [
            120.63050003604918,
            23.80538252957413
          ],
          [
            120.63117343203959,
            23.80503052057926
          ],
          [
            120.6313924808533,
            23.80491494136212
          ],
          [
            120.63150273488523,
            23.80485676735867
          ],
          [
            120.63166041654979,
            23.804773567882606
          ],
          [
            120.63201205050234,
            23.8045880307627
          ],
          [
            120.6324512570482,
            23.804359889949033
          ],
          [
            120.6325231069297,
            23.804319662303588
          ],
          [
            120.63269641361315,
            23.804222630276485
          ],
          [
            120.63284541332733,
            23.804134909407292
          ],
          [
            120.6330555192403,
            23.80399784023959
          ],
          [
            120.63305798213102,
            23.803996233395875
          ],
          [
            120.63310210374435,
            23.80396744966195
          ],
          [
            120.63380636262004,
            23.80344293878194
          ],
          [
            120.63442749257194,
            23.802983442746296
          ],
          [
            120.63499977777862,
            23.80255000655983
          ],
          [
            120.63558814865081,
            23.802111352709165
          ],
          [
            120.6361348348014,
            23.80170370372203
          ],
          [
            120.636502602107,
            23.801429831474422
          ],
          [
            120.63708087297181,
            23.800995952672324
          ],
          [
            120.63756033810385,
            23.80063964481161
          ],
          [
            120.63802205392194,
            23.800292821008366
          ],
          [
            120.63852007066383,
            23.79992010511572
          ],
          [
            120.63899345951202,
            23.799566537011568
          ],
          [
            120.63921786409698,
            23.799399125832373
          ],
          [
            120.6392448165645,
            23.799379018320383
          ],
          [
            120.63943122463888,
            23.799238226912
          ],
          [
            120.63964227250104,
            23.799082341893588
          ],
          [
            120.63974201350639,
            23.799012452899856
          ],
          [
            120.63987354147339,
            23.798929337289252
          ],
          [
            120.63997157985828,
            23.79887217332846
          ],
          [
            120.64005712493514,
            23.798826997781834
          ],
          [
            120.64014290620558,
            23.798784407939017
          ],
          [
            120.6402630006628,
            23.798733126599693
          ],
          [
            120.64035123771801,
            23.79869709972788
          ],
          [
            120.64047280907386,
            23.798655042788663
          ],
          [
            120.64058137010976,
            23.798626014193335
          ],
          [
            120.64069548346856,
            23.798594522507248
          ],
          [
            120.64083143609822,
            23.798560737461067
          ],
          [
            120.6409416428617,
            23.79853557715005
          ],
          [
            120.64107591089191,
            23.7985169713984
          ],
          [
            120.64121361806953,
            23.79850352767545
          ],
          [
            120.64134457907417,
            23.79849450714774
          ],
          [
            120.64143255155041,
            23.798490355665393
          ],
          [
            120.64153566550651,
            23.798491824173173
          ],
          [
            120.64169099489554,
            23.798497975665722
          ],
          [
            120.64210898334662,
            23.798522218795007
          ],
          [
            120.64251353246746,
            23.798548593174825
          ],
          [
            120.64280741676646,
            23.798565411593696
          ],
          [
            120.64290700911035,
            23.798571775061774
          ],
          [
            120.64317578673057,
            23.79858894733563
          ],
          [
            120.64346313218088,
            23.798604803074788
          ],
          [
            120.64383970745318,
            23.798627615756896
          ],
          [
            120.64414295085763,
            23.798648180695082
          ],
          [
            120.6444567480664,
            23.798666479424146
          ],
          [
            120.64480155688261,
            23.798687698674758
          ],
          [
            120.64509453302179,
            23.798705633044044
          ],
          [
            120.64542915586595,
            23.798725690627816
          ],
          [
            120.64576013289559,
            23.798745826705524
          ],
          [
            120.64607986146537,
            23.798765364695846
          ],
          [
            120.64636842664848,
            23.798781910406817
          ],
          [
            120.64667682742963,
            23.7987997308422
          ],
          [
            120.64699124017085,
            23.798820049388258
          ],
          [
            120.64727912300205,
            23.798836805841095
          ],
          [
            120.64759733194624,
            23.79885634353838
          ],
          [
            120.64790034341749,
            23.798875295092415
          ],
          [
            120.648078254757,
            23.79888536181603
          ],
          [
            120.6482356501967,
            23.798894995097154
          ],
          [
            120.64834813626429,
            23.79890384233394
          ],
          [
            120.64845341213757,
            23.798914597291713
          ],
          [
            120.6485513239764,
            23.79892753955553
          ],
          [
            120.6486579953079,
            23.798945980020132
          ],
          [
            120.64881752286915,
            23.798977695177438
          ],
          [
            120.64895128198806,
            23.799006195670486
          ],
          [
            120.6490983761656,
            23.79904514574252
          ],
          [
            120.64917186972482,
            23.79906958377863
          ],
          [
            120.64921492441509,
            23.799083898920415
          ],
          [
            120.64934502183138,
            23.79912939547912
          ],
          [
            120.64945338153372,
            23.799172645622413
          ],
          [
            120.64953298696402,
            23.7992073767814
          ],
          [
            120.6496641237793,
            23.79926608136839
          ],
          [
            120.64978683188107,
            23.799326976282675
          ],
          [
            120.64988779534607,
            23.79938380625741
          ],
          [
            120.65008149827429,
            23.79949252707766
          ],
          [
            120.65041179636171,
            23.79967720258147
          ],
          [
            120.65078733248029,
            23.799889991701665
          ],
          [
            120.65097852779007,
            23.79999716435811
          ],
          [
            120.65108555355803,
            23.800057156825282
          ],
          [
            120.651095324066,
            23.800062633759424
          ],
          [
            120.65115382287073,
            23.80009462099562
          ],
          [
            120.651236254523,
            23.800139694870435
          ],
          [
            120.65137684291874,
            23.800205991679164
          ],
          [
            120.65149420551916,
            23.800259069700644
          ],
          [
            120.65160827000258,
            23.800303630598194
          ],
          [
            120.65172609648971,
            23.80033811553484
          ],
          [
            120.65182930566846,
            23.800365230769266
          ],
          [
            120.65190208510082,
            23.80038229495765
          ],
          [
            120.65202655104005,
            23.800404108819208
          ],
          [
            120.65214111136653,
            23.8004184706131
          ],
          [
            120.65227510957065,
            23.800429143249293
          ],
          [
            120.65238985105815,
            23.800431131869743
          ],
          [
            120.65252122256013,
            23.80042985930608
          ],
          [
            120.65264322179104,
            23.800422040671442
          ],
          [
            120.65283006469853,
            23.800401600754487
          ],
          [
            120.65310345428692,
            23.800361417626988
          ],
          [
            120.6534933226854,
            23.800300078980783
          ],
          [
            120.65382806385352,
            23.8002483307356
          ],
          [
            120.65416698263556,
            23.8001964999245
          ],
          [
            120.65436148677612,
            23.800172611524346
          ],
          [
            120.65451614111181,
            23.80016008783669
          ],
          [
            120.6546555449635,
            23.800153547255796
          ],
          [
            120.6548009704853,
            23.80015181388877
          ],
          [
            120.65492551553042,
            23.800154192771057
          ],
          [
            120.65507789420725,
            23.800162784805806
          ],
          [
            120.65516441290642,
            23.800171340587056
          ],
          [
            120.65523604727795,
            23.80017842463285
          ],
          [
            120.65531368111151,
            23.800186102657054
          ],
          [
            120.65547112916187,
            23.800209359931202
          ],
          [
            120.65556921328053,
            23.800226840983004
          ],
          [
            120.65568677266187,
            23.80025097788176
          ],
          [
            120.65578525612828,
            23.800273349271446
          ],
          [
            120.65611365288325,
            23.800353935668998
          ],
          [
            120.65653295376309,
            23.800461737903873
          ],
          [
            120.65691566609287,
            23.800558736689737
          ],
          [
            120.65733655947848,
            23.800665274326757
          ],
          [
            120.65777731124106,
            23.800779024449444
          ],
          [
            120.6580555020337,
            23.800850183039692
          ],
          [
            120.65805788515792,
            23.800850792408017
          ],
          [
            120.65822385711674,
            23.800896025107026
          ],
          [
            120.65833485407381,
            23.80092697643052
          ],
          [
            120.65845118210676,
            23.80096384219198
          ],
          [
            120.65855263301755,
            23.8010002035951
          ],
          [
            120.65865729429257,
            23.801043603463587
          ],
          [
            120.6587664449651,
            23.801090549221545
          ],
          [
            120.658911669031,
            23.801165989318896
          ],
          [
            120.65901321278142,
            23.801231183370767
          ],
          [
            120.6591278843628,
            23.80131783294058
          ],
          [
            120.65922478903225,
            23.8014027311558
          ],
          [
            120.65931623291412,
            23.80148897532058
          ],
          [
            120.65941670178655,
            23.80159585326121
          ],
          [
            120.6595094965399,
            23.801700453164404
          ],
          [
            120.65959240773371,
            23.801800271650674
          ],
          [
            120.65968990140527,
            23.801925660963626
          ],
          [
            120.65981721493786,
            23.802094158749092
          ],
          [
            120.65995678034409,
            23.802271688753027
          ],
          [
            120.66008221311218,
            23.802421761580938
          ],
          [
            120.66019608561686,
            23.80254199547966
          ],
          [
            120.66030146279819,
            23.802640615155124
          ],
          [
            120.6604238072737,
            23.802751672592567
          ],
          [
            120.66055385556639,
            23.80285111301405
          ],
          [
            120.6606821543782,
            23.80294937200582
          ],
          [
            120.66088428962004,
            23.80308771892555
          ],
          [
            120.66109047745577,
            23.803212437827877
          ],
          [
            120.66138526357904,
            23.803364626044896
          ],
          [
            120.66165017663319,
            23.8035040732011
          ],
          [
            120.66177770652189,
            23.803575803948146
          ],
          [
            120.6618781080089,
            23.803638836424653
          ],
          [
            120.66197169498953,
            23.803706360630645
          ],
          [
            120.6620748786559,
            23.80378390438854
          ],
          [
            120.66220557819557,
            23.803895767012705
          ],
          [
            120.66236372421032,
            23.804044184938586
          ],
          [
            120.66261641496607,
            23.804273876335394
          ],
          [
            120.66293908901037,
            23.804571944138154
          ],
          [
            120.66329743211081,
            23.804889920146472
          ],
          [
            120.66358029439162,
            23.805152734452637
          ],
          [
            120.6637858695885,
            23.80534196113729
          ],
          [
            120.66446615163083,
            23.805961563128903
          ],
          [
            120.66496556074544,
            23.806423823304247
          ],
          [
            120.66546525848554,
            23.806880147271002
          ],
          [
            120.66568163475675,
            23.807074707933975
          ],
          [
            120.66592485277683,
            23.807282926055002
          ],
          [
            120.66619184214781,
            23.80749433756828
          ],
          [
            120.66650896794674,
            23.80773963802452
          ],
          [
            120.66709658379386,
            23.80819835994
          ],
          [
            120.66754742845868,
            23.808549513000674
          ],
          [
            120.66795608571245,
            23.808864096670046
          ],
          [
            120.66840686164426,
            23.809214760381263
          ],
          [
            120.66896079021846,
            23.809649922881817
          ],
          [
            120.66943095368994,
            23.810008824185232
          ],
          [
            120.67015979769222,
            23.810578592651645
          ],
          [
            120.67104451404663,
            23.811258261063216
          ],
          [
            120.67154276927205,
            23.81165070521102
          ],
          [
            120.6717227243964,
            23.81179015830601
          ],
          [
            120.67208490344177,
            23.81207082316253
          ],
          [
            120.67242473356954,
            23.812336558767573
          ],
          [
            120.67288004230711,
            23.812690359617825
          ],
          [
            120.67313339916039,
            23.812887982539117
          ],
          [
            120.67328335091803,
            23.81300494497995
          ],
          [
            120.67330450267434,
            23.813021279357987
          ],
          [
            120.67371109488016,
            23.81333526195948
          ],
          [
            120.67408977604454,
            23.813629660506383
          ],
          [
            120.67450591359938,
            23.813948464989924
          ],
          [
            120.6749459174606,
            23.814285450288956
          ],
          [
            120.67546799196751,
            23.81469636161929
          ],
          [
            120.67548694472794,
            23.814711143382056
          ],
          [
            120.67550721110274,
            23.81472694826205
          ],
          [
            120.67554459943676,
            23.8147561061572
          ],
          [
            120.67568275558651,
            23.814863850131125
          ],
          [
            120.67571910858864,
            23.81489220035806
          ],
          [
            120.67572123231015,
            23.814893855451956
          ],
          [
            120.67577958574734,
            23.814939310824258
          ],
          [
            120.67581130398973,
            23.81496382359772
          ],
          [
            120.67615536705378,
            23.81523097577038
          ],
          [
            120.67657625884273,
            23.815561820356738
          ],
          [
            120.67705693302894,
            23.815931836110384
          ],
          [
            120.67747821741598,
            23.8162581633155
          ],
          [
            120.67818021912373,
            23.816804827523825
          ],
          [
            120.67835041613931,
            23.816937361089902
          ],
          [
            120.67885021081918,
            23.81732900838176
          ],
          [
            120.67918670625913,
            23.817596166051054
          ],
          [
            120.67954906994139,
            23.81790548221657
          ],
          [
            120.67996341374315,
            23.818263539356735
          ],
          [
            120.6808011453787,
            23.818984662448248
          ],
          [
            120.68160525235874,
            23.8196726087168
          ],
          [
            120.68231089810754,
            23.82029776317226
          ],
          [
            120.68305550670141,
            23.820931157338283
          ],
          [
            120.6830578476948,
            23.820933148682748
          ],
          [
            120.68315609247357,
            23.82101616191092
          ],
          [
            120.68386179520931,
            23.821636008972735
          ],
          [
            120.68447391591522,
            23.8221624749037
          ],
          [
            120.68497149611471,
            23.82259163522998
          ],
          [
            120.6850077677131,
            23.822622500587194
          ],
          [
            120.68540882321064,
            23.82296378396418
          ],
          [
            120.68572524356242,
            23.823247735858583
          ],
          [
            120.6858219154624,
            23.823333182204024
          ],
          [
            120.6858222778901,
            23.823333489952084
          ],
          [
            120.68592647364362,
            23.823420874887216
          ],
          [
            120.68647522976431,
            23.823907798228042
          ],
          [
            120.68689894849888,
            23.82429348670273
          ],
          [
            120.68728095504189,
            23.824637778574115
          ],
          [
            120.68770054914518,
            23.82500173104298
          ],
          [
            120.68819259023378,
            23.82542474764659
          ],
          [
            120.68861062870495,
            23.825796938607354
          ],
          [
            120.68907784586568,
            23.826210222423548
          ],
          [
            120.68949163904145,
            23.826586610274923
          ],
          [
            120.68989940234427,
            23.82693638341717
          ],
          [
            120.69024708697943,
            23.827244453058626
          ],
          [
            120.69056804337211,
            23.82753671146244
          ],
          [
            120.6908946023601,
            23.82782220816369
          ],
          [
            120.69121429595144,
            23.82811008329203
          ],
          [
            120.69146350906107,
            23.8283377241266
          ],
          [
            120.69159293412505,
            23.828447964730294
          ],
          [
            120.6916441576049,
            23.828491590304306
          ],
          [
            120.69196120101981,
            23.82876835206568
          ],
          [
            120.69222383547957,
            23.82899990125709
          ],
          [
            120.69242643868527,
            23.829172592106087
          ],
          [
            120.6927821871893,
            23.829483570659235
          ],
          [
            120.69318747789923,
            23.829848861261794
          ],
          [
            120.6936970217341,
            23.830303526170916
          ],
          [
            120.69419675191392,
            23.83075035924922
          ],
          [
            120.69462036573587,
            23.831120423024533
          ],
          [
            120.6948183786993,
            23.83128593206889
          ],
          [
            120.69514564477613,
            23.831583475816245
          ],
          [
            120.69548073733469,
            23.8318719143448
          ],
          [
            120.69549437260486,
            23.83188417650933
          ],
          [
            120.69565695776463,
            23.83203037222286
          ],
          [
            120.69588001879247,
            23.83222756938838
          ],
          [
            120.6959106405365,
            23.83225468274778
          ],
          [
            120.69599071163778,
            23.83232558829814
          ],
          [
            120.69606682530001,
            23.832392991514478
          ],
          [
            120.6961681242147,
            23.832482684460775
          ],
          [
            120.69627305490357,
            23.832572510912275
          ],
          [
            120.6963879039652,
            23.832664839992944
          ],
          [
            120.6964890786124,
            23.83274062676323
          ],
          [
            120.6966114137375,
            23.832826198151146
          ],
          [
            120.69676009383869,
            23.832920896108874
          ],
          [
            120.69687406112266,
            23.832987443332595
          ],
          [
            120.69697514746352,
            23.833042316852392
          ],
          [
            120.6970720361146,
            23.833091448204488
          ],
          [
            120.69717627455879,
            23.833141677497924
          ],
          [
            120.69731428810094,
            23.833205562729557
          ],
          [
            120.69743138963871,
            23.833258390570887
          ],
          [
            120.69773059582496,
            23.833393519959827
          ],
          [
            120.69822590209614,
            23.833616720123455
          ],
          [
            120.69861115767999,
            23.83379039243018
          ],
          [
            120.69876032363501,
            23.833854343327317
          ],
          [
            120.69899052363415,
            23.833938958771895
          ],
          [
            120.69916940049517,
            23.833991454439534
          ],
          [
            120.69926243495027,
            23.834014165059127
          ],
          [
            120.6995298625567,
            23.834062950288104
          ],
          [
            120.69974394111605,
            23.834085399894956
          ],
          [
            120.69986641311708,
            23.834091643160527
          ],
          [
            120.69997961863805,
            23.83409362433866
          ],
          [
            120.70015140038915,
            23.834094283673746
          ],
          [
            120.70040622003087,
            23.834093740754707
          ],
          [
            120.7006902040588,
            23.834092983158577
          ],
          [
            120.7009836201614,
            23.834092785118322
          ],
          [
            120.70120684090178,
            23.83409250464183
          ],
          [
            120.70132006127568,
            23.834092299679444
          ],
          [
            120.70141214730648,
            23.834092134962344
          ]
        ]
      }
    }
  ]
}