{"type": "FeatureCollection", "features": [{"type": "Feature", "properties": {"track_id": "NH-0", "line_id": "NH", "direction": 0, "name": "\u5357\u8ff4\u7dda (\u81fa\u6771\u2192\u678b\u5bee)", "origin": "\u81fa\u6771", "destination": "\u678b\u5bee"}, "geometry": {"type": "MultiLineString", "coordinates": [[[121.58255953418839, 23.967679182510103], [121.58450789926867, 23.96905887728133], [121.58517895928975, 23.969514869415548], [121.58556092555924, 23.969766735658908], [121.58644750393216, 23.97041055468597], [121.58736720217352, 23.97106823851431], [121.58817706265526, 23.971614993313956], [121.58970585698859, 23.97262182020122], [121.59022660105074, 23.9729660754905], [121.59079561706659, 23.973382006075752], [121.59114319585744, 23.973673546765593], [121.59138360761781, 23.973886153381095], [121.59152964635587, 23.974041272306557], [121.5916418831769, 23.97416220959669], [121.59174775090045, 23.974290906390117], [121.59184634493813, 23.974435881144878], [121.59195873868708, 23.974601224543612], [121.59214311583919, 23.975008815003186], [121.59224483944467, 23.975222956104595], [121.59235196074499, 23.975454750264596], [121.5927567299283, 23.97634423558033], [121.59299256409346, 23.976829342773527], [121.59321056104096, 23.97726012315617], [121.59358747840406, 23.97800409059695], [121.59396982139145, 23.978774315108303], [121.59470550169755, 23.98030354794534], [121.59616010052927, 23.983211621302488], [121.59934975155718, 23.98964266709986], [121.60023003127745, 23.991408626006766], [121.60115150272624, 23.99331479784791], [121.60142552372346, 23.993843478914606], [121.60166689512954, 23.99434675228662], [121.60231565146077, 23.995711145718474], [121.60348138771968, 23.998046755086953], [121.60511120539714, 24.001427488490734], [121.60549626112143, 24.002186418109616], [121.60585313923625, 24.002945069980665], [121.60597494971276, 24.00331806637592], [121.60608427443114, 24.00376518340571], [121.60614712613437, 24.004034341253252], [121.60619851336097, 24.004362410122106], [121.60622221387723, 24.004642262175928], [121.60622464744458, 24.00489728518668], [121.60605655228836, 24.006697486092566], [121.60577680291664, 24.008597505270842], [121.6050592999568, 24.012429075574083], [121.6048715906928, 24.013449798403183], [121.60465018153621, 24.01484463726061], [121.60440312314199, 24.016153532023925], [121.60419436339748, 24.017228738324896], [121.60377518099453, 24.0196164490538], [121.60337924398377, 24.021878503415728], [121.60325018288206, 24.0225519750079], [121.60310305105583, 24.02322856286583], [121.60290717497998, 24.023909611960747], [121.60268593762991, 24.024600294269142], [121.60223890098976, 24.02593989525412], [121.60183003204168, 24.02740705319277], [121.60174821703812, 24.027809400128795], [121.60161464193109, 24.028662762250732], [121.60150215288706, 24.02998420922635], [121.60136352547073, 24.032694924627478], [121.60111287451826, 24.036669922580366], [121.60100964601178, 24.03852204694438], [121.60098755015258, 24.038933234090475], [121.60098670783489, 24.03930291355571], [121.60102618622207, 24.040073018575544], [121.60106055267292, 24.04043319232955], [121.6011144044797, 24.04075684730323], [121.60120757187644, 24.04134033228499], [121.6014071789699, 24.042507432755023], [121.60181814751087, 24.044837868385102], [121.60240646277302, 24.048383878412743], [121.60280595642794, 24.05073074708794], [121.60306681373869, 24.052073355143474], [121.60424261260695, 24.05880422461508], [121.60472504133705, 24.06158120805443], [121.60520747006716, 24.06435819149378], [121.6055287583452, 24.06649992494006], [121.60610224819425, 24.069713057148522], [121.60674159000463, 24.073334932569423], [121.60707229237272, 24.075223842102446], [121.6073981358229, 24.077117092722773], [121.6080532609171, 24.080782759925768], [121.60825890268586, 24.081991988051165], [121.60848341877868, 24.08319112848538], [121.60855986933254, 24.083636077913706], [121.60867406982041, 24.084072805430317], [121.60897380682422, 24.085282119215208], [121.60910723768905, 24.085749515912354], [121.60940589944397, 24.086628659462946], [121.60984311739311, 24.0879727109442], [121.61069229284479, 24.09067056008115], [121.61196068866036, 24.094451691264076], [121.61322908447593, 24.098232822447002], [121.6136432191393, 24.0991903557687], [121.61420466390463, 24.100480685370464], [121.61518415951463, 24.102397242384654], [121.61623195570567, 24.104626809484582], [121.61708912822854, 24.10642673382896], [121.61753177755472, 24.107196774904494], [121.61794089994554, 24.107804726896937], [121.61855062843674, 24.108566827557375], [121.61938442074322, 24.109363486416207], [121.62081349426893, 24.11047059472238], [121.62222809333346, 24.111525469639336], [121.62372587679737, 24.112628661558304], [121.62494199067021, 24.11350294099541], [121.62637850346042, 24.11456401774549], [121.62876250769314, 24.116320727693427], [121.63000483786863, 24.11719890748795], [121.63115600966267, 24.118037150649855], [121.63307378984713, 24.119331090413656], [121.6349648550744, 24.12063949610191], [121.63579197474075, 24.121185624254046], [121.63669388153174, 24.12189101853584], [121.63725924626195, 24.122380266382557], [121.6375753205769, 24.122801257893027], [121.63808084257033, 24.123480746008106], [121.63860170192963, 24.124314211011395], [121.64078848393049, 24.12844111818367]], [[120.71703147941085, 22.280927917687045], [120.71814744519033, 22.281858200497084], [120.71850033774821, 22.282172486386298], [120.71910402704864, 22.282780790576954], [120.71966311823121, 22.283112150505396], [120.72079494095958, 22.2835570427794], [120.72290340781883, 22.284070045128917], [120.72343717729508, 22.28411053295422], [120.7239321744072, 22.28407815857027], [120.72457012418883, 22.283911054477457], [120.72474076218371, 22.28383746194223], [120.72498026775006, 22.283744290070164], [120.72528906537795, 22.283587992238175], [120.72549929460182, 22.283461685974288], [120.72574070365431, 22.283298036402936], [120.72602758467403, 22.28308017955233], [120.72630220840792, 22.282861229483878], [120.72685862523176, 22.282417610409958], [120.72742427960856, 22.281929598942195], [120.72792360938112, 22.28152331029825], [120.7279630134545, 22.28149021907576], [120.72855206224217, 22.28099553778724], [120.72885068879901, 22.280798377521606], [120.73035123127349, 22.279720195310027], [120.7314604958846, 22.278832634488236], [120.73243913610433, 22.278186527663205], [120.73305548390309, 22.277789921214236], [120.73335147236152, 22.27759945763493], [120.7353714200505, 22.276535650754266], [120.73615322662913, 22.276105050873237], [120.73728710459886, 22.27541048400447], [120.73817311910732, 22.275028810089015], [120.73877238249646, 22.274851232561353], [120.73941818911297, 22.274675995297237], [120.73980945143285, 22.274696527093866], [120.73998349865717, 22.274714848038546], [120.74010801868313, 22.2747279560521], [120.74021136723928, 22.2747388345513], [120.74057714718766, 22.274795433427396], [120.7406915127137, 22.274818858601], [120.74082416788664, 22.274846030242635], [120.74087694633938, 22.274856840253747], [120.74148022322578, 22.274993361581952], [120.74159110621964, 22.275018454114953], [120.741629415495, 22.27502712387878], [120.74213540796816, 22.275137309314434], [120.7422612621513, 22.275175167686907], [120.7430636210565, 22.275346048584506], [120.74329444391192, 22.27541799987954], [120.75053876707791, 22.277060386178096], [120.75804640967992, 22.278774794007994], [120.75804644072046, 22.278774801279422], [120.75805103283882, 22.278775843130497], [120.75805376056215, 22.278776461336093], [120.75805550370629, 22.278776855899988]], [[120.80781310472275, 22.290439209817308], [120.8079665848768, 22.290476167732805], [120.80805420731824, 22.290497685057648], [120.80805554908585, 22.290497993715302], [120.8081372610536, 22.29051682074755], [120.81357136234534, 22.291783827670237], [120.81357140794323, 22.291783839463555], [120.81863404459696, 22.29295040329457], [120.81901968652252, 22.293031998963947], [120.81970641603247, 22.29319595435575], [120.82040446571324, 22.293358039015708], [120.8204586342842, 22.293371357190257], [120.82051374025724, 22.29338173121102], [120.82107977280208, 22.293505843900864], [120.82181388065993, 22.293689011975815], [120.82265066273611, 22.293882514430063], [120.82282917922328, 22.293922575351626], [120.82309872094437, 22.29397921780749], [120.82441328035878, 22.294283867142536], [120.82505909142613, 22.294442620341865], [120.82573629940757, 22.294593475033412], [120.82613323952393, 22.294688896802633], [120.82635611494021, 22.29473822072419], [120.82651030803584, 22.29477311265343], [120.82678080212445, 22.294838378719266], [120.8269265859239, 22.294870070448624], [120.82862691255157, 22.29523593826042], [120.82968074762988, 22.29544996530285], [120.83103472398135, 22.295842026494018], [120.83226770951421, 22.296297786055618], [120.83300660520759, 22.29664768515172], [120.83302052472415, 22.29665412538794], [120.83302060037745, 22.29665416610754], [120.83302255105642, 22.296655063136445], [120.8330275193411, 22.2966574137293], [120.83305554791016, 22.296670061379203], [120.83311037605606, 22.29669480086645], [120.8331628645567, 22.296721744325684], [120.83343395046666, 22.29685441737899], [120.83356077527837, 22.296919121833948], [120.83368872535098, 22.29698439994024], [120.83383842566373, 22.29706412984714], [120.83398708831716, 22.297143313051837], [120.83411477639996, 22.297213818890466], [120.83415661428326, 22.297236917268673], [120.83426956640743, 22.297301208702926], [120.8343833740848, 22.297365980504427], [120.83448117945166, 22.297423467353042], [120.83457988008438, 22.2974814833981], [120.8346963170571, 22.297552191356488], [120.83481366386626, 22.297623451079016], [120.83491319133599, 22.297685889585825], [120.83501186544082, 22.297747797014857], [120.83510820896242, 22.297810043406436], [120.83520537786943, 22.29787282885644], [120.83541216933544, 22.298010536099884], [120.83553475307122, 22.298094984796855], [120.83563574999465, 22.298167899083886], [120.8357866221927, 22.29827336906061], [120.8358716727375, 22.298333470329638], [120.83597680777883, 22.298407764086885], [120.83597867057648, 22.2984091541114], [120.836043962594, 22.298457861948812], [120.83613240924606, 22.298523840600097], [120.83625333566555, 22.298617048538162], [120.83637518926156, 22.29871096809981], [120.83661157565851, 22.29890000708829], [120.83689511663529, 22.299136124671556], [120.83702869093946, 22.29925228565533], [120.83720073109302, 22.299403061318735], [120.83727853988599, 22.299473044074965], [120.8373170472825, 22.29950767874832], [120.83740693123521, 22.299590760191297], [120.8374975492163, 22.299674523294325], [120.83760731528199, 22.29977938773985], [120.8377179521068, 22.299885087492008], [120.83783682850168, 22.300003107142633], [120.83795475600161, 22.30012018828822], [120.83805839909043, 22.30022709013964], [120.83816299235797, 22.30033497098326], [120.83843246107122, 22.300624904078266], [120.83858052264742, 22.300792678765912], [120.83872976907604, 22.300961786640407], [120.83886009064757, 22.301117491805055], [120.83898938124588, 22.301271956718857], [120.83909386149885, 22.301402700081294], [120.83921957863117, 22.301560864179155], [120.8392627556885, 22.301616554532792], [120.83931425670652, 22.30168384233648], [120.83937451104721, 22.301763274412835], [120.83943175631576, 22.301839634585647], [120.83948555836405, 22.301912330865573], [120.83953487384748, 22.30197963811131], [120.83957970955514, 22.302041550011694], [120.83960204020742, 22.302072387558326]], [[120.85479952689715, 22.323268159047892], [120.85481523028966, 22.323289674351642], [120.85484736040364, 22.323333519338284], [120.85797661884948, 22.32760361752647], [120.85805445541156, 22.327712102231686], [120.85805552173262, 22.327713588842947], [120.86034869035218, 22.330908786247697], [120.86065593593972, 22.331341674411902], [120.8609468756772, 22.33173894051362], [120.86104352275726, 22.331857211032947], [120.8612805053095, 22.332197941113606], [120.86138474382359, 22.332339492924547], [120.86160750929729, 22.332624750806342], [120.86180461411885, 22.33290487649239], [120.862036234073, 22.333185080086636], [120.86227669762906, 22.33344872624154], [120.86255912142971, 22.33378689918033], [120.86273875305021, 22.333962367579502], [120.86290829059838, 22.3341201607836], [120.86312865818144, 22.334307041947365], [120.86443700504559, 22.335302902754957], [120.86493774060897, 22.335682573846306], [120.86524618124449, 22.3358965304843], [120.86740251103994, 22.337492417275485], [120.8679565077851, 22.337902306636398], [120.86818976918728, 22.33808062775321], [120.86861445712393, 22.338401970800597], [120.86895654431248, 22.338661934947254], [120.87218634983736, 22.341031786237853], [120.87457786569558, 22.342829683437497], [120.87497140306249, 22.343124399717347], [120.87556808105826, 22.34362226501928], [120.87592322337028, 22.34388604291811], [120.87594664265711, 22.3439034364801], [120.8759721477603, 22.34392257561065], [120.87657927183933, 22.34442993632469], [120.8768567452664, 22.344687628090416], [120.87704459949444, 22.34487470032621], [120.87733592273739, 22.345196124144326], [120.8776947060863, 22.345627121983185], [120.87801950777802, 22.34607624124367], [120.87840119649586, 22.346572283042715], [120.87870007264999, 22.346971579269297], [120.87892557303765, 22.347272845042795], [120.87916807388409, 22.347584000881984], [120.87971597083526, 22.348333538239594], [120.87974531271715, 22.34837367866048], [120.88003220222296, 22.34872855760319], [120.8801318392009, 22.348863963227824], [120.8802161006406, 22.348978473983504], [120.88038594838154, 22.34920732835327], [120.88050936332446, 22.349375837133653], [120.88068898805983, 22.34961835214511], [120.88076014367002, 22.34971406843143], [120.88086250348981, 22.349851761461117], [120.88102828122177, 22.350088788323458], [120.88137897601017, 22.35044461031292], [120.88172049866515, 22.350809375008073], [120.882058270612, 22.351156720888284], [120.88239894700988, 22.35152057404986], [120.88266380115847, 22.35177215033969], [120.88305548471422, 22.35213864642848], [120.88312131898408, 22.3522002469188], [120.88346277583645, 22.352525130366434], [120.88386173471265, 22.35278048324046], [120.88417446361241, 22.35298132646749], [120.8843514366526, 22.353085451016216], [120.88476755865507, 22.353326970496486], [120.88527451748963, 22.353602803254308], [120.88565941660246, 22.353783500386886], [120.88613203672793, 22.353969986050032], [120.88748975202175, 22.354511592000286], [120.88896395034094, 22.355285418131135], [120.88907893444977, 22.35534877308203], [120.88925336980391, 22.35544488414696], [120.88929234590012, 22.355466359589748], [120.88953830364976, 22.355629637358078], [120.89097634841015, 22.356794123733632], [120.89191517343404, 22.357617696078385], [120.89450129458865, 22.35996072969202], [120.89472469357189, 22.36014788837027], [120.89479176221454, 22.360209348513212], [120.89507271934556, 22.360466812367516], [120.89595555525175, 22.361263476095175], [120.8978839799498, 22.36299580706515], [120.89794381169577, 22.363049135734077], [120.89813208612057, 22.363216951974522], [120.89829672084238, 22.36336369633303], [120.89951998542891, 22.364454016263522], [120.90025118117622, 22.36512553446319], [120.90118608319798, 22.365961145045528], [120.90165072680648, 22.366370654368566], [120.90190998918118, 22.366597517112364], [120.90210872006188, 22.366776855525938], [120.9023662351145, 22.3669967586532], [120.9079469570536, 22.37237338874331], [120.90805468717708, 22.372477361168517], [120.9080555101154, 22.37247815549927], [120.90894116092619, 22.373333380449406], [120.90894181792554, 22.373334015728958], [120.90898447640494, 22.37337512191712], [120.91029248404828, 22.374631335445173], [120.91041038820734, 22.37484382460163], [120.91057916032058, 22.375174066519993], [120.91076538468711, 22.375601583701325], [120.91096182517529, 22.376207505964704], [120.91136842058792, 22.3776196074756], [120.91150283192081, 22.37812207243696], [120.91157574995505, 22.37845248924428], [120.91160348133384, 22.37859151074799], [120.91169859942269, 22.379234237406628], [120.91172459624119, 22.379307742137], [120.9117506899668, 22.3795433204249], [120.91175346513269, 22.379659252971866], [120.9117776751592, 22.37999010817609], [120.91180906897137, 22.381248121890792], [120.91181055026125, 22.381301535460626], [120.91182297901591, 22.38191440942715], [120.91182731980656, 22.382025611228258], [120.91183789493887, 22.382218998789018], [120.91184224406008, 22.38231392686392], [120.91189119920837, 22.382856023305536], [120.91191196334078, 22.382988168878178], [120.91195392185823, 22.38306892001353]], [[120.91833913575812, 22.398333750636137], [120.91834785019307, 22.39835458236914], [120.91835795352291, 22.398378711267156], [120.91850179794017, 22.398754144532873], [120.918679180188, 22.399178142860038], [120.91885671964219, 22.399602549271595], [120.91903410694898, 22.400026547172825], [120.91921164757866, 22.40045095405922], [120.91938903605852, 22.40087495333878], [120.91956657883713, 22.40129935708788], [120.91974396946199, 22.401723356843064], [120.91992151438811, 22.402147760164258], [120.92009890716017, 22.402571756782432], [120.92027645423242, 22.402996162385072], [120.92045384915026, 22.40342015857565], [120.92063139837087, 22.403844562847137], [120.92080879349211, 22.404268558609097], [120.92098634680325, 22.404692962453463], [120.92116374504133, 22.40511695869132], [120.9213413005006, 22.405541362107556], [120.92151869991312, 22.405965358820303], [120.92169625557912, 22.40638976000117], [120.92187366005291, 22.40681375448124], [120.92205121786633, 22.407238157040165], [120.92222862351484, 22.40766215199503], [120.9224061844481, 22.408086554126147], [120.92258359224381, 22.40851054774994], [120.92276115435446, 22.408934949452277], [120.92293856526832, 22.40935894264858], [120.92311612952886, 22.409783342116267], [120.92329354161737, 22.410207336690362], [120.92347110899725, 22.410631737536367], [120.92364852323387, 22.411055729876104], [120.92382609179208, 22.41148012939004], [120.9240035091473, 22.411904121302126], [120.92418107985432, 22.412328521290675], [120.92435849838563, 22.412752512774137], [120.92453607124305, 22.413176910527834], [120.92461228177649, 22.41335903524098], [120.92471876386935, 22.41361810071423], [120.9249183181376, 22.414048832026214], [120.92503931187522, 22.41430697016382], [120.92505752040188, 22.414345817207625], [120.92506288196043, 22.414357254339468], [120.92527558010977, 22.414811028544012], [120.92556750918723, 22.415391160123068], [120.92575306016049, 22.41572762144001], [120.92598930197725, 22.41611123245348], [120.92600043977765, 22.416129318397502], [120.92600729921014, 22.416139140465976], [120.92602600904837, 22.416165938844706], [120.9262006323061, 22.416416015694058], [120.92646962421018, 22.41677578722468], [120.92667738353235, 22.417042379869375], [120.92940474164408, 22.420485644138758], [120.92957281814827, 22.420697764492008], [120.92999879343911, 22.42124933555728], [120.9300271476547, 22.421286157958942], [120.93041290033881, 22.421805248066413], [120.93055768889792, 22.422016693528725], [120.93090509658319, 22.422558704749044], [120.93109455332592, 22.42288391637739], [120.93127031750834, 22.423190178621738], [120.93129314797325, 22.423234993024383], [120.93133829071193, 22.423323603762206], [120.93134322074134, 22.423333282081153], [120.93134328285238, 22.423333403128073], [120.93134350315172, 22.423333834018674], [120.93135152706618, 22.423349588160324], [120.93142128610751, 22.42348652090835], [120.93158644787128, 22.42384609595823], [120.93167364777631, 22.424059451403593], [120.93173295405003, 22.424202295140653], [120.93177637598663, 22.424306880631267], [120.93191384121434, 22.424662873510194], [120.93220066304337, 22.425456977180247], [120.93233214693907, 22.425850057219844], [120.9324619997153, 22.426190600915472], [120.93253807862727, 22.426411726303204], [120.93257894497778, 22.42653049697609], [120.93258541741338, 22.426547111997003], [120.932679869929, 22.42678958702823], [120.93271016175264, 22.426867344471837], [120.93279562072338, 22.427088395055314], [120.93282185486989, 22.427156253299007], [120.93305437246545, 22.427757687919907], [120.93305540961654, 22.427760450145225], [120.93305550857754, 22.427760713902494], [120.93306621284275, 22.427789282781614], [120.93321821142118, 22.428194820249708], [120.9332925800845, 22.428379062184742], [120.93333759239927, 22.428553666327268], [120.93341091930783, 22.428755680617787], [120.93355845288706, 22.429174081076976], [120.93365512147872, 22.429437753921672], [120.9337280700957, 22.429589330365022], [120.93378530976578, 22.42975037244144], [120.93379411050596, 22.4297743480308], [120.93408144842533, 22.430557119156592], [120.93409051898797, 22.430581828185407], [120.9341083952517, 22.430630528138884], [120.93413016501754, 22.430689832512485], [120.93425019341068, 22.431005701377423], [120.93443828891968, 22.431533579496804], [120.93464910789308, 22.43216478096078], [120.93472331995302, 22.43237251540293], [120.93488110097759, 22.432786088645347], [120.93532920065498, 22.43401837456833], [120.93533883332917, 22.434044864728907], [120.93552749689184, 22.434563703028765], [120.9355456491739, 22.434610130618427], [120.93565338899577, 22.4348856900005], [120.93571426188856, 22.435039741560107], [120.9359826462436, 22.4356651793438], [120.9360648983729, 22.43587085983116], [120.93613752684308, 22.43605359136913], [120.93637057174955, 22.4365465414358], [120.93653353474937, 22.43691719875055], [120.93704970954465, 22.438187631981986], [120.9371517970048, 22.438473848675297], [120.937234435953, 22.438688838185264], [120.93737131221457, 22.43904492224828], [120.93738502481827, 22.439080595141046], [120.93739050947276, 22.439094865020156], [120.93748261535906, 22.439334481174683], [120.93761560378715, 22.439697232259594], [120.93767224446192, 22.439843926218362], [120.93770001753363, 22.439915855505447], [120.93770186810197, 22.43992064916504], [120.9380852723823, 22.440913614572953], [120.93830844956065, 22.441508029677504], [120.93837701816935, 22.441681531196547], [120.93845669581279, 22.44188314161725], [120.93846581329508, 22.44190621209718], [120.93846884307595, 22.441913877266686], [120.93874749370106, 22.442657331213002], [120.93885099339691, 22.44291326958059], [120.93886549530276, 22.442954184433496], [120.93887705607847, 22.44298680196225], [120.93905331635278, 22.443484128151596], [120.93914730266609, 22.443838286894863], [120.93920668723614, 22.44407451277402], [120.93930843396299, 22.4446726276211], [120.93935629118727, 22.44521807110673], [120.93935855782834, 22.44553549263305], [120.93935115829665, 22.445960206671472], [120.93930769578942, 22.446369260304518], [120.9392088470406, 22.44695041447944], [120.93901372080992, 22.447730478547715], [120.9388556088341, 22.448333631158825], [120.9386451728838, 22.449136375604947], [120.93846691480401, 22.449822560659868], [120.93835125174381, 22.450347824331676], [120.93825960140538, 22.450951334780846], [120.93822092772973, 22.451396154750878], [120.93820149967281, 22.45182309907647], [120.9382180921988, 22.45236853134221], [120.93826593485565, 22.452943034800537], [120.93836424942404, 22.453586854134617], [120.93853949528662, 22.45428882031158], [120.9387484493267, 22.454905856494005], [120.93901992038558, 22.455551976165943], [120.93921519533336, 22.455935947144496], [120.93945817854227, 22.456368217357944], [120.93960135639149, 22.45661017654314], [120.93970808481801, 22.45679930034351], [120.9397861751878, 22.456945566871745], [120.9398216906164, 22.45700926646628], [120.94009228618765, 22.457495613928412], [120.94014041759854, 22.457566672357096], [120.94017980724524, 22.457616984335363], [120.94023699566615, 22.457696796562495], [120.94029708984365, 22.457800532072223], [120.94045397620843, 22.45808938537681], [120.9404767180141, 22.458157254392873], [120.94060889866574, 22.458387037036363], [120.94065072108265, 22.458505100231143], [120.94112357236084, 22.45932702103982], [120.94131388147784, 22.459674078211947], [120.9414084887109, 22.459847950604313], [120.94174294373612, 22.460462622096905], [120.94237903350223, 22.461581159176497], [120.94289429352752, 22.46245465590584], [120.94297220575075, 22.46258673611466], [120.94305734452199, 22.462709433465594], [120.94307477202362, 22.46273974066589], [120.94344739478744, 22.46337616755246]], [[120.94856582832743, 22.472536209835067], [120.94881168954467, 22.472976132783653], [120.9488763088157, 22.47309771678188], [120.94895153109957, 22.473259084405274], [120.94899379987207, 22.473365246603922], [120.94904139114088, 22.473503072505434], [120.94908585880249, 22.47362084966073], [120.9492332262251, 22.474092375726084], [120.94927341759215, 22.47424719888708], [120.9496892484343, 22.475837743188002], [120.94998258210478, 22.47691846960867], [120.95017307600905, 22.47761375726603], [120.95059432020966, 22.47935336225464], [120.95064143294898, 22.47955736445591], [120.95066610408263, 22.47964276767488], [120.95070207518927, 22.47976728719466], [120.95075362911797, 22.479977571995335], [120.95079201002568, 22.4801391278706], [120.95093740703234, 22.480562549695055], [120.95104358086715, 22.480890793724964], [120.95109295317847, 22.481042524964852], [120.95120751707832, 22.481341356402325], [120.95144600583268, 22.481936661034315], [120.95162481640465, 22.482328567485737], [120.95165101012833, 22.4823898808419], [120.95191853797597, 22.48301608774368], [120.95200225400743, 22.483197711732842], [120.95248562369228, 22.48433481113284], [120.95255303502992, 22.484404319747266], [120.95264710328105, 22.484601786445957], [120.95287291072694, 22.485138899859486], [120.95297413488451, 22.485416280236993], [120.95306562830541, 22.485696564889828], [120.95314729190765, 22.4859794566751], [120.95321904215508, 22.486264662065455], [120.95328080231461, 22.486551880308724], [120.95338150935737, 22.487186153392866], [120.95342593388315, 22.48759044938916], [120.95353979514758, 22.488852066358735], [120.95360976134164, 22.489428950724644], [120.95367870481562, 22.489830330160128], [120.9537398074298, 22.490115089592315], [120.95381072696205, 22.49039787665749], [120.95389139553367, 22.49067840051533], [120.95400026570609, 22.491011720381117], [120.95411902730594, 22.491342120444546], [120.95518401487298, 22.49411242071998], [120.95673942800906, 22.498333381969193], [120.95683267887836, 22.49858643154131], [120.95706327016364, 22.499249324738457], [120.95721786489133, 22.49978297393664], [120.9573322504003, 22.50029688433882], [120.95737734346369, 22.500555936526037], [120.95742140106195, 22.500873782176665], [120.95745432552272, 22.50122831903058], [120.9574798061037, 22.501502699318362], [120.95754061184748, 22.50263343293979], [120.95758225699163, 22.50320013521098], [120.95765135059904, 22.503749244459804], [120.95777383155641, 22.504369290406224], [120.95785246416887, 22.50467595868801], [120.95796419700328, 22.505044014044504], [120.95817318997652, 22.505604225434944], [120.95819970701116, 22.505642349796577], [120.95830163014503, 22.50587784281081], [120.95843143121259, 22.506159286945586], [120.95842944754624, 22.506194485899382], [120.9585023576125, 22.506347933725074], [120.95853624737053, 22.506412426787236], [120.9586435192537, 22.50663587409924], [120.95869805709869, 22.50675331115328], [120.9589260058791, 22.50722410658775], [120.95917783875706, 22.507769595607108], [120.95926317964383, 22.50794910329219], [120.95958769950734, 22.50862021447282], [120.95974601398461, 22.508951622095573], [120.95980005946991, 22.509073851527674], [120.95995130574732, 22.509444899110495], [120.96009867947896, 22.50988658832101], [120.96015815684032, 22.5100883864284], [120.9602281684256, 22.510333478593367], [120.96033615853833, 22.510665960502884], [120.96073011278602, 22.511954525566942], [120.96086836368048, 22.512418845024353], [120.96126350622824, 22.513692354554735], [120.96137274434665, 22.51405745964665], [120.96199747086013, 22.516102054261534], [120.96211695207332, 22.516511605905908], [120.96253003671546, 22.517857734649287], [120.96275534850237, 22.518632389880484], [120.9633186632291, 22.52047696278445], [120.96382736680279, 22.522140569508164], [120.9640765983641, 22.522966021563246], [120.96414295044464, 22.523178087074278], [120.96423561972986, 22.523333685841475], [120.96459680833394, 22.52394014890204], [120.96487231988226, 22.524428759609947], [120.96544532510939, 22.525408236647575], [120.9656701629211, 22.525820182103075], [120.96590347242048, 22.52630278246137], [120.96610934005069, 22.52678960782973], [120.9662674614879, 22.52722029807973], [120.96661903456533, 22.52833065940766], [120.9666952549589, 22.528666772964293], [120.96674574718288, 22.528793871415516], [120.96741899079856, 22.53102888380199], [120.96765843719422, 22.531877452012488], [120.96807864802001, 22.533235922061966], [120.96812078148032, 22.533413578076942], [120.968157880118, 22.533514842140274], [120.96824987425678, 22.533837007278887]], [[120.97056678740482, 22.54243985398602], [120.97214847202216, 22.54833376692687], [120.97214857209276, 22.54833414083782], [120.97264888089197, 22.550181572560138], [120.97275603591693, 22.550579391786997], [120.97287686393003, 22.551027975142762], [120.97299784818073, 22.551477131893595], [120.97311867775429, 22.551925714116084], [120.97323966162254, 22.552374871539236], [120.97336049275681, 22.552823451725292], [120.97348148013197, 22.553272609821384], [120.97360231282659, 22.553721190680346], [120.97372329981967, 22.554170348545604], [120.97384413407505, 22.5546189282712], [120.97396512457544, 22.555068085906225], [120.97408596039159, 22.555516665401548], [120.97420695148247, 22.55596582280587], [120.97432778885928, 22.556414402974003], [120.97444878248575, 22.556863558341608], [120.97456961850632, 22.557312139182123], [120.97469061369581, 22.5577612943191], [120.97481145322217, 22.55820987492956], [120.97493244997513, 22.558659028029634], [120.97505329300787, 22.55910760570067], [120.97517429132378, 22.559556760376317], [120.97529513494564, 22.560005336913683], [120.97541613288004, 22.56045449226145], [120.97553697806333, 22.560903068568393], [120.97565797950594, 22.56135222368573], [120.97577882625079, 22.56180079976223], [120.97589982925702, 22.562249954648813], [120.97602067756353, 22.562698530494824], [120.9761416821335, 22.56314768515063], [120.97626253005699, 22.563596260765866], [120.97638353619078, 22.56404541519086], [120.97650438664886, 22.564493988769488], [120.97662539434664, 22.564943142963656], [120.97674624928197, 22.565391728052745], [120.97674790232685, 22.565397813533295], [120.9767495398383, 22.56540374999631], [120.97676408639184, 22.56545414364236], [120.97677893640831, 22.565504173372137], [120.9767953082626, 22.565554158163753], [120.97681189121225, 22.565603719419286], [120.97683005435799, 22.565653167107076], [120.97684834691532, 22.56570220659967], [120.97686828094419, 22.565751063895302], [120.97688826950768, 22.565799527434468], [120.97690995012191, 22.565847738339542], [120.97693161136473, 22.565895578055198], [120.97695501426578, 22.565943090183765], [120.976978326806, 22.5659902563997], [120.97700342866813, 22.566037013753387], [120.97702836334506, 22.566083452276658], [120.9770549026465, 22.56612912427364], [120.97708167335347, 22.566175076267044], [120.97710978618971, 22.56621993115276], [120.9771381917009, 22.56626502720868], [120.9771678498825, 22.56630901349948], [120.97719786589796, 22.566353203037934], [120.97722903345444, 22.566396278280255], [120.97726057928365, 22.566439451107076], [120.97726448656746, 22.566444645518313], [120.97726825288859, 22.566449613225704], [120.97727233809593, 22.566454984673946], [120.9772766265034, 22.566460569287756], [120.97730957188821, 22.566502394843422], [120.97734308710616, 22.566544356843973], [120.97737752339937, 22.566585233413495], [120.97741252954495, 22.566626133536705], [120.97744836633007, 22.566665956343293], [120.9774848274329, 22.56670574491047], [120.97752202679277, 22.566744475112696], [120.97755990007381, 22.56678311147545], [120.97759842700921, 22.566820703910402], [120.97763766774482, 22.566858143807558], [120.97767748044757, 22.566894564148914], [120.9777180478033, 22.56693076422295], [120.97775910543821, 22.56696597272578], [120.97780095371664, 22.567000893231047], [120.97784321350292, 22.567034852859514], [120.97788629311646, 22.567068454952985], [120.97792971324515, 22.567101130477713], [120.97797398044011, 22.56713337712343], [120.97801851034977, 22.567164736023226], [120.97806391067537, 22.567195591086943], [120.9781095085563, 22.567225599035634], [120.97815593894617, 22.567254990251676], [120.97817078051318, 22.567264273658726], [120.97817354484089, 22.567265952938985], [120.97819244400985, 22.56727722195836], [120.97863029374584, 22.56753738909614], [120.9790274781741, 22.567772906228758], [120.97957400810766, 22.56808793877995], [120.98011877798885, 22.568406429106716], [120.98066528275822, 22.56872143986029], [120.981210055692, 22.5690399282732], [120.98175657127403, 22.56935493710212], [120.98230010854267, 22.56964925861975], [120.98283014792803, 22.569989190847426], [120.98306571421939, 22.5701520975577], [120.98328750073993, 22.570297603836867], [120.98366116536249, 22.570579019026898], [120.98400250594094, 22.570847788220416], [120.98429714401091, 22.571100132460312], [120.98465191576963, 22.57142940352987], [120.98494418000936, 22.57172261803483], [120.98520047826133, 22.572007083759317], [120.98544451127178, 22.572298272602108], [120.98574804752221, 22.57267993660046], [120.9857594469958, 22.572695826236547], [120.98592112367437, 22.572901185137113], [120.98611815618486, 22.573169173920597], [120.98619352070831, 22.573299315770925], [120.98621336625305, 22.573333487996575], [120.98633673048555, 22.57354591010139], [120.9866063450691, 22.574062359570878], [120.98686673571207, 22.574620988106194], [120.98744331841863, 22.57588797670886], [120.98767305904398, 22.576437871842298], [120.98785210301929, 22.57687346552921], [120.98811815085749, 22.57753842037804], [120.98818879912903, 22.577714432220137], [120.9882906333271, 22.57796224174771], [120.98842360177993, 22.57828729290696], [120.9885442996181, 22.578591583018227], [120.98857211168091, 22.578727009851963], [120.98862099099651, 22.578863830784947], [120.98880225269782, 22.579285670710043], [120.98896130622751, 22.57968445942453], [120.98929497756365, 22.58049017538513], [120.98942135381914, 22.580744056525287], [120.98955383651516, 22.581081402600148], [120.98975458915625, 22.58158515477704], [120.98982853091873, 22.58177059460429], [120.98992005104775, 22.581998877750333], [120.99002854704469, 22.582265893137567], [120.99017172279463, 22.58261567708451], [120.99028715060727, 22.58290192104752], [120.99047551938273, 22.58334990826643], [120.9908429296955, 22.584280507085275], [120.9912581640554, 22.585304111831356], [120.99141667808188, 22.585688715185935], [120.9915298028869, 22.58597940950617], [120.99178440228287, 22.586605006172775], [120.99184954589523, 22.586773087433453], [120.9918923185565, 22.586880020864623], [120.99196568138106, 22.58705066825224], [120.99206367013144, 22.587280380895187], [120.9922145038779, 22.58762283797509], [120.99237932346429, 22.58799033005816], [120.99248481234306, 22.58823279844424], [120.99251152842751, 22.588293338553846], [120.99257584938111, 22.58843572838461], [120.99272243238649, 22.588763644506777], [120.99280890164249, 22.588953683860105], [120.99293105102905, 22.589238351862754], [120.99300229333342, 22.589407305283824], [120.99307474080516, 22.589576852974798], [120.9931494442357, 22.58979787134735], [120.9932079474031, 22.590003733736744], [120.9932633883068, 22.590205023474276], [120.99328499922103, 22.59030226783169], [120.99331750312, 22.590459493356093], [120.99335807044994, 22.590704969382976], [120.99338583239086, 22.590959925818908], [120.99338749222635, 22.59098805807462], [120.99341862009555, 22.59110633555703], [120.99341885934548, 22.591188346987302], [120.99341235069967, 22.591517236811118], [120.99338932019822, 22.591854148355964], [120.99336306242382, 22.592213194314223], [120.99325759812062, 22.592870401943024], [120.9931630663612, 22.593497941529307], [120.99298545628179, 22.594665000146467], [120.99292499792304, 22.59504099415696], [120.99283708460835, 22.595615240593666], [120.99272150459535, 22.596294520280406], [120.99268391045182, 22.596465133174366], [120.99265456781765, 22.59671218103559], [120.99263779645997, 22.596919837202663], [120.99262661247087, 22.597115659144098], [120.99262380734548, 22.597354115919266], [120.99264368784192, 22.59775873231257], [120.99265834312753, 22.597930888275748], [120.99269720363971, 22.598174134362242], [120.99269996009151, 22.598192645721166], [120.99272840330947, 22.598333752155405], [120.99272844414958, 22.59833395626217], [120.99275270227069, 22.598454299791108], [120.99283274360515, 22.598756874479598], [120.99294596091009, 22.59908424390552], [120.99301620691526, 22.59924437450069], [120.99310729481083, 22.599465882830252], [120.99329722664255, 22.599823819510423], [120.99339179382518, 22.5999788176119], [120.99358726804236, 22.600279314887306], [120.99370922067143, 22.600439836456722], [120.99381256984748, 22.60057341537155], [120.9939606113499, 22.600738930188623], [120.99409887790958, 22.60088385700928], [120.99423819235162, 22.60102781199003], [120.99438379268057, 22.60116495845446], [120.99455977090828, 22.601314749480164], [120.9946865172754, 22.60141493488826], [120.99485097385953, 22.60154235495608], [120.99505418887107, 22.601684365032785], [120.9952155052855, 22.601786496397757], [120.99546481159416, 22.601931425294072], [120.99562927149454, 22.60202674771686], [120.99581153811945, 22.602124988412207], [120.99599590109864, 22.60222322895178], [120.99646204593735, 22.60247320599809], [120.9966736451383, 22.602587981553018], [120.99720997670731, 22.60287297266861], [120.99746452601396, 22.60301011726163], [120.9977379308936, 22.603158934523627], [120.99820834627496, 22.60340581335026], [120.99825333018453, 22.60343269517061], [120.99833763226465, 22.603483072020033], [120.99852626090801, 22.603600355549275], [120.99854185766284, 22.603610053378812], [120.99863545665221, 22.603674980297985], [120.99889290899253, 22.603859329546594], [120.9990241525698, 22.603971577193693], [120.99917877260104, 22.604110599607658], [120.9993726569646, 22.604286672464553], [120.99941625331181, 22.604327595636914], [120.9995499945883, 22.604453138566797], [120.99971174244345, 22.60463498364655], [120.99979553992138, 22.60473269125633], [121.00001197473449, 22.605013715648415], [121.00004498283995, 22.605056574932632], [121.00012098570386, 22.605162424884817], [121.00019211649331, 22.60526917882704], [121.00024639360727, 22.605367612333573], [121.00042797999565, 22.605708499390857], [121.00051162140092, 22.605900257355177], [121.00057660560529, 22.60604362716472], [121.00068534136666, 22.60631184925248], [121.00069239836755, 22.606331723242597], [121.00074639737963, 22.60648378643889], [121.00076319318404, 22.606531085371394], [121.00080493239335, 22.606669553963496], [121.00087795947087, 22.606956400178223], [121.00093022062663, 22.60724004401417], [121.00096915908729, 22.607553564857756], [121.00099057803446, 22.607827221253245], [121.00099467670294, 22.60818969218044], [121.00097945501909, 22.608496336970365], [121.00094774797037, 22.608978925481914], [121.00089897220414, 22.60972545477383], [121.00086784061529, 22.610235218910862], [121.00084907737597, 22.610487782227004], [121.00084492321218, 22.610543699689806], [121.0008439593212, 22.610556672981847], [121.00083518605695, 22.610674761998734], [121.00080688099231, 22.6110557658464], [121.00077219834917, 22.611575441614658], [121.00074438074931, 22.61222689752124], [121.00074069551304, 22.612313235579837], [121.00074063336882, 22.61233395670998], [121.00073975172927, 22.612634285751113], [121.00076371093226, 22.612925195149046], [121.00083286113835, 22.61340440520089], [121.00092253126282, 22.613781287359103], [121.00102352916853, 22.614106579700454], [121.00123924505336, 22.61463685166174], [121.00142135972743, 22.614983448511033], [121.00169286586521, 22.615401405835723], [121.00191446143413, 22.615692875397073], [121.00217637154434, 22.616007709547606], [121.00221694430547, 22.61605510006555], [121.00235303466239, 22.61621406119692], [121.00246551192767, 22.616345439570868], [121.00260346766241, 22.616505094049366], [121.00289461599668, 22.61679724021763], [121.00298256991923, 22.616890989384316], [121.00350812221694, 22.617546225384267], [121.00416573231071, 22.618333400713173], [121.00528346255196, 22.619654613278083]]]}}]}