{"type": "FeatureCollection", "features": [{"type": "Feature", "properties": {"track_id": "NH-1", "line_id": "NH", "direction": 1, "name": "\u5357\u8ff4\u7dda (\u678b\u5bee\u2192\u81fa\u6771)", "origin": "\u678b\u5bee", "destination": "\u81fa\u6771"}, "geometry": {"type": "MultiLineString", "coordinates": [[[121.58255953418839, 23.967679182510103], [121.58450789926867, 23.96905887728133], [121.58517895928975, 23.969514869415548], [121.58556092555924, 23.969766735658908], [121.58644750393216, 23.97041055468597], [121.58736720217352, 23.97106823851431], [121.58817706265526, 23.971614993313956], [121.58970585698859, 23.97262182020122], [121.59022660105074, 23.9729660754905], [121.59079561706659, 23.973382006075752], [121.59114319585744, 23.973673546765593], [121.59138360761781, 23.973886153381095], [121.59152964635587, 23.974041272306557], [121.5916418831769, 23.97416220959669], [121.59174775090045, 23.974290906390117], [121.59184634493813, 23.974435881144878], [121.59195873868708, 23.974601224543612], [121.59214311583919, 23.975008815003186], [121.59224483944467, 23.975222956104595], [121.59235196074499, 23.975454750264596], [121.5927567299283, 23.97634423558033], [121.59299256409346, 23.976829342773527], [121.59321056104096, 23.97726012315617], [121.59358747840406, 23.97800409059695], [121.59396982139145, 23.978774315108303], [121.59470550169755, 23.98030354794534], [121.59616010052927, 23.983211621302488], [121.59934975155718, 23.98964266709986], [121.60023003127745, 23.991408626006766], [121.60115150272624, 23.99331479784791], [121.60142552372346, 23.993843478914606], [121.60166689512954, 23.99434675228662], [121.60231565146077, 23.995711145718474], [121.60348138771968, 23.998046755086953], [121.60511120539714, 24.001427488490734], [121.60549626112143, 24.002186418109616], [121.60585313923625, 24.002945069980665], [121.60597494971276, 24.00331806637592], [121.60608427443114, 24.00376518340571], [121.60614712613437, 24.004034341253252], [121.60619851336097, 24.004362410122106], [121.60622221387723, 24.004642262175928], [121.60622464744458, 24.00489728518668], [121.60605655228836, 24.006697486092566], [121.60577680291664, 24.008597505270842], [121.6050592999568, 24.012429075574083], [121.6048715906928, 24.013449798403183], [121.60465018153621, 24.01484463726061], [121.60440312314199, 24.016153532023925], [121.60419436339748, 24.017228738324896], [121.60377518099453, 24.0196164490538], [121.60337924398377, 24.021878503415728], [121.60325018288206, 24.0225519750079], [121.60310305105583, 24.02322856286583], [121.60290717497998, 24.023909611960747], [121.60268593762991, 24.024600294269142], [121.60223890098976, 24.02593989525412], [121.60183003204168, 24.02740705319277], [121.60174821703812, 24.027809400128795], [121.60161464193109, 24.028662762250732], [121.60150215288706, 24.02998420922635], [121.60136352547073, 24.032694924627478], [121.60111287451826, 24.036669922580366], [121.60100964601178, 24.03852204694438], [121.60098755015258, 24.038933234090475], [121.60098670783489, 24.03930291355571], [121.60102618622207, 24.040073018575544], [121.60106055267292, 24.04043319232955], [121.6011144044797, 24.04075684730323], [121.60120757187644, 24.04134033228499], [121.6014071789699, 24.042507432755023], [121.60181814751087, 24.044837868385102], [121.60240646277302, 24.048383878412743], [121.60280595642794, 24.05073074708794], [121.60306681373869, 24.052073355143474], [121.60424261260695, 24.05880422461508], [121.60472504133705, 24.06158120805443], [121.60520747006716, 24.06435819149378], [121.6055287583452, 24.06649992494006], [121.60610224819425, 24.069713057148522], [121.60674159000463, 24.073334932569423], [121.60707229237272, 24.075223842102446], [121.6073981358229, 24.077117092722773], [121.6080532609171, 24.080782759925768], [121.60825890268586, 24.081991988051165], [121.60848341877868, 24.08319112848538], [121.60855986933254, 24.083636077913706], [121.60867406982041, 24.084072805430317], [121.60897380682422, 24.085282119215208], [121.60910723768905, 24.085749515912354], [121.60940589944397, 24.086628659462946], [121.60984311739311, 24.0879727109442], [121.61069229284479, 24.09067056008115], [121.61196068866036, 24.094451691264076], [121.61322908447593, 24.098232822447002], [121.6136432191393, 24.0991903557687], [121.61420466390463, 24.100480685370464], [121.61518415951463, 24.102397242384654], [121.61623195570567, 24.104626809484582], [121.61708912822854, 24.10642673382896], [121.61753177755472, 24.107196774904494], [121.61794089994554, 24.107804726896937], [121.61855062843674, 24.108566827557375], [121.61938442074322, 24.109363486416207], [121.62081349426893, 24.11047059472238], [121.62222809333346, 24.111525469639336], [121.62372587679737, 24.112628661558304], [121.62494199067021, 24.11350294099541], [121.62637850346042, 24.11456401774549], [121.62876250769314, 24.116320727693427], [121.63000483786863, 24.11719890748795], [121.63115600966267, 24.118037150649855], [121.63307378984713, 24.119331090413656], [121.6349648550744, 24.12063949610191], [121.63579197474075, 24.121185624254046], [121.63669388153174, 24.12189101853584], [121.63725924626195, 24.122380266382557], [121.6375753205769, 24.122801257893027], [121.63808084257033, 24.123480746008106], [121.63860170192963, 24.124314211011395], [121.64078848393049, 24.12844111818367]], [[121.12157070580673, 22.787915039521774], [121.12155957226159, 22.787849075011017], [121.12154624612683, 22.787785103496848], [121.12151115846729, 22.78761666753147], [121.12140959362571, 22.787244982511737], [121.12135478870225, 22.787055045230012], [121.1212267094311, 22.78668337932709], [121.12114700005712, 22.786494950989184], [121.12100369478087, 22.7861694871174], [121.12089262218694, 22.78594979193101], [121.1207163883168, 22.785638508761107], [121.1206061594144, 22.785461278129613], [121.12047788107456, 22.78526924394012], [121.12034058475004, 22.785073326806064], [121.12019254519068, 22.784840802487473], [121.11989566698239, 22.784481609598508], [121.11926830011762, 22.783852484032103], [121.11883363471217, 22.783405618244046], [121.1186071142832, 22.783177533548514], [121.11780063026403, 22.782367637541753], [121.11715601888326, 22.78173295489376], [121.11661971116887, 22.781232129709647], [121.11616718835813, 22.780832563803042], [121.11587521219111, 22.780587017123803], [121.11563559632033, 22.780401794088732], [121.11531921529364, 22.7801605763449], [121.11479813002165, 22.779777224161034], [121.11418193952332, 22.77935129315697], [121.11329489012769, 22.778710589751295], [121.11251329731252, 22.778156030272058], [121.11227427693261, 22.77799989046038], [121.11195810605768, 22.77777900897329], [121.1108527180237, 22.776989928574032], [121.11049827775925, 22.77674143683678], [121.11030516242201, 22.776601751005057], [121.1100900915168, 22.776450558359087], [121.10976125220994, 22.77621592430102], [121.10927857038378, 22.775873797161374], [121.1090235859068, 22.775696879443778], [121.10867863546633, 22.77545753814769], [121.1086230884661, 22.77541899651566], [121.10817135841894, 22.775087935855407], [121.10814209963469, 22.775066492653014], [121.10808440179342, 22.775024447364185], [121.10805550288879, 22.775003625233442], [121.10797300994895, 22.774944188569055], [121.10740323501422, 22.774533661532807], [121.1065190444609, 22.773923198837288], [121.10574781166908, 22.773383663387147], [121.10569477603819, 22.773342640052018], [121.10565750227077, 22.7733151410012], [121.10523571725341, 22.77299934695095], [121.10506674640507, 22.772879275733697], [121.1045762268673, 22.772531939274554], [121.10418567401547, 22.77224859555473], [121.10391435894158, 22.772058157213742], [121.10344783439352, 22.77172762994997], [121.10276422502736, 22.77124730786556], [121.10209779474206, 22.770775334517683], [121.10139373884623, 22.77027228043011], [121.10044472415001, 22.769598472370355], [121.09950855061949, 22.768940151371364], [121.0991823114454, 22.768709497907643], [121.09863404312007, 22.76831910457345], [121.09811734505519, 22.767948184225787], [121.09751484781448, 22.767509369042127], [121.09689202082329, 22.767059441318803], [121.09603853913548, 22.766454441591584], [121.09580771781084, 22.766295947264027], [121.09556398769915, 22.766124385252862], [121.09545005707085, 22.766044189547475], [121.09498060619065, 22.76571240889917], [121.09442373686099, 22.765318041401123], [121.09394948452088, 22.764973929595723], [121.09307732289776, 22.76435896993173], [121.09254435225611, 22.76398376368508], [121.09178799373845, 22.763446784616978], [121.09128376855817, 22.763084155815548], [121.09114017278358, 22.762981316979385], [121.09104040345707, 22.76290845129617], [121.09085215750477, 22.7627689338665], [121.09046638998159, 22.76249523639111], [121.08914645648626, 22.76155181938452], [121.08862055498152, 22.761190530737938], [121.0879851829522, 22.760740460024884], [121.08744580962912, 22.760356442944975], [121.08681814263728, 22.75991500777729], [121.08642543032298, 22.759633122087077], [121.0862832691992, 22.759531600182267], [121.08615631294039, 22.759436499117506], [121.0860653616977, 22.75936551932356], [121.08595686453737, 22.75928121013078], [121.08570388987842, 22.759080082063548], [121.08547914746126, 22.758894488964497], [121.08529058230188, 22.75873419012943], [121.08517796621268, 22.758631223641117], [121.08500118490053, 22.758471795985315], [121.08485947607001, 22.758339006312248], [121.0846966474736, 22.758177753858945], [121.08456255347616, 22.75804397549785], [121.08442449775397, 22.757901114827934], [121.08426027748907, 22.75772204538424], [121.08407202701125, 22.757512497938514], [121.08390620423869, 22.75732284281865], [121.0837675104154, 22.757150052243617], [121.08363153229305, 22.756978108132923], [121.08351289792348, 22.756826717531546], [121.08340258194394, 22.75667904326936], [121.08327152378986, 22.756496862333776], [121.08316737973999, 22.756347177993934], [121.08308460480421, 22.756229523577087], [121.08301144566889, 22.756114864218183], [121.08278823543779, 22.755770545588536], [121.08265290837983, 22.75554025815516], [121.08242708341479, 22.755124334383748], [121.08231071178717, 22.754894514595552], [121.08209273525792, 22.754439373626607], [121.08192859684179, 22.754067092232937], [121.0817282084713, 22.753600391028755], [121.08141581548608, 22.75289917971376], [121.0801319880693, 22.749945288850697], [121.07949039220506, 22.748475249015378], [121.07942806514018, 22.748334221863047], [121.07942778239874, 22.748333582607657], [121.07928400662759, 22.748008265595573], [121.07904418382529, 22.747456388800426], [121.07888965620643, 22.747096675759586], [121.07826566128035, 22.745801686234934], [121.07817509293653, 22.745615636484217], [121.07770123896843, 22.744626418219596], [121.07785790095977, 22.74496404161868], [121.07787870529597, 22.745006780717468], [121.07795219903954, 22.745157756179708], [121.07817509293653, 22.745615636484217], [121.07817509293653, 22.745615636484217], [121.07807297418688, 22.745235999765193], [121.07803646811085, 22.745138074380137], [121.07796890377918, 22.74498507672688], [121.07770123896843, 22.744626418219596], [121.07770123896843, 22.744626418219596], [121.07728632267931, 22.743732220517078], [121.07608948503925, 22.740978819513977], [121.07576840981886, 22.740236096162807], [121.07542039849382, 22.73943105355949], [121.07454873558416, 22.737297664469708], [121.07416982001776, 22.736274488681666], [121.07404863528896, 22.735999062306952], [121.07355790560612, 22.734858759908345], [121.0732761912045, 22.73422106268288], [121.07279613139262, 22.73313260716654], [121.07239387165203, 22.73220211731241], [121.0719564318266, 22.731203643878022], [121.07174090906706, 22.73070251909309], [121.07153362912133, 22.73021634027475], [121.07118322519742, 22.729418375054603], [121.07090771550997, 22.728787123088665], [121.07066274895317, 22.728230206038425], [121.07041639952382, 22.727666658588667], [121.07017446651189, 22.72711140107936], [121.06991169300868, 22.726498904498413], [121.06970215484772, 22.726024676595962], [121.06942526126767, 22.725400145091402], [121.06916308668714, 22.72483684800537], [121.06881544715826, 22.72414651502861], [121.06838398403127, 22.72336182280176], [121.06835241999018, 22.72330185931422], [121.06818120684977, 22.722963357580195], [121.06791929775629, 22.722482276804435], [121.0678420878622, 22.72234100620369], [121.06740975205028, 22.721550401600467], [121.06701872770314, 22.720847439213852], [121.06678140113664, 22.720423339274852], [121.06641356105958, 22.719746445480578], [121.066207311052, 22.719378839903435], [121.06584324713495, 22.718708507805996], [121.06552008746031, 22.718105310260416], [121.06534895968444, 22.717793181305463], [121.06517332414472, 22.717472060867994], [121.06485358739418, 22.716887839235998], [121.06465412124318, 22.71652651166139], [121.06446406436463, 22.71618937061065], [121.06419261413596, 22.715679387741464], [121.06402345074837, 22.715381354854642], [121.06359316147723, 22.714608159249458], [121.06320245070891, 22.713896224299777], [121.06305422530876, 22.713607910293735], [121.062779460038, 22.713121233504662], [121.06259870185698, 22.712807204130716], [121.0623736736368, 22.712438084284695], [121.06169462794641, 22.71116220286079], [121.06134394694232, 22.710512045332976], [121.0611583438386, 22.710175931515675], [121.06097453834566, 22.709852468397337], [121.06072813583864, 22.709394316980532], [121.0604528821659, 22.708896874678484], [121.06026103384137, 22.70856462649656], [121.06005630070383, 22.708132631188693], [121.05991687844157, 22.70783858504443], [121.05970020112991, 22.707512780072285], [121.0596053308882, 22.7073284534753], [121.059331049092, 22.70681747207322], [121.05887565480812, 22.705987841540562], [121.05844075449166, 22.705200755620346], [121.05813533740047, 22.70462674833512], [121.05805552637082, 22.70450419500809], [121.05802587924939, 22.704458671114438], [121.05768451737073, 22.70383540694194], [121.0575541933438, 22.703595786444957], [121.05744403016872, 22.70339531912294], [121.05729344752555, 22.703116923545558], [121.05708020610585, 22.70273204224798], [121.05671521217558, 22.702067630596925], [121.05642416446278, 22.70152456960614], [121.05630719253318, 22.701294405162788], [121.0562124567344, 22.70111971430915], [121.05606416067013, 22.70084858127929], [121.05588751628697, 22.70052749449474], [121.05562994056162, 22.700055697099053], [121.05554749724932, 22.69990330739819], [121.05540809266007, 22.699649611439128], [121.05495758600983, 22.69883161281144], [121.05476381055556, 22.6984700433632], [121.05470002374784, 22.69833356407837], [121.05468856719217, 22.69831072027465], [121.05430334473057, 22.69760788239627], [121.05402092822851, 22.69709260871921], [121.05282539029096, 22.694916447364516], [121.05251367302907, 22.69434385481705], [121.05248897702184, 22.694297629203003], [121.05241421021697, 22.694157681885446], [121.05184763709765, 22.69312944387694], [121.05145188635605, 22.69240601117543], [121.0508880880846, 22.69137299389715], [121.05060072150772, 22.690849210744982], [121.0505155591412, 22.690693984261255], [121.05024347542874, 22.69019805288235], [121.04996112833558, 22.689688323808056], [121.04958387662731, 22.68899356762105], [121.04927513839907, 22.68842967515461], [121.04906026013875, 22.688085172633674], [121.04874905658654, 22.687589148470426], [121.04835429172127, 22.687001264819305], [121.04807232502634, 22.6866169097948], [121.04794172505979, 22.686437508423587], [121.04771023810576, 22.686136050242688], [121.04735589297424, 22.68571170321406], [121.04676851671157, 22.68499460853181], [121.04623857562491, 22.68434682132488], [121.04566347659515, 22.683652822247627], [121.04521255552255, 22.683110440669335], [121.04459680604839, 22.682358762090676], [121.04414439732221, 22.681803478705678], [121.043441874392, 22.68095888765575], [121.04269140397763, 22.680045214703366], [121.04255505027447, 22.679879354244925], [121.04207356234411, 22.679293670250644], [121.04182383223026, 22.678989202499817], [121.04169238830255, 22.678829156930984], [121.04146963102424, 22.678556371711807], [121.04119293266082, 22.678217348810723], [121.04072243830016, 22.677649566462566], [121.04014779384973, 22.676955032035426], [121.03977423030476, 22.67649675709775], [121.03934401380378, 22.675992531390612], [121.03932095105769, 22.675964531605374], [121.03891023465849, 22.675460521168773], [121.03852347214811, 22.674998315185256], [121.0381140545343, 22.67448596390832], [121.03790990284546, 22.674237943271056], [121.03783967960068, 22.674152630386974], [121.03773865309938, 22.67402989531767], [121.03736942127803, 22.673595975874598], [121.03717057134963, 22.673334288061177], [121.03716995318827, 22.673333544041512], [121.03708698629772, 22.673233823741096], [121.03700590614794, 22.673136438404423], [121.03674363938389, 22.672816129322644], [121.03640315993285, 22.672403634506907], [121.03620635776774, 22.672162683119627], [121.03601554931744, 22.671930441541242], [121.03592030811478, 22.671817204711683], [121.03581029696134, 22.671686929426205], [121.03566792286873, 22.671515517351132], [121.03556379980957, 22.671385395914736], [121.03552820793513, 22.671340916574497], [121.0354688216066, 22.671270218867782], [121.03536838987146, 22.67115065836382], [121.03513143321092, 22.67086345894304], [121.03501645321346, 22.67073128674897], [121.0349094701489, 22.67059284604077], [121.03476328891195, 22.670415589031624], [121.03456610805142, 22.670170727884354], [121.0344429319182, 22.670021090868268], [121.03398864881147, 22.669450976257597], [121.0334883171179, 22.66883404002395], [121.0332891503219, 22.668595573500152], [121.03321981153505, 22.668510205057185], [121.03317275525663, 22.668459780566128], [121.03305554640596, 22.668334182934952], [121.03302830828098, 22.668304995484466], [121.03292248724068, 22.66818745205988], [121.03277666764686, 22.668007673424878], [121.03249900251723, 22.66766375931164], [121.03240117542475, 22.6675451446267], [121.03219705608151, 22.667293453446067], [121.032120402882, 22.667200581127013], [121.03204820413511, 22.667113475147914], [121.0319511716848, 22.666998184373142], [121.03179856016848, 22.666813676579032], [121.0316436800195, 22.666626118372815], [121.03150220436426, 22.666452852727073], [121.03124342044362, 22.666136257190548], [121.03107153121564, 22.665924647356533], [121.03099919438239, 22.665836377708786], [121.0309742828508, 22.66580684897585], [121.03071074593922, 22.665486693404432], [121.03051687932522, 22.66525588972615], [121.03045368022043, 22.6651831181867], [121.0303321441175, 22.66504317520829], [121.03015793893258, 22.664854726903915], [121.03014616544878, 22.664841991633928], [121.03004826069963, 22.664741526218194], [121.02987662845872, 22.664576748576167], [121.0297748914581, 22.664482748177303], [121.02959236933366, 22.664315478757032], [121.02946537283154, 22.664202810988208], [121.0293685346983, 22.66412120102064], [121.02925877514916, 22.664031734476005], [121.02901117872041, 22.66383460402793], [121.02888546929185, 22.663739193120588], [121.02867136776588, 22.663583359009237], [121.02848047294782, 22.663445463509102], [121.02799436100027, 22.663088720689316], [121.02782646695553, 22.66296702491514], [121.02770585098281, 22.662879570407263], [121.02766434623051, 22.662848507822943], [121.02739059254351, 22.662645994999018], [121.02731392576246, 22.66258293836777], [121.02729085203686, 22.66256430116775], [121.02720999515728, 22.662495992701064], [121.02717537391244, 22.662468049070792], [121.02706236494632, 22.66237317010547], [121.02700110127292, 22.662313962492014], [121.02691795916122, 22.66223203443021], [121.02685444201673, 22.662168217654933], [121.02676158418754, 22.662073224012165], [121.02672584691072, 22.662034724897417], [121.02656865101285, 22.661870421696953], [121.02654542378983, 22.661841823991594], [121.02638942264636, 22.661633522604454], [121.026341850673, 22.661568133385284], [121.02625589958056, 22.661452727072177], [121.02620609449505, 22.66138214257375], [121.02612302013537, 22.661261985346812], [121.02604109352107, 22.66113330702643], [121.02590249248873, 22.660898500493715], [121.02584428239453, 22.66078148282637], [121.02581649503415, 22.66072872298325], [121.02572155969467, 22.6605412025115], [121.0255753128984, 22.66024603740598], [121.02542691589531, 22.65994372887967], [121.02541750276227, 22.659924595232596], [121.02528829106436, 22.659657083143195], [121.0250100550599, 22.65909227436576], [121.02470102400952, 22.658468203970205], [121.0245321795849, 22.65811954545363], [121.02437622327308, 22.657804468824583], [121.02417979490937, 22.657408846834038], [121.0240171408275, 22.65706070788861], [121.02380717205749, 22.656588434851702], [121.02370466314315, 22.65633805125229], [121.02361974525046, 22.65609868386443], [121.02351838257839, 22.655809877034155], [121.02344091768882, 22.655558042777336], [121.02332059289664, 22.65520409434584], [121.02323040078701, 22.65491980665686], [121.02311774018104, 22.65459755619147], [121.02304115480977, 22.65440660131239], [121.02299930146297, 22.65430571698045], [121.02294847965928, 22.654186770761147], [121.02288741364619, 22.654060583925343], [121.02276749858487, 22.653820432592294], [121.02271702857787, 22.65372016893823], [121.02267483284383, 22.65364691891228], [121.02254388971332, 22.65342146802456], [121.02241681434674, 22.653205308611323], [121.02231431150388, 22.653039586336856], [121.02187127024847, 22.652325686912246], [121.02169924129431, 22.652045626037243], [121.02161486928834, 22.65190405459428], [121.02152218432782, 22.651720773038956], [121.0214686966857, 22.651620210439177], [121.02135109514668, 22.651379896003192], [121.02132291950433, 22.651322320872055], [121.02120892399395, 22.65106638108166], [121.02109430497642, 22.650802553493033], [121.02100569257243, 22.65060690835997], [121.02096868702654, 22.65050973641453], [121.02074380131371, 22.649902671254903], [121.02068132354793, 22.64973784308443], [121.02042078535514, 22.649021902655118], [121.02038330321415, 22.648920225885792], [121.02024676664898, 22.648527883745782], [121.02019464131752, 22.648373417276012], [121.02018233886827, 22.648333789302345], [121.02011128501368, 22.648104921273717], [121.02000927229277, 22.647811529611218], [121.019867862966, 22.64742405819271], [121.0197181317477, 22.646997077335374], [121.01955091173751, 22.646539516309673], [121.01937722893852, 22.646071976457133], [121.01921984231512, 22.64567901447626], [121.01918640005319, 22.64560019200031], [121.01893156854749, 22.644999563990883], [121.01892641307589, 22.644987412299294], [121.01863111295965, 22.644311032630196], [121.01861655295022, 22.644277683226374], [121.01858774343127, 22.6442117574439], [121.01838729511203, 22.643753072707256], [121.01807898689049, 22.643053363259135], [121.01791058944713, 22.64271088155006], [121.01769518782068, 22.642315786702234], [121.01747770376792, 22.641969916915645], [121.01723581529887, 22.641606879435503], [121.01723063827205, 22.641599109596825], [121.01715920408093, 22.641491585247877], [121.01706759327793, 22.641353693087325], [121.01693306207271, 22.641157858886988], [121.01662812639618, 22.640666958747687], [121.01641657161024, 22.640253915892533], [121.01622176790315, 22.639814629245716], [121.01603428615155, 22.639303419371547], [121.01581957307279, 22.638710571278246], [121.01560081955432, 22.638076347950893], [121.01551276433862, 22.63781396374867], [121.01550828742569, 22.637800624274544], [121.0152808692922, 22.637176875600204], [121.01509509596931, 22.636654434964115], [121.01487670525965, 22.636039588585575], [121.0147491645968, 22.63564986563959], [121.01458098337397, 22.635182670747653], [121.01441968678786, 22.634718053426234], [121.01435840729988, 22.63454234524683], [121.01424233405379, 22.634209526982648], [121.01422542862258, 22.63415764993894], [121.01421158099015, 22.634115152375745], [121.01408588411795, 22.633729405962995], [121.01389255402627, 22.63314111823835], [121.0136345970064, 22.63239307284114], [121.013482060507, 22.631905584077355], [121.01331327625448, 22.631408712215567], [121.01315974728189, 22.630947430674862], [121.01301741612143, 22.63051803796412], [121.01287270326536, 22.630150882600983], [121.01271883445462, 22.629813643520762], [121.01254960969699, 22.629507035550535], [121.0123497792673, 22.629217976383334], [121.01214748661235, 22.628942321186184], [121.01191367410868, 22.62865250360107], [121.01176639344183, 22.628496834477097], [121.01153613492875, 22.62828375652146], [121.01123673795912, 22.628012820457776], [121.0109487826468, 22.62776417375033], [121.010581015812, 22.627458979589587], [121.0101931854084, 22.62712281890836], [121.00983917352237, 22.62675621929368], [121.00959959690685, 22.62648276758465], [121.00939808828427, 22.626223905831186], [121.00934692374113, 22.626148457992798], [121.00924583822587, 22.625999394615715], [121.00910696048145, 22.625778632228705], [121.00900299750089, 22.62557920207102], [121.00884012103226, 22.625254324141693], [121.00868763926555, 22.624918186321935], [121.00837574806604, 22.624237870122847], [121.00815222765158, 22.623739291917964], [121.00805548829032, 22.623531186295462], [121.00796352341256, 22.623333349708137], [121.00790769060649, 22.623213242511262], [121.00789578871408, 22.623187638845668], [121.00779009449535, 22.62294639092414], [121.00773320356292, 22.622826016389592], [121.00758055964725, 22.622557279711074], [121.00746646083493, 22.622377551343543], [121.00722718403095, 22.622040217593664], [121.00714416693886, 22.621930764495865], [121.00681404651806, 22.621533599046675], [121.00654582413259, 22.621194898152744], [121.00627814545129, 22.620825283092646], [121.00607689072675, 22.620591418853472], [121.00574967310287, 22.620207020203956], [121.00528346255196, 22.619654613278083]], [[120.94344739478744, 22.46337616755246], [120.94307477202362, 22.46273974066589], [120.94305734452199, 22.462709433465594], [120.94297220575075, 22.46258673611466], [120.94289429352752, 22.46245465590584], [120.94237903350223, 22.461581159176497], [120.94174294373612, 22.460462622096905], [120.9414084887109, 22.459847950604313], [120.94131388147784, 22.459674078211947], [120.94112357236084, 22.45932702103982], [120.94065072108265, 22.458505100231143], [120.94060889866574, 22.458387037036363], [120.9404767180141, 22.458157254392873], [120.94045397620843, 22.45808938537681], [120.94029708984365, 22.457800532072223], [120.94023699566615, 22.457696796562495], [120.94017980724524, 22.457616984335363], [120.94014041759854, 22.457566672357096], [120.94009228618765, 22.457495613928412], [120.9398216906164, 22.45700926646628], [120.9397861751878, 22.456945566871745], [120.93970808481801, 22.45679930034351], [120.93960135639149, 22.45661017654314], [120.93945817854227, 22.456368217357944], [120.93921519533336, 22.455935947144496], [120.93901992038558, 22.455551976165943], [120.9387484493267, 22.454905856494005], [120.93853949528662, 22.45428882031158], [120.93836424942404, 22.453586854134617], [120.93826593485565, 22.452943034800537], [120.9382180921988, 22.45236853134221], [120.93820149967281, 22.45182309907647], [120.93822092772973, 22.451396154750878], [120.93825960140538, 22.450951334780846], [120.93835125174381, 22.450347824331676], [120.93846691480401, 22.449822560659868], [120.9386451728838, 22.449136375604947], [120.9388556088341, 22.448333631158825], [120.93901372080992, 22.447730478547715], [120.9392088470406, 22.44695041447944], [120.93930769578942, 22.446369260304518], [120.93935115829665, 22.445960206671472], [120.93935855782834, 22.44553549263305], [120.93935629118727, 22.44521807110673], [120.93930843396299, 22.4446726276211], [120.93920668723614, 22.44407451277402], [120.93914730266609, 22.443838286894863], [120.93905331635278, 22.443484128151596], [120.93887705607847, 22.44298680196225], [120.93886549530276, 22.442954184433496], [120.93885099339691, 22.44291326958059], [120.93874749370106, 22.442657331213002], [120.93846884307595, 22.441913877266686], [120.93846581329508, 22.44190621209718], [120.93845669581279, 22.44188314161725], [120.93837701816935, 22.441681531196547], [120.93830844956065, 22.441508029677504], [120.9380852723823, 22.440913614572953], [120.93770186810197, 22.43992064916504], [120.93770001753363, 22.439915855505447], [120.93767224446192, 22.439843926218362], [120.93761560378715, 22.439697232259594], [120.93748261535906, 22.439334481174683], [120.93739050947276, 22.439094865020156], [120.93738502481827, 22.439080595141046], [120.93737131221457, 22.43904492224828], [120.937234435953, 22.438688838185264], [120.9371517970048, 22.438473848675297], [120.93704970954465, 22.438187631981986], [120.93653353474937, 22.43691719875055], [120.93637057174955, 22.4365465414358], [120.93613752684308, 22.43605359136913], [120.9360648983729, 22.43587085983116], [120.9359826462436, 22.4356651793438], [120.93571426188856, 22.435039741560107], [120.93565338899577, 22.4348856900005], [120.9355456491739, 22.434610130618427], [120.93552749689184, 22.434563703028765], [120.93533883332917, 22.434044864728907], [120.93532920065498, 22.43401837456833], [120.93488110097759, 22.432786088645347], [120.93472331995302, 22.43237251540293], [120.93464910789308, 22.43216478096078], [120.93443828891968, 22.431533579496804], [120.93425019341068, 22.431005701377423], [120.93413016501754, 22.430689832512485], [120.9341083952517, 22.430630528138884], [120.93409051898797, 22.430581828185407], [120.93408144842533, 22.430557119156592], [120.93379411050596, 22.4297743480308], [120.93378530976578, 22.42975037244144], [120.9337280700957, 22.429589330365022], [120.93365512147872, 22.429437753921672], [120.93355845288706, 22.429174081076976], [120.93341091930783, 22.428755680617787], [120.93333759239927, 22.428553666327268], [120.9332925800845, 22.428379062184742], [120.93321821142118, 22.428194820249708], [120.93306621284275, 22.427789282781614], [120.93305550857754, 22.427760713902494], [120.93305540961654, 22.427760450145225], [120.93305437246545, 22.427757687919907], [120.93282185486989, 22.427156253299007], [120.93279562072338, 22.427088395055314], [120.93271016175264, 22.426867344471837], [120.932679869929, 22.42678958702823], [120.93258541741338, 22.426547111997003], [120.93257894497778, 22.42653049697609], [120.93253807862727, 22.426411726303204], [120.9324619997153, 22.426190600915472], [120.93233214693907, 22.425850057219844], [120.93220066304337, 22.425456977180247], [120.93191384121434, 22.424662873510194], [120.93177637598663, 22.424306880631267], [120.93173295405003, 22.424202295140653], [120.93167364777631, 22.424059451403593], [120.93158644787128, 22.42384609595823], [120.93142128610751, 22.42348652090835], [120.93135152706618, 22.423349588160324], [120.93134350315172, 22.423333834018674], [120.93134328285238, 22.423333403128073], [120.93134322074134, 22.423333282081153], [120.93133829071193, 22.423323603762206], [120.93129314797325, 22.423234993024383], [120.93127031750834, 22.423190178621738], [120.93109455332592, 22.42288391637739], [120.93090509658319, 22.422558704749044], [120.93055768889792, 22.422016693528725], [120.93041290033881, 22.421805248066413], [120.9300271476547, 22.421286157958942], [120.92999879343911, 22.42124933555728], [120.92957281814827, 22.420697764492008], [120.92940474164408, 22.420485644138758], [120.92667738353235, 22.417042379869375], [120.92646962421018, 22.41677578722468], [120.9262006323061, 22.416416015694058], [120.92602600904837, 22.416165938844706], [120.92600729921014, 22.416139140465976], [120.92600043977765, 22.416129318397502], [120.92598930197725, 22.41611123245348], [120.92575306016049, 22.41572762144001], [120.92556750918723, 22.415391160123068], [120.92527558010977, 22.414811028544012], [120.92506288196043, 22.414357254339468], [120.92505752040188, 22.414345817207625], [120.92503931187522, 22.41430697016382], [120.9249183181376, 22.414048832026214], [120.92471876386935, 22.41361810071423], [120.92461228177649, 22.41335903524098], [120.92453607124305, 22.413176910527834], [120.92435849838563, 22.412752512774137], [120.92418107985432, 22.412328521290675], [120.9240035091473, 22.411904121302126], [120.92382609179208, 22.41148012939004], [120.92364852323387, 22.411055729876104], [120.92347110899725, 22.410631737536367], [120.92329354161737, 22.410207336690362], [120.92311612952886, 22.409783342116267], [120.92293856526832, 22.40935894264858], [120.92276115435446, 22.408934949452277], [120.92258359224381, 22.40851054774994], [120.9224061844481, 22.408086554126147], [120.92222862351484, 22.40766215199503], [120.92205121786633, 22.407238157040165], [120.92187366005291, 22.40681375448124], [120.92169625557912, 22.40638976000117], [120.92151869991312, 22.405965358820303], [120.9213413005006, 22.405541362107556], [120.92116374504133, 22.40511695869132], [120.92098634680325, 22.404692962453463], [120.92080879349211, 22.404268558609097], [120.92063139837087, 22.403844562847137], [120.92045384915026, 22.40342015857565], [120.92027645423242, 22.402996162385072], [120.92009890716017, 22.402571756782432], [120.91992151438811, 22.402147760164258], [120.91974396946199, 22.401723356843064], [120.91956657883713, 22.40129935708788], [120.91938903605852, 22.40087495333878], [120.91921164757866, 22.40045095405922], [120.91903410694898, 22.400026547172825], [120.91885671964219, 22.399602549271595], [120.918679180188, 22.399178142860038], [120.91850179794017, 22.398754144532873], [120.91835795352291, 22.398378711267156], [120.91834785019307, 22.39835458236914], [120.91833913575812, 22.398333750636137]], [[120.71703147941085, 22.280927917687045], [120.71590499433174, 22.27996747894503], [120.71576493325689, 22.279848060907437], [120.71515233866364, 22.279331121735343], [120.71456100837786, 22.278764373867677], [120.71433816117418, 22.278562945121095], [120.7139417952157, 22.278234486346033], [120.71382278154648, 22.27814182602218], [120.7136778014881, 22.27802894894761], [120.71343187136631, 22.27786445760848], [120.71326612798792, 22.277760777299402], [120.71316303253953, 22.27770621585374], [120.71306978152576, 22.27765942705974], [120.71285392606596, 22.277596788895853], [120.71232044507273, 22.277435149586356], [120.71190393746956, 22.277347055229367], [120.71137015491074, 22.27728231722135], [120.71094042036358, 22.277303112783105], [120.71041929921417, 22.277359503463494], [120.70834692016638, 22.2780212665817], [120.70805548669394, 22.278079758108767], [120.70770842001069, 22.278149413928887], [120.70553208527224, 22.278737600142364], [120.70467178364669, 22.279033469146388], [120.70415032465328, 22.27924725196501], [120.70315228068084, 22.279606703417045], [120.70201524503989, 22.280026258134228], [120.69971399285326, 22.280962037233838], [120.69823512820355, 22.28170360853136], [120.69699413706071, 22.282097549737102], [120.69673189641013, 22.282149830016646], [120.69637779167736, 22.28220628404617], [120.69598906176847, 22.282258257897283], [120.69598238722138, 22.28225867981265], [120.69595709052061, 22.282260279781266], [120.6954012142121, 22.282295439575268], [120.69534279587546, 22.282296111191336], [120.69486751086647, 22.28230157591903], [120.69457728277203, 22.28229313945071], [120.69447052880655, 22.282290035892114], [120.69446079010113, 22.282289352851034], [120.69430540646428, 22.282278463770087], [120.69398153059369, 22.28225585394793], [120.69361724242906, 22.282224292019173], [120.69285134983916, 22.282123384298583], [120.69202552201654, 22.281958632474545], [120.69189461279227, 22.2819332658411], [120.69172783542794, 22.281900948137228], [120.69170167901561, 22.281895879696386], [120.69142853851322, 22.281847094046775], [120.69094017840843, 22.281728082591428], [120.69089718594594, 22.28171516796221], [120.69069529255012, 22.28165452022634], [120.69039286287521, 22.281549625148465], [120.69007366696573, 22.281411583692716], [120.68983736602789, 22.281303021491073], [120.6895445231655, 22.28114160356155], [120.68928034661695, 22.280980868555375], [120.68899406979867, 22.2807765122351], [120.68897581401136, 22.280763480105964], [120.68887621681328, 22.280683797174408], [120.68858107667428, 22.28043814038322], [120.68823752297148, 22.280122301532977], [120.68792622933597, 22.27975435920084], [120.68760654177915, 22.279289667854272], [120.68751104728477, 22.279136192374384], [120.6873782826625, 22.278904122934364], [120.68722292400705, 22.278586343829964], [120.68701379272152, 22.278131871053187], [120.68690851680252, 22.277903091069152], [120.68663585758141, 22.277301894031176], [120.68656089521748, 22.27713660471717], [120.68642631768331, 22.276841307186352], [120.68616262598445, 22.27626142370278], [120.68597829333503, 22.27585367923335], [120.68587632728561, 22.275669467050353], [120.68584671231699, 22.27561596432488], [120.68574530813213, 22.275432767376817], [120.6855167824464, 22.275079474190964], [120.6853220325932, 22.2747965496855], [120.68514310065797, 22.274564335624177], [120.68484800780254, 22.274216514635903], [120.68477514197001, 22.274141424786535], [120.6845073425224, 22.2738667395952], [120.68388430898281, 22.27333337397782], [120.68388354968035, 22.27333272223512], [120.68388130857164, 22.273330800494975], [120.68364453569485, 22.27312482959551], [120.68305553856469, 22.272623649286686], [120.68305389404236, 22.272622250717543], [120.67921280799008, 22.270090316834917], [120.67901669429801, 22.269954430469678], [120.67882849906223, 22.269824030782484], [120.67692561682391, 22.26850550565175], [120.67217254958078, 22.265857893015802], [120.67208142732228, 22.26582587503346], [120.67181861095065, 22.265766049205403], [120.67138630144815, 22.265667640109953], [120.67080018475957, 22.26556419121121], [120.67021924498894, 22.265490390146937], [120.66921851740173, 22.26537538751754], [120.66896223369073, 22.265345934140296], [120.6682892820229, 22.265279295701944], [120.66792250974521, 22.265254719635646], [120.66757596849715, 22.265243721387332], [120.66730274955488, 22.26523975092561], [120.66686641989752, 22.265248846494185], [120.66658648456284, 22.265262463359566], [120.66643293461502, 22.26527454202697], [120.66607660361386, 22.265302570679808], [120.66576697460069, 22.265339113757527], [120.66555942153296, 22.2653636098226], [120.66551337180101, 22.265374144135926], [120.66276830319116, 22.266094830870042], [120.66271058365794, 22.266115232306227], [120.66246433298639, 22.2662039831983], [120.66215915906008, 22.26631397056673], [120.65910721720095, 22.26741387425597], [120.65882026325819, 22.267500423493953], [120.65824321147412, 22.26769748508472], [120.65805554169856, 22.267767831664564], [120.65756454864544, 22.26795187429296], [120.65754666168523, 22.26795823536519], [120.6568415094473, 22.268208985608315], [120.65645335206226, 22.26835554750339], [120.65596529484833, 22.26856863205563], [120.65555584690702, 22.268789554937836], [120.65531788919297, 22.268936593256644], [120.65518534488044, 22.269031892614027], [120.65497435413965, 22.269183593693562], [120.65493328438944, 22.26921419077874], [120.65466568215531, 22.269443219401857], [120.65438376496282, 22.269712404313935], [120.65429645415534, 22.269804319345997], [120.65396606427915, 22.27016733273272], [120.65329010814037, 22.270950807392282], [120.65305351269281, 22.271227281967867], [120.6527398384654, 22.27158787549308], [120.65228024828957, 22.272134683234185], [120.65206890400792, 22.272400696855076], [120.65197354510457, 22.272520722644813], [120.65185352908593, 22.27267178262992], [120.65145148060449, 22.273200420749415], [120.65136983618925, 22.273332798082382], [120.65136930033474, 22.273333667562472], [120.65117029777109, 22.273656319975537], [120.65100028567562, 22.273959141784957], [120.65083594004537, 22.274324422523097], [120.65066278889725, 22.27483252346397], [120.65060596985835, 22.275080924584294], [120.65057546335284, 22.275252366752966], [120.65053367487067, 22.275487205156224], [120.65052339899701, 22.275613198612152], [120.65049302162156, 22.27598566714647], [120.65045072814884, 22.277873526169582], [120.65044175006528, 22.27799418118721], [120.65042877635749, 22.278168524864732], [120.6504019420336, 22.278391436814985], [120.65035999122281, 22.278664899429952], [120.65030309177409, 22.278951790271616], [120.65023844071966, 22.27921595756918], [120.65013671942893, 22.27955209949487], [120.65011067791434, 22.279627260720904], [120.65000457919493, 22.27993348282921], [120.64986508299599, 22.280269064450817], [120.64982144129608, 22.280374052787522], [120.64975877871694, 22.280503491504092], [120.64968594811643, 22.280653931608896], [120.6496649540181, 22.280689058297266], [120.6496191877532, 22.280765629122858], [120.64936380688454, 22.281192900055604], [120.64923719714962, 22.28138717973608], [120.6491124426156, 22.28156896924643], [120.64895850346107, 22.281772465805297], [120.64864690255587, 22.282184377944425], [120.64851401025474, 22.282360050431134], [120.64763561578967, 22.283521198525637], [120.64724587813491, 22.284115349407156], [120.64695650057911, 22.284588001109064], [120.64671236347893, 22.2850844753351], [120.64655419443432, 22.285432789871145], [120.64644246500147, 22.28571759800239], [120.64637066831571, 22.28591476364947], [120.64624083543387, 22.286339917429817], [120.64612221859318, 22.28684283073219], [120.64605673973715, 22.287145146493575], [120.64600716396102, 22.287443821107907], [120.64595031980645, 22.2879095032192], [120.64562389207975, 22.290951496579993], [120.64561031830907, 22.291077984372386], [120.64559477769951, 22.291222804340745], [120.6450560070176, 22.29649925300084], [120.6450524832303, 22.296533763322742], [120.64497403350249, 22.29720542524279], [120.64491088915386, 22.2978467813606], [120.6448835282438, 22.298124693623073], [120.64487295959397, 22.298232035811317], [120.64486302046917, 22.298332982432555], [120.64486294079073, 22.298333787859303], [120.64473821119395, 22.299600644000492], [120.64448946284561, 22.30199517039721], [120.64446761616902, 22.30220546830705], [120.6442912146754, 22.303903505420696], [120.64423467574714, 22.304315518360376], [120.64407505831802, 22.30504112263556], [120.64399992065897, 22.305287395627932], [120.64387613545321, 22.30565448493215], [120.64373628181889, 22.305989683300925], [120.64360733077244, 22.306265345249983], [120.64346682150045, 22.30653637928202], [120.64329925707791, 22.306831976877586], [120.6430473664845, 22.30721696389971], [120.6427876018024, 22.307567286936507], [120.64253398831774, 22.307891352574714], [120.6417298722907, 22.30889884448981], [120.64081265891981, 22.310048015427846], [120.64075446247719, 22.310121715423755], [120.6405378057064, 22.310396089421356], [120.64042671926683, 22.31053676804636], [120.63975072388862, 22.311392833305074], [120.63781563700532, 22.31382248031812], [120.63736354180737, 22.314373876232036], [120.63511929658274, 22.317196421983308], [120.6344620732879, 22.31807074849111], [120.63367160650296, 22.31915414728499], [120.63305556125378, 22.319978903520443], [120.63302714693721, 22.32001694437279], [120.63242821491986, 22.32083843401154], [120.63233663908404, 22.32096403786831], [120.63071479439935, 22.323188480523246], [120.63066561130941, 22.323258312799208], [120.63063663291702, 22.323327976144537], [120.6306328705525, 22.323333102807037], [120.63063258803645, 22.32333348689955], [120.63011404886899, 22.324040228181495], [120.63004001163682, 22.32414113646309], [120.62843516594688, 22.32632839594838], [120.62827505262604, 22.326546610364908], [120.62726287222986, 22.32792607136174], [120.62678892141373, 22.32873961102353], [120.6263428282824, 22.329396129214583], [120.62625175775126, 22.32950935307], [120.6237618375537, 22.332911031197877], [120.6232362424189, 22.33360322631513], [120.62255811754503, 22.33435350990427], [120.62090241254106, 22.3366190867041], [120.62084586793576, 22.336696457787735], [120.61936434574264, 22.338723611156766], [120.61924469842651, 22.33884605873394], [120.61783101471124, 22.340760473748073], [120.61612603541302, 22.343089700956156], [120.61400362201398, 22.345989062301708], [120.61344621601093, 22.34675049194217], [120.61335774630379, 22.3468713430242], [120.61272813160014, 22.3477313976417], [120.61263334651073, 22.347860872564997], [120.61228761625433, 22.3483331332679], [120.6122872829519, 22.348333589455095], [120.61214149423483, 22.348532733340793], [120.61197747485217, 22.348756778832232], [120.61187773365643, 22.348893022125278], [120.61177945509813, 22.3490272666137], [120.61159794386637, 22.34927520367547], [120.61143731951347, 22.349517938008024], [120.61105822819728, 22.3501829327477], [120.61075906016119, 22.35081058442691], [120.61060406631708, 22.351200563554887], [120.61039095565157, 22.35187053433718], [120.61037342726094, 22.35194516039893], [120.61032961897355, 22.35213167093205], [120.61023966456554, 22.35251464515326], [120.61012689944198, 22.3532628730143], [120.6100693761971, 22.35427912060029], [120.61005710160956, 22.354592858794934], [120.61004881046433, 22.354804792044366], [120.60998600424456, 22.356410082321467], [120.60994148998519, 22.35684004078442], [120.60987761081545, 22.35718009823149], [120.6097131430072, 22.35776854341824], [120.6094618796898, 22.35835108934359], [120.60922920117596, 22.35877247079169], [120.6088870028738, 22.35926779582495], [120.60874037919787, 22.359439481703767], [120.60865327823322, 22.359541471304322], [120.60857047701514, 22.35963842545778], [120.60831525792388, 22.35989719105515], [120.60805551924066, 22.360121874684673], [120.60797085725271, 22.360195110508748], [120.60757439436, 22.360484941030155], [120.60727573360154, 22.360681798402343], [120.60059145479396, 22.3644382600532], [120.60046496803821, 22.3645093385385], [120.59874082599448, 22.36547819903548], [120.59857978608137, 22.36556869163968], [120.59815551709106, 22.365807098371736], [120.59809159608166, 22.36584301699559], [120.59799934613008, 22.365896526844644], [120.59760649207298, 22.36612440105346], [120.59714340929905, 22.36639300857417], [120.59697169015512, 22.366492612633103], [120.59660494313285, 22.366758565664423], [120.59620916716999, 22.367117216649497], [120.59576054914508, 22.36763550450412], [120.59534596158534, 22.368194208042194]]]}}]}