{
  "type": "FeatureCollection",
  "features": [
    {
      "type": "Feature",
      "properties": {
        "track_id": "SA-1",
        "line_id": "SA",
        "direction": 1,
        "name": "深澳線 (海科館→瑞芳)",
        "origin": "海科館",
        "destination": "瑞芳"
      },
      "geometry": {
        "type": "LineString",
        "coordinates": [
          [
            121.81400280294409,
            25.129440158293633
          ],
          [
            121.81390107811639,
            25.129559890865746
          ],
          [
            121.81357876702262,
            25.129941633992622
          ],
          [
            121.81311785401066,
            25.130411163436907
          ],
          [
            121.81274081983685,
            25.130803731270305
          ],
          [
            121.8124589430209,
            25.131082109490986
          ],
          [
            121.81211201933561,
            25.13145177006022
          ],
          [
            121.81208555269639,
            25.13147446614513
          ],
          [
            121.81190069190373,
            25.131666242132432
          ],
          [
            121.81171179302261,
            25.131859312911903
          ],
          [
            121.81158041284951,
            25.131989588159602
          ],
          [
            121.811437855612,
            25.13211228711549
          ],
          [
            121.81138245484797,
            25.13214602884704
          ],
          [
            121.81124336233529,
            25.13222131354294
          ],
          [
            121.81117946869243,
            25.13225446073217
          ],
          [
            121.81115510158986,
            25.13226476826836
          ],
          [
            121.8111453945916,
            25.132268017188142
          ],
          [
            121.81098795609951,
            25.132307345678942
          ],
          [
            121.81092432282495,
            25.132321370794134
          ],
          [
            121.8108773606142,
            25.132329508912772
          ],
          [
            121.810807765819,
            25.132338809034014
          ],
          [
            121.81076408326753,
            25.13234351672399
          ],
          [
            121.81069845218023,
            25.132346349372394
          ],
          [
            121.81064055313435,
            25.132344201574714
          ],
          [
            121.8106085722354,
            25.132342859879223
          ],
          [
            121.81051719619293,
            25.132333564714244
          ],
          [
            121.81040650730608,
            25.13231454401375
          ],
          [
            121.81017376538222,
            25.132266056320635
          ],
          [
            121.810030315823,
            25.13223570420418
          ],
          [
            121.80996794426038,
            25.132224525866565
          ],
          [
            121.80985416224594,
            25.132205620960388
          ],
          [
            121.80977359275977,
            25.132197376673336
          ],
          [
            121.80963468555018,
            25.13218661641325
          ],
          [
            121.80954880349638,
            25.132181813478102
          ],
          [
            121.80951011965676,
            25.1321836046443
          ],
          [
            121.80940768224028,
            25.13218720652399
          ],
          [
            121.80935897475845,
            25.13218935031333
          ],
          [
            121.80927261904228,
            25.13219995096263
          ],
          [
            121.80911353970248,
            25.132222115856976
          ],
          [
            121.80903743359445,
            25.13223355414159
          ],
          [
            121.80890541482408,
            25.13226286540517
          ],
          [
            121.80882096982555,
            25.13228202259567
          ],
          [
            121.80867364567843,
            25.132324353806133
          ],
          [
            121.8084609011841,
            25.13238348114432
          ],
          [
            121.80803969803101,
            25.132490038801066
          ],
          [
            121.80782516918967,
            25.132553887396664
          ],
          [
            121.80764750519016,
            25.132615313963544
          ],
          [
            121.80761600163979,
            25.132626246617082
          ],
          [
            121.80740582247323,
            25.132716729540405
          ],
          [
            121.8073287833375,
            25.132752248766906
          ],
          [
            121.80723444893765,
            25.13280283903454
          ],
          [
            121.80710811261743,
            25.132871550510174
          ],
          [
            121.80694925749705,
            25.132973308624937
          ],
          [
            121.80667460138031,
            25.133164059609168
          ],
          [
            121.80647385068367,
            25.133305739847835
          ],
          [
            121.80616172575048,
            25.133512961639635
          ],
          [
            121.80575298800498,
            25.133794193207947
          ],
          [
            121.8052886922793,
            25.134105534909022
          ],
          [
            121.80499775460655,
            25.134304974685694
          ],
          [
            121.804729834294,
            25.13448183714421
          ],
          [
            121.80459919455144,
            25.134563226657104
          ],
          [
            121.80450112320051,
            25.134623558287693
          ],
          [
            121.80437020291647,
            25.13468790493001
          ],
          [
            121.80420368109111,
            25.13476753891284
          ],
          [
            121.803927745333,
            25.134882261024927
          ],
          [
            121.80339904534902,
            25.13509454292606
          ],
          [
            121.8029581165896,
            25.13527141035735
          ],
          [
            121.80294822584008,
            25.135275445148636
          ],
          [
            121.80294819614876,
            25.13527545433719
          ],
          [
            121.80294319136159,
            25.135277485596028
          ],
          [
            121.80267698089976,
            25.135385977802386
          ],
          [
            121.80250692886464,
            25.13545990550516
          ],
          [
            121.8023921401014,
            25.13551488263657
          ],
          [
            121.80227881305294,
            25.135575024608453
          ],
          [
            121.80217626067547,
            25.13563741021315
          ],
          [
            121.80207283537615,
            25.13571192460534
          ],
          [
            121.80198949591622,
            25.135774856069688
          ],
          [
            121.8019462762888,
            25.135811209617263
          ],
          [
            121.80186994849684,
            25.135887861202296
          ],
          [
            121.80176801054911,
            25.13599733141983
          ],
          [
            121.80159235917756,
            25.136196628264255
          ],
          [
            121.80149922934237,
            25.136304904138125
          ],
          [
            121.80137536017736,
            25.13643054388538
          ],
          [
            121.80126826257151,
            25.13651998223997
          ],
          [
            121.80123110926982,
            25.136549866064886
          ],
          [
            121.80108172548506,
            25.136669883905252
          ],
          [
            121.80105294674337,
            25.136691335722404
          ],
          [
            121.80102393813588,
            25.136712517947366
          ],
          [
            121.80099472964893,
            25.136733466528494
          ],
          [
            121.80096536130354,
            25.13675423541518
          ],
          [
            121.80093585305137,
            25.136774842554818
          ],
          [
            121.80090625477149,
            25.13679533281589
          ],
          [
            121.80087658659218,
            25.136815751227847
          ],
          [
            121.80084689827466,
            25.136836124604596
          ],
          [
            121.80043494238404,
            25.137118659200702
          ],
          [
            121.80000419083763,
            25.137413300938938
          ],
          [
            121.79991505448002,
            25.13747273275416
          ],
          [
            121.79975343911597,
            25.137580402305804
          ],
          [
            121.79963216872665,
            25.137662423058842
          ],
          [
            121.79953350641549,
            25.13773175522673
          ],
          [
            121.79941270289808,
            25.137794138146887
          ],
          [
            121.79930688864037,
            25.137843467373507
          ],
          [
            121.79919827583576,
            25.13788795474603
          ],
          [
            121.79909656945735,
            25.13792391879991
          ],
          [
            121.79900642147939,
            25.13794994420356
          ],
          [
            121.79890068490691,
            25.137974681406924
          ],
          [
            121.79879547778911,
            25.137993917842028
          ],
          [
            121.79865766020049,
            25.138012824445173
          ],
          [
            121.79857527647289,
            25.138020418411603
          ],
          [
            121.7984960090616,
            25.138022262979163
          ],
          [
            121.79837178908305,
            25.138018445658066
          ],
          [
            121.79825310455725,
            25.13801029221944
          ],
          [
            121.79816149361207,
            25.13799895954748
          ],
          [
            121.79813664144977,
            25.137994498353446
          ],
          [
            121.79794126587916,
            25.13796649070047
          ],
          [
            121.79786744712305,
            25.137944535779845
          ],
          [
            121.79767115655882,
            25.137877948510727
          ],
          [
            121.79756822875707,
            25.13783435740165
          ],
          [
            121.79737191839374,
            25.137724969734435
          ],
          [
            121.79734300687174,
            25.137707792234167
          ],
          [
            121.79724079544243,
            25.13764008417568
          ],
          [
            121.79714018338348,
            25.13756666196223
          ],
          [
            121.7971029080821,
            25.13753671917207
          ],
          [
            121.7969622487003,
            25.137395868072225
          ],
          [
            121.79676377743138,
            25.137136695328962
          ],
          [
            121.7966313760246,
            25.136909639548378
          ],
          [
            121.79660915039729,
            25.136857516008916
          ],
          [
            121.7965911644765,
            25.13681533620207
          ],
          [
            121.79655726965765,
            25.13672093568948
          ],
          [
            121.79653190693008,
            25.136633142680946
          ],
          [
            121.79650736947158,
            25.136525800356395
          ],
          [
            121.7964964929231,
            25.136462006220036
          ],
          [
            121.79648429361112,
            25.136331893008283
          ],
          [
            121.79648162236884,
            25.13622586852573
          ],
          [
            121.79648446751337,
            25.136104927783773
          ],
          [
            121.79649264168874,
            25.136016629479943
          ],
          [
            121.79650944966626,
            25.135920060567976
          ],
          [
            121.79653334527322,
            25.13579702057485
          ],
          [
            121.79658663090332,
            25.13566106649597
          ],
          [
            121.79667766954167,
            25.135442342470114
          ],
          [
            121.7967275023766,
            25.135345920956674
          ],
          [
            121.79681645429548,
            25.13520151470587
          ],
          [
            121.79686290768213,
            25.135142151795275
          ],
          [
            121.79693684289266,
            25.13505857333202
          ],
          [
            121.79703336179385,
            25.134953992386205
          ],
          [
            121.79715628296151,
            25.13481780795825
          ],
          [
            121.79729839384194,
            25.13466183085763
          ],
          [
            121.79740419976153,
            25.134529042444733
          ],
          [
            121.79755543479013,
            25.13437323266608
          ],
          [
            121.79762356917321,
            25.13429600445168
          ],
          [
            121.79767256944851,
            25.13423189709246
          ],
          [
            121.79772884227053,
            25.134146941817086
          ],
          [
            121.79775135771517,
            25.134109355826688
          ],
          [
            121.79788694534746,
            25.133909692356774
          ],
          [
            121.79799272191701,
            25.13371306913435
          ],
          [
            121.79808540476358,
            25.133439700030234
          ],
          [
            121.7982058389598,
            25.133075417318206
          ],
          [
            121.79822167367003,
            25.13302313410824
          ],
          [
            121.79827719644125,
            25.13286870582069
          ],
          [
            121.79835982543977,
            25.132658358608804
          ],
          [
            121.79844186800472,
            25.13246462539973
          ],
          [
            121.79851665433884,
            25.132341536555437
          ],
          [
            121.79859257671747,
            25.132204069521315
          ],
          [
            121.79866144520588,
            25.132078367394005
          ],
          [
            121.79871851341119,
            25.13199397620621
          ],
          [
            121.79899443150275,
            25.131620675661182
          ],
          [
            121.7991530105403,
            25.13141323163906
          ],
          [
            121.79943178007699,
            25.131038100364968
          ],
          [
            121.7995068233569,
            25.130933435096566
          ],
          [
            121.79964599102553,
            25.130749973441308
          ],
          [
            121.799746756947,
            25.130556815565892
          ],
          [
            121.79981510224655,
            25.130416572182146
          ],
          [
            121.79985104432599,
            25.130325794674768
          ],
          [
            121.79990248971868,
            25.13010309355971
          ],
          [
            121.79992660200523,
            25.129937865595178
          ],
          [
            121.79993046469212,
            25.12975898877784
          ],
          [
            121.79992984735502,
            25.12966268504907
          ],
          [
            121.79989529126364,
            25.129488132209325
          ],
          [
            121.79987635542889,
            25.12938840656257
          ],
          [
            121.79985274536014,
            25.129298799062312
          ],
          [
            121.79984449877932,
            25.129273539042057
          ],
          [
            121.79975361929803,
            25.129017192593782
          ],
          [
            121.7996204356018,
            25.128678543465877
          ],
          [
            121.79957818243857,
            25.128572145742986
          ],
          [
            121.79954848566223,
            25.12845994769914
          ],
          [
            121.79952627389305,
            25.128259075692803
          ],
          [
            121.79951968633962,
            25.12817940601363
          ],
          [
            121.79951774942602,
            25.12807989552814
          ],
          [
            121.79952179805615,
            25.127988901945827
          ],
          [
            121.79953315849171,
            25.127921268614475
          ],
          [
            121.79956693802141,
            25.127783224960435
          ],
          [
            121.79958727155255,
            25.12769710872893
          ],
          [
            121.7996056553553,
            25.12762529380165
          ],
          [
            121.79964684669173,
            25.12752142497556
          ],
          [
            121.79967187865238,
            25.127459387237185
          ],
          [
            121.79974095055329,
            25.127280194608794
          ],
          [
            121.79991361401814,
            25.126880854025828
          ],
          [
            121.80003327745295,
            25.126611599071847
          ],
          [
            121.80007158378594,
            25.12653077526655
          ],
          [
            121.80010672354234,
            25.126444895000102
          ],
          [
            121.80013859093454,
            25.12634989639759
          ],
          [
            121.8001703944594,
            25.126235967124927
          ],
          [
            121.80019434458622,
            25.12612971764815
          ],
          [
            121.80021917214036,
            25.126030297369958
          ],
          [
            121.80023164272014,
            25.125936793731288
          ],
          [
            121.80023471713857,
            25.125833338173035
          ],
          [
            121.80023287034959,
            25.125730992503733
          ],
          [
            121.80022446687484,
            25.125642043174825
          ],
          [
            121.80021270924462,
            25.125546630091364
          ],
          [
            121.80019749958961,
            25.12546017302933
          ],
          [
            121.80013406586858,
            25.125241125213954
          ],
          [
            121.80012391529732,
            25.12520668530866
          ],
          [
            121.80009289147863,
            25.125137321718697
          ],
          [
            121.80005129146899,
            25.125054943153163
          ],
          [
            121.79999646272594,
            25.12495727089248
          ],
          [
            121.79993327412402,
            25.12485647501732
          ],
          [
            121.79986516474106,
            25.124765970121956
          ],
          [
            121.79979720471167,
            25.12468468163201
          ],
          [
            121.79979300445993,
            25.12467924255987
          ],
          [
            121.79977578487161,
            25.12465716353267
          ],
          [
            121.79975849611314,
            25.12463512098718
          ],
          [
            121.79974114815917,
            25.124613123897237
          ],
          [
            121.79972378043841,
            25.124591135939383
          ],
          [
            121.79919526413293,
            25.12392221997714
          ],
          [
            121.79912561920581,
            25.123840922182076
          ],
          [
            121.79906425215883,
            25.12376690116339
          ],
          [
            121.7988904912909,
            25.123562711157387
          ],
          [
            121.79881703699301,
            25.123487211444594
          ],
          [
            121.79867309784032,
            25.123333812597643
          ],
          [
            121.79864311179686,
            25.12330185372647
          ],
          [
            121.79837403250477,
            25.1229976084002
          ],
          [
            121.79831219568474,
            25.12290609395293
          ],
          [
            121.79826205412327,
            25.12281977962407
          ],
          [
            121.79819263497959,
            25.122646361800697
          ],
          [
            121.79816326122096,
            25.122560549478045
          ],
          [
            121.79813825913348,
            25.12247147267482
          ],
          [
            121.79811296201433,
            25.122346133304386
          ],
          [
            121.7980711601249,
            25.122101040469246
          ],
          [
            121.79804807372095,
            25.121714545749562
          ],
          [
            121.79801924236563,
            25.121000765649512
          ],
          [
            121.79799665692259,
            25.120624153462494
          ],
          [
            121.79799972082097,
            25.12042260321387
          ],
          [
            121.79803171679801,
            25.120167218665582
          ],
          [
            121.79806311554697,
            25.120055007182135
          ],
          [
            121.79812756559815,
            25.119881987892864
          ],
          [
            121.79820581278743,
            25.119674525932783
          ],
          [
            121.79820712868946,
            25.11967102513774
          ],
          [
            121.79822178977355,
            25.11963217233752
          ],
          [
            121.798266152933,
            25.119514573699835
          ],
          [
            121.79829330092673,
            25.119442585283746
          ],
          [
            121.7983564681154,
            25.11919430908977
          ],
          [
            121.79838501537819,
            25.119014161592947
          ],
          [
            121.79838501222011,
            25.118941949249475
          ],
          [
            121.79838393876163,
            25.11884693876594
          ],
          [
            121.79837353145004,
            25.118723983733226
          ],
          [
            121.79831246590426,
            25.11840895788214
          ],
          [
            121.79819410988884,
            25.118024086403892
          ],
          [
            121.79818460811167,
            25.117993172638553
          ],
          [
            121.79817986644234,
            25.117976081696746
          ],
          [
            121.79817801760875,
            25.11796943464361
          ],
          [
            121.79817801862376,
            25.11796943824921
          ],
          [
            121.79816044250386,
            25.117906014158713
          ],
          [
            121.79809521451142,
            25.117670553425288
          ],
          [
            121.79807816217138,
            25.117608372320333
          ],
          [
            121.7980425370697,
            25.11739340750427
          ],
          [
            121.798008540646,
            25.117007792766717
          ],
          [
            121.79799585629398,
            25.11684864894114
          ],
          [
            121.79799556419421,
            25.116844894999975
          ],
          [
            121.79799393444033,
            25.116824492195644
          ],
          [
            121.79798728495804,
            25.11674111225511
          ],
          [
            121.79798141219118,
            25.11669488605029
          ],
          [
            121.79796213344886,
            25.116543288736015
          ],
          [
            121.79792057334997,
            25.116321287123778
          ],
          [
            121.79789861995147,
            25.116202131604226
          ],
          [
            121.797873584012,
            25.11608315516658
          ],
          [
            121.7978362348856,
            25.115961419323003
          ],
          [
            121.79775716219065,
            25.115703906013394
          ],
          [
            121.79774670242402,
            25.11567811605345
          ],
          [
            121.79769636209812,
            25.11555147581568
          ],
          [
            121.79743551042546,
            25.11497639858725
          ],
          [
            121.79736069868359,
            25.114843552401947
          ],
          [
            121.79727595855536,
            25.114624626467084
          ],
          [
            121.79721042124172,
            25.114383723147913
          ],
          [
            121.7971949102673,
            25.11433125642108
          ],
          [
            121.79717622543572,
            25.114199155528844
          ],
          [
            121.7971760779768,
            25.11415960605142
          ],
          [
            121.79717605855639,
            25.11415508328767
          ],
          [
            121.79717590528166,
            25.114116165778974
          ],
          [
            121.79717583072313,
            25.114097027496037
          ],
          [
            121.7971757585654,
            25.11407825933507
          ],
          [
            121.79718491578632,
            25.113984295131743
          ],
          [
            121.79719182379849,
            25.113913508050743
          ],
          [
            121.7972306294278,
            25.113660777090494
          ],
          [
            121.797287904354,
            25.11348402307195
          ],
          [
            121.79731330736449,
            25.113421324632824
          ],
          [
            121.79736048821358,
            25.113322515704674
          ],
          [
            121.79740805178128,
            25.113241444097998
          ],
          [
            121.79753757789713,
            25.113053757051432
          ],
          [
            121.79757067851011,
            25.113006878799734
          ],
          [
            121.7976001895913,
            25.112970672515218
          ],
          [
            121.79770922269422,
            25.11286281902075
          ],
          [
            121.79777189971395,
            25.11280052481367
          ],
          [
            121.79785578106731,
            25.11272837560987
          ],
          [
            121.79790727869562,
            25.11268674267438
          ],
          [
            121.79800871730535,
            25.11261419195964
          ],
          [
            121.79807220859827,
            25.11257197983795
          ],
          [
            121.79820584823106,
            25.112508021541565
          ],
          [
            121.79888312565579,
            25.112209430526512
          ],
          [
            121.79937339246597,
            25.111893211677653
          ]
        ]
      }
    }
  ]
}