{
  "type": "FeatureCollection",
  "features": [
    {
      "type": "Feature",
      "properties": {
        "track_id": "SH-0",
        "line_id": "SH",
        "direction": 0,
        "name": "沙崙線 (中洲→沙崙)",
        "origin": "中洲",
        "destination": "沙崙"
      },
      "geometry": {
        "type": "MultiLineString",
        "coordinates": [
          [
            [
              120.28636585786236,
              22.923862828673297
            ],
            [
              120.28652218951451,
              22.923561491817345
            ],
            [
              120.28655597821437,
              22.923496342580936
            ],
            [
              120.28664041384687,
              22.923333543791212
            ],
            [
              120.28664076346114,
              22.923332869892846
            ],
            [
              120.28690793747718,
              22.922817721708242
            ],
            [
              120.28694679075176,
              22.922742805331822
            ],
            [
              120.2873037843454,
              22.92205446772822
            ],
            [
              120.28743746702905,
              22.92178710504731
            ],
            [
              120.28752075047394,
              22.921623683769283
            ],
            [
              120.28764478569217,
              22.921374447539968
            ],
            [
              120.28777222694056,
              22.92112888737069
            ],
            [
              120.2878937308623,
              22.920884423833414
            ],
            [
              120.28795172046489,
              22.920766462276223
            ],
            [
              120.28797355275165,
              22.920722052335204
            ],
            [
              120.2880203388721,
              22.920626878242448
            ],
            [
              120.28809326814523,
              22.920482043392397
            ],
            [
              120.28818306072108,
              22.920306753414366
            ],
            [
              120.28829958896445,
              22.920075806397385
            ],
            [
              120.28841544725549,
              22.919845010697163
            ],
            [
              120.28855021384038,
              22.91957346169464
            ],
            [
              120.28868574333939,
              22.91931365090191
            ],
            [
              120.28880382079475,
              22.919070570902345
            ],
            [
              120.28889961487246,
              22.91888347035314
            ],
            [
              120.28891257413856,
              22.918858157631682
            ],
            [
              120.28894124894406,
              22.918801670287976
            ],
            [
              120.28903476796174,
              22.918617436524535
            ],
            [
              120.28915314096812,
              22.91838062459937
            ],
            [
              120.28928542324095,
              22.9181205404068
            ],
            [
              120.2893965507246,
              22.917896166749326
            ],
            [
              120.28940862370618,
              22.917872153996683
            ],
            [
              120.28942055584693,
              22.917848416038336
            ],
            [
              120.2895265622778,
              22.91763876049494
            ],
            [
              120.28961328569683,
              22.917465235721238
            ],
            [
              120.28968552712107,
              22.917319473132356
            ],
            [
              120.28974246643693,
              22.917210708029376
            ],
            [
              120.28982068886003,
              22.917055288875716
            ],
            [
              120.28989171111205,
              22.91690712587787
            ],
            [
              120.28992452952414,
              22.916836157729268
            ],
            [
              120.2899484158309,
              22.91678288524035
            ],
            [
              120.28997417708372,
              22.91672187489849
            ],
            [
              120.29001177528711,
              22.916621295016895
            ],
            [
              120.29004045044033,
              22.9165372350876
            ],
            [
              120.29004930343903,
              22.916505518545442
            ],
            [
              120.29007648081004,
              22.91641236016073
            ],
            [
              120.29008961507922,
              22.916358225050715
            ],
            [
              120.29011003338323,
              22.916267771739683
            ],
            [
              120.29011994027202,
              22.916214881031642
            ],
            [
              120.29013846780222,
              22.916094578485467
            ],
            [
              120.29015608072538,
              22.91592507993882
            ],
            [
              120.29016083579343,
              22.915773496121123
            ],
            [
              120.29015633689451,
              22.915630117457702
            ],
            [
              120.29015571109103,
              22.91557807187
            ],
            [
              120.29014498784889,
              22.915488234307357
            ],
            [
              120.29013522811414,
              22.915411056177373
            ],
            [
              120.29012380065554,
              22.91533290253987
            ],
            [
              120.29010264773713,
              22.915224155772172
            ],
            [
              120.29008073099786,
              22.91513816386795
            ],
            [
              120.29005497765722,
              22.915046123443904
            ],
            [
              120.29001795980564,
              22.914931322246414
            ],
            [
              120.28996271042168,
              22.914784957045608
            ],
            [
              120.2899402670332,
              22.914728982350322
            ],
            [
              120.28990418743372,
              22.9146528604917
            ],
            [
              120.2898673398409,
              22.91458045569476
            ],
            [
              120.28981145367652,
              22.91447722285542
            ],
            [
              120.28974763118568,
              22.914372934081932
            ],
            [
              120.28968667250163,
              22.914278810006238
            ],
            [
              120.2896163855876,
              22.914185848839498
            ],
            [
              120.28957496068075,
              22.914131364097493
            ],
            [
              120.28948006083593,
              22.914020587892864
            ],
            [
              120.2894105934629,
              22.91394531172398
            ],
            [
              120.28935202259818,
              22.913889321623348
            ],
            [
              120.28928405625783,
              22.913822709510086
            ],
            [
              120.28921057554129,
              22.91375831673534
            ],
            [
              120.28917180368569,
              22.913726399764546
            ],
            [
              120.28909278925596,
              22.913662521285882
            ],
            [
              120.28900903200254,
              22.913600587447462
            ],
            [
              120.2889508946096,
              22.9135602306744
            ],
            [
              120.28886041642699,
              22.913500476401055
            ],
            [
              120.28876310326105,
              22.91344420066766
            ],
            [
              120.28867941191818,
              22.91339789938865
            ],
            [
              120.28856443035731,
              22.913338625809637
            ],
            [
              120.2884532872497,
              22.91328878257633
            ],
            [
              120.28834483506579,
              22.913245595851105
            ],
            [
              120.28826022987899,
              22.91321212599647
            ],
            [
              120.2881708576089,
              22.913179640716564
            ],
            [
              120.2879838214644,
              22.91311615174773
            ],
            [
              120.28784976595917,
              22.913072787618145
            ],
            [
              120.28767074557118,
              22.91301237202927
            ],
            [
              120.28743879214036,
              22.91293437332329
            ],
            [
              120.28724410505488,
              22.912871875926314
            ],
            [
              120.28715344073358,
              22.912841612974223
            ],
            [
              120.28702684670658,
              22.91279979783723
            ],
            [
              120.28691222018176,
              22.91276159518149
            ],
            [
              120.28687432308564,
              22.91274896318313
            ],
            [
              120.28672140592309,
              22.91269697886068
            ],
            [
              120.28653998392996,
              22.912639487899792
            ],
            [
              120.28647428011334,
              22.912617402571538
            ],
            [
              120.2863537119334,
              22.912576871898413
            ],
            [
              120.28609741317928,
              22.912492532757707
            ],
            [
              120.28582679294264,
              22.91240202882699
            ],
            [
              120.28558603543817,
              22.912322871721553
            ],
            [
              120.28541368890023,
              22.91226613641191
            ],
            [
              120.28514172749982,
              22.912175590078913
            ],
            [
              120.28501945437979,
              22.91213595647834
            ],
            [
              120.28476630789646,
              22.912051619473516
            ],
            [
              120.28468451658935,
              22.9120246712892
            ],
            [
              120.28454092015464,
              22.91197735582019
            ],
            [
              120.2843435155212,
              22.911912187756396
            ],
            [
              120.28408822559967,
              22.911826683242868
            ],
            [
              120.28386253790671,
              22.91175288054505
            ],
            [
              120.28355315887352,
              22.911649693751208
            ],
            [
              120.28325506609299,
              22.91155142734779
            ],
            [
              120.2831568356949,
              22.911518473992125
            ],
            [
              120.28305634529124,
              22.911485236757827
            ],
            [
              120.28305555610147,
              22.91148497492843
            ],
            [
              120.28305535661315,
              22.91148490900968
            ],
            [
              120.28239019763615,
              22.91126489491957
            ],
            [
              120.28165519808388,
              22.911021608977368
            ],
            [
              120.28083882370308,
              22.910747332158707
            ],
            [
              120.28062641786164,
              22.910666049233146
            ],
            [
              120.2804165632212,
              22.910581830984107
            ],
            [
              120.28020296836189,
              22.910493216704925
            ],
            [
              120.28009670650668,
              22.910448205713905
            ],
            [
              120.27991068409102,
              22.910370313995305
            ],
            [
              120.27967496464044,
              22.91027050676921
            ],
            [
              120.27951816761997,
              22.910205423895906
            ],
            [
              120.279321810758,
              22.91012354108283
            ],
            [
              120.27923268813676,
              22.910085572371184
            ],
            [
              120.27923179334302,
              22.910085190843507
            ],
            [
              120.27909777443887,
              22.910028096192928
            ],
            [
              120.27887434675316,
              22.909934117572856
            ],
            [
              120.27879076009694,
              22.909898938835013
            ],
            [
              120.27868519406583,
              22.90985450891929
            ],
            [
              120.27848115847475,
              22.909769006983172
            ],
            [
              120.27834618182177,
              22.90971249613765
            ],
            [
              120.27815696076871,
              22.909632294165153
            ],
            [
              120.27801272417152,
              22.909572415094658
            ],
            [
              120.27782249274803,
              22.90949127620821
            ],
            [
              120.27770559816067,
              22.909442835257032
            ],
            [
              120.2776200114411,
              22.909407365977142
            ],
            [
              120.27736520469288,
              22.909299918328554
            ],
            [
              120.27711531498039,
              22.909194715016742
            ],
            [
              120.2768716214472,
              22.90909244457999
            ],
            [
              120.27665493138691,
              22.9090018293641
            ],
            [
              120.2764125842437,
              22.908899835275243
            ],
            [
              120.27619774261588,
              22.908808190279423
            ],
            [
              120.27557405207214,
              22.90854673875743
            ],
            [
              120.27500191741336,
              22.90830632869603
            ],
            [
              120.27467387464213,
              22.90816848512935
            ],
            [
              120.27363197080666,
              22.90773019243523
            ],
            [
              120.27349258015302,
              22.907671565028284
            ],
            [
              120.27336817050796,
              22.907619239654377
            ],
            [
              120.273322062672,
              22.90759984564326
            ],
            [
              120.2732739230835,
              22.907579599795792
            ],
            [
              120.27271957006415,
              22.907346439392615
            ],
            [
              120.27266984809177,
              22.907325375198187
            ],
            [
              120.27224846664002,
              22.907146849406747
            ],
            [
              120.27170022277193,
              22.906917594726274
            ],
            [
              120.27145919074604,
              22.906816802981886
            ],
            [
              120.27123415664587,
              22.906721365193633
            ],
            [
              120.27104619574509,
              22.906633311513954
            ],
            [
              120.27089870260322,
              22.90655600790191
            ],
            [
              120.27082483548864,
              22.906511199967923
            ],
            [
              120.270749021311,
              22.90646521002407
            ],
            [
              120.27066346861903,
              22.90640949934458
            ],
            [
              120.27050418058884,
              22.906290961122338
            ],
            [
              120.27040143802668,
              22.906204478193953
            ],
            [
              120.27029845560423,
              22.906110381531466
            ],
            [
              120.2702219764677,
              22.906036994783424
            ],
            [
              120.27012798563582,
              22.905944331788227
            ],
            [
              120.27003766461982,
              22.905854819122982
            ],
            [
              120.26993350121144,
              22.905751271080465
            ],
            [
              120.26985803318853,
              22.905676448470636
            ],
            [
              120.26973433819413,
              22.905552439931412
            ],
            [
              120.26958616027325,
              22.905403884490422
            ],
            [
              120.26940811194507,
              22.905225170245068
            ],
            [
              120.26926293631414,
              22.9050896554692
            ],
            [
              120.26911350854864,
              22.904964244004965
            ],
            [
              120.26910240533937,
              22.904954924202382
            ],
            [
              120.26909226918178,
              22.90494740588292
            ],
            [
              120.2690249307718,
              22.90489745549587
            ],
            [
              120.26891442551293,
              22.904820750987078
            ],
            [
              120.26882186862161,
              22.904762755854925
            ],
            [
              120.2686956409718,
              22.904691109882062
            ],
            [
              120.26858810087873,
              22.904634833663202
            ],
            [
              120.26845399776813,
              22.904571672269615
            ],
            [
              120.26835161156033,
              22.90452572051759
            ],
            [
              120.26820219004638,
              22.904463903433633
            ],
            [
              120.26795563208388,
              22.9043633393082
            ],
            [
              120.26770941173949,
              22.904261870620626
            ],
            [
              120.26746417074851,
              22.90416142920898
            ],
            [
              120.26731093776218,
              22.904098350253943
            ],
            [
              120.26696081430745,
              22.903954219733755
            ],
            [
              120.26691625772186,
              22.903935877671408
            ],
            [
              120.26681140506876,
              22.903892714773118
            ],
            [
              120.26677532239242,
              22.903877927277488
            ],
            [
              120.26664227492381,
              22.9038234058584
            ],
            [
              120.26654952836226,
              22.90378540079593
            ],
            [
              120.26608898556168,
              22.90359667172511
            ],
            [
              120.26553877183133,
              22.903381087917676
            ],
            [
              120.26551562933399,
              22.903373508356133
            ],
            [
              120.26529034716904,
              22.903299734855782
            ],
            [
              120.26518711347069,
              22.903267453610088
            ],
            [
              120.2650670474671,
              22.90323508271086
            ],
            [
              120.2649592674578,
              22.903207543789105
            ],
            [
              120.26478184163678,
              22.90316526927439
            ],
            [
              120.26466052608677,
              22.90314069449104
            ],
            [
              120.26453382603324,
              22.90311739867382
            ],
            [
              120.26442957541286,
              22.903099866882986
            ],
            [
              120.26430347774098,
              22.903080563269395
            ],
            [
              120.26420316293319,
              22.903068860566727
            ],
            [
              120.2640751439114,
              22.903054109996418
            ],
            [
              120.26392840713444,
              22.903040952262366
            ],
            [
              120.26376507196923,
              22.903030419364722
            ],
            [
              120.26374086588545,
              22.9030297581693
            ],
            [
              120.26346549924463,
              22.903022222259732
            ],
            [
              120.26335160045124,
              22.90302209163088
            ],
            [
              120.26323191153163,
              22.90302361552085
            ],
            [
              120.26307313122894,
              22.903028452774787
            ],
            [
              120.26288499269819,
              22.90303473038379
            ],
            [
              120.26268331691418,
              22.903043538466775
            ],
            [
              120.26249194649478,
              22.903051187671153
            ],
            [
              120.26230165031197,
              22.90305918117163
            ],
            [
              120.26205953998254,
              22.903069119171874
            ],
            [
              120.2616621163175,
              22.903085710298008
            ],
            [
              120.26142044333156,
              22.903092813833677
            ],
            [
              120.2613043073892,
              22.903093960867537
            ],
            [
              120.26115732387186,
              22.903093835602082
            ],
            [
              120.26105574073323,
              22.90309391952143
            ],
            [
              120.26093290882139,
              22.90309191607357
            ],
            [
              120.26082842999645,
              22.903089972618567
            ],
            [
              120.26070940390396,
              22.90308753247617
            ],
            [
              120.26061442332953,
              22.903086241713154
            ],
            [
              120.26046841807563,
              22.90308421315895
            ],
            [
              120.26032042592082,
              22.90308099766841
            ],
            [
              120.26009907711556,
              22.90307698717129
            ],
            [
              120.25993033734206,
              22.903074182215065
            ],
            [
              120.25978045773824,
              22.903071217504845
            ],
            [
              120.25964024597774,
              22.90306890634047
            ],
            [
              120.25947965733664,
              22.903066940774877
            ],
            [
              120.25932604017392,
              22.90306369633966
            ],
            [
              120.25915541445967,
              22.903060329115124
            ],
            [
              120.25897378022992,
              22.903051723357933
            ],
            [
              120.25886947958551,
              22.90304104351822
            ],
            [
              120.25880482213344,
              22.903032788043475
            ],
            [
              120.25872804204323,
              22.90301929439725
            ],
            [
              120.25865554346021,
              22.90300321092722
            ],
            [
              120.25854365173414,
              22.902974219002584
            ],
            [
              120.25847610888802,
              22.902952736772843
            ],
            [
              120.2584031822857,
              22.902926826207405
            ],
            [
              120.25834035702151,
              22.90290340997049
            ],
            [
              120.25829070235342,
              22.902881267955696
            ],
            [
              120.25819630755508,
              22.902836831634094
            ],
            [
              120.25813847324982,
              22.902807641154237
            ],
            [
              120.25806371320552,
              22.902763293710127
            ],
            [
              120.25805758567758,
              22.902758693954777
            ],
            [
              120.2580556216834,
              22.90275742054063
            ],
            [
              120.25805552163666,
              22.90275735595825
            ],
            [
              120.25795842927772,
              22.90269440197967
            ],
            [
              120.25790352195467,
              22.902653258109307
            ],
            [
              120.25774032090325,
              22.902518160905263
            ],
            [
              120.2576360471403,
              22.90241238123281
            ],
            [
              120.2575544975523,
              22.902317343571312
            ],
            [
              120.2574657069883,
              22.9021984536739
            ],
            [
              120.25738551868982,
              22.90206683686761
            ],
            [
              120.25729444113452,
              22.901883074139974
            ],
            [
              120.25716520805656,
              22.901591375151337
            ],
            [
              120.25707881523627,
              22.901402318956798
            ],
            [
              120.25703272608152,
              22.90130749286303
            ],
            [
              120.2569901016869,
              22.901229212949527
            ],
            [
              120.25693790520647,
              22.901143654984704
            ],
            [
              120.25687657274295,
              22.901051108162825
            ],
            [
              120.25677550600805,
              22.900924690608413
            ],
            [
              120.25667347828347,
              22.90082243723531
            ]
          ],
          [
            [
              120.25166891315295,
              22.907331373638915
            ],
            [
              120.25174759660365,
              22.9067041327902
            ],
            [
              120.25178399365183,
              22.906486284689752
            ],
            [
              120.2518273315586,
              22.90628110535889
            ],
            [
              120.25192817347462,
              22.905909777287984
            ],
            [
              120.25205979258315,
              22.905437893464853
            ],
            [
              120.25217912705641,
              22.90501326234148
            ],
            [
              120.25231016388507,
              22.904550533113554
            ],
            [
              120.25249257065624,
              22.903909122512054
            ],
            [
              120.252669824095,
              22.903270028032594
            ],
            [
              120.25278427873681,
              22.902857352915618
            ],
            [
              120.25293731501016,
              22.90231363332068
            ],
            [
              120.2530913018599,
              22.901762520353017
            ],
            [
              120.25316609511283,
              22.901527856240214
            ],
            [
              120.25321414756517,
              22.901402476761437
            ],
            [
              120.25327670793595,
              22.90127671030792
            ],
            [
              120.2533192173162,
              22.901200580441415
            ],
            [
              120.25332023190856,
              22.901198995873813
            ],
            [
              120.25338521806239,
              22.901097646087017
            ],
            [
              120.25339345758465,
              22.901084794931045
            ],
            [
              120.2534528150377,
              22.90100793957626
            ],
            [
              120.25350924015453,
              22.900934878505357
            ],
            [
              120.25362203554468,
              22.900811036528424
            ],
            [
              120.25375976283223,
              22.900686543963843
            ],
            [
              120.25394448377577,
              22.90055018030457
            ],
            [
              120.25412251039344,
              22.900444754459723
            ],
            [
              120.25427227412686,
              22.900372953808777
            ],
            [
              120.2544372517942,
              22.900309950380045
            ],
            [
              120.25458224876829,
              22.900266344087896
            ],
            [
              120.25477869686952,
              22.90022458633208
            ],
            [
              120.25493282581434,
              22.900201142077474
            ],
            [
              120.25513612736745,
              22.900190193124427
            ],
            [
              120.25528576333446,
              22.90019431688489
            ],
            [
              120.25546506541325,
              22.900211385380643
            ],
            [
              120.25568460199234,
              22.90025329217214
            ],
            [
              120.25585139939872,
              22.900299863309215
            ],
            [
              120.25598041256312,
              22.90034559094624
            ],
            [
              120.25617223024611,
              22.900434179552366
            ],
            [
              120.25625207003868,
              22.900477378593596
            ],
            [
              120.25643799963746,
              22.90059531946251
            ],
            [
              120.25658613549444,
              22.900722404419053
            ],
            [
              120.25667347828347,
              22.90082243723531
            ],
            [
              120.25667347828347,
              22.90082243723531
            ],
            [
              120.25649242113955,
              22.900701396746825
            ],
            [
              120.25635000567337,
              22.90060119734214
            ],
            [
              120.25618703251368,
              22.900508333545748
            ],
            [
              120.25595124379778,
              22.900407461950124
            ],
            [
              120.25577278250627,
              22.900352353214895
            ],
            [
              120.25565452054036,
              22.90032395888745
            ],
            [
              120.2555384314016,
              22.90030625751438
            ],
            [
              120.25536429929934,
              22.90029022471833
            ],
            [
              120.25519557745001,
              22.900288558131038
            ],
            [
              120.25500738328532,
              22.900298909735003
            ],
            [
              120.25483072224706,
              22.900328305944512
            ],
            [
              120.25474796917253,
              22.900348691234058
            ],
            [
              120.25463279610211,
              22.900377062546372
            ],
            [
              120.25445218053264,
              22.900443536311062
            ],
            [
              120.2542535378108,
              22.90053773051012
            ],
            [
              120.25403362688661,
              22.900678347890086
            ],
            [
              120.25384905537582,
              22.9008303203422
            ],
            [
              120.2536882675873,
              22.90100868337379
            ],
            [
              120.25355813635237,
              22.90119205666342
            ],
            [
              120.25348315031324,
              22.90132799982025
            ],
            [
              120.25340132908572,
              22.901514381230914
            ],
            [
              120.25332707565512,
              22.901755206671933
            ],
            [
              120.25316448296559,
              22.90234154551244
            ],
            [
              120.25301561655779,
              22.902869061995386
            ],
            [
              120.25297580758603,
              22.90301012513867
            ],
            [
              120.25288414844537,
              22.903514840623263
            ],
            [
              120.25285104069145,
              22.903697146838596
            ],
            [
              120.2526862397795,
              22.904294994532926
            ],
            [
              120.25251876433022,
              22.904882571874786
            ],
            [
              120.25236695676234,
              22.905209108709663
            ],
            [
              120.25214177231328,
              22.905782759261346
            ],
            [
              120.2519380822623,
              22.906517946243586
            ],
            [
              120.25168311241731,
              22.90743034760492
            ],
            [
              120.251574132611,
              22.907820771382102
            ],
            [
              120.25156671493768,
              22.907847345125223
            ],
            [
              120.25153281854541,
              22.90795826085759
            ],
            [
              120.25142859690506,
              22.908299288587813
            ],
            [
              120.25139223094536,
              22.908399414077085
            ]
          ]
        ]
      }
    }
  ]
}