{"type": "FeatureCollection", "features": [{"type": "Feature", "properties": {"track_id": "SH-1", "route_id": "SH", "direction": 1, "name": "\u6c99\u5d19\u7dda (\u6c99\u5d19\u2192\u4e2d\u6d32)"}, "geometry": {"type": "LineString", "coordinates": [[120.28637, 22.92386], [120.28988786491126, 22.916921560821237], [120.28999110462723, 22.9167038014382], [120.2901166702061, 22.91628040467932], [120.2901585115643, 22.915978016154636], [120.29017344762754, 22.915730549916454], [120.29014684097393, 22.915468604416503], [120.29011041336997, 22.915260934218384], [120.28999827436007, 22.91487951595262], [120.28985187378372, 22.914552034168523], [120.28968828654612, 22.914294658397015], [120.2895173335934, 22.91407346647859], [120.28933655969337, 22.913879412489486], [120.28914859073112, 22.913709881226055], [120.28893115891753, 22.913544872963424], [120.28855276575631, 22.913339239022292], [120.28810939593686, 22.91314488099627], [120.28664056650732, 22.912649169656692], [120.28456210825365, 22.911955809293026], [120.28044021264219, 22.910611687167464], [120.27774835535297, 22.90948082958652], [120.27514834780678, 22.90837353995815], [120.27262, 22.90731], [120.27222712119436, 22.907137755179484], [120.27127957951205, 22.906739526209705], [120.27094181883851, 22.906571894413865], [120.27052762903725, 22.906320147411563], [120.26930643892335, 22.905104497957186], [120.26889590993503, 22.90483455559646], [120.26830816234448, 22.90454806979374], [120.26569274593506, 22.903476886668038], [120.2649371821721, 22.903224428283032], [120.26443389003548, 22.90311738930986], [120.26351153132225, 22.903035494905495], [120.2613633212817, 22.903112792081803], [120.25963659882623, 22.903090756058354], [120.25903078329462, 22.903076161008237], [120.25882147237024, 22.90306886348015], [120.25862944086111, 22.903029731579313], [120.25845806193651, 22.90299227467954], [120.25827516340067, 22.902922983386702], [120.25805336146864, 22.902810929459648], [120.25780852031491, 22.902645818220343], [120.25762127721404, 22.902491318471192], [120.25749262274346, 22.90235725756362], [120.25736972808019, 22.902191362115637], [120.25720603037237, 22.901882887718042], [120.25702383762714, 22.901433857056546], [120.25686013991927, 22.901138160962695], [120.25668622005108, 22.900926495502123], [120.25652138284336, 22.900758101435848], [120.25629181300485, 22.900598226001343], [120.25601762369872, 22.90044032925892], [120.25566806673692, 22.90033324267109], [120.25527412092386, 22.900289442640208], [120.25499436966538, 22.900303431695605], [120.25472386592551, 22.900351495384054], [120.25446953152218, 22.900447622753617], [120.25410419925362, 22.900622840399087], [120.25378042552992, 22.900862533539108], [120.25353976889917, 22.901180066199572], [120.25342835638213, 22.901397719890817], [120.25337198668146, 22.90156043258568], [120.25255290105524, 22.90443981440596]]}}]}