{"type": "FeatureCollection", "features": [{"type": "Feature", "properties": {"track_id": "TD-0", "line_id": "TD", "direction": 0, "name": "\u81fa\u6771\u7dda (\u82b1\u84ee\u2192\u81fa\u6771)", "origin": "\u82b1\u84ee", "destination": "\u81fa\u6771"}, "geometry": {"type": "MultiLineString", "coordinates": [[[121.12157070580673, 22.787915039521774], [121.12160722499915, 22.78813139989154], [121.12167668390802, 22.788626197638916], [121.12175848550831, 22.78930952890796], [121.12182339564039, 22.789840023054065], [121.1219011352421, 22.79049488894634], [121.12193572432396, 22.790580994392638], [121.12195540588597, 22.79067742639059], [121.12200308901488, 22.791066310930418], [121.12211095459126, 22.79189228662897], [121.1221884161555, 22.79252079556556], [121.1223327253286, 22.79373598088838], [121.12235307323961, 22.79389611936196], [121.12247402776875, 22.79484801481751], [121.12259017739903, 22.79574243805253], [121.12264190724639, 22.796154040911336], [121.122677828614, 22.796410880701664], [121.12273576606687, 22.796885061417107], [121.1227539524387, 22.797020039395633], [121.12278400168164, 22.797243089827667], [121.12285263389336, 22.797787896902502], [121.122896327009, 22.798128350891364], [121.12291061101797, 22.79823653068242], [121.12292376023176, 22.798333792022092], [121.12292384455793, 22.798334414189643], [121.12297391562937, 22.798704715927833], [121.12301339288189, 22.798973768980716], [121.12301392014669, 22.79897736108615], [121.12305956522613, 22.79937655709241], [121.12309499942839, 22.799646586757316], [121.12312528162917, 22.799894556869823], [121.12323858097284, 22.801001234712828], [121.12357356346891, 22.803571692254682], [121.12362627707019, 22.804164429972843], [121.1236266319188, 22.80456969422728], [121.12362046325035, 22.80497496442212], [121.1235881393948, 22.805313720300795], [121.12354682475734, 22.805697151975647], [121.12345883149575, 22.806224119641325], [121.1233135350343, 22.806974603109122], [121.1231153913376, 22.807985500952828], [121.12299201098642, 22.808512496447584], [121.1227731275574, 22.80932459447227], [121.12235708627583, 22.81060435535226], [121.12193150618995, 22.811784469496267], [121.1212986112645, 22.813576606852543], [121.12056747247802, 22.8156291124574], [121.12017468370927, 22.816812576746493], [121.11992750989577, 22.817718731433587], [121.11971689342694, 22.81873303336629], [121.11956827902166, 22.819760809501105], [121.11948521716756, 22.82069050371979], [121.11944589337747, 22.821596500374625], [121.11946137683589, 22.8226241538724], [121.11951288671139, 22.82333379417247], [121.11954627272009, 22.823793734836393], [121.11967101649392, 22.82465566264632], [121.11982860088963, 22.825537848111278], [121.12002991904161, 22.82638619583442], [121.12024940260966, 22.827153397522313], [121.12043284469942, 22.82771216447814], [121.12114456340622, 22.829739908420756], [121.12196841686784, 22.832074060241162], [121.12281668021147, 22.8344848109574], [121.12398736295806, 22.837815920818098], [121.1245833848003, 22.839505689871274], [121.12532203517404, 22.84160100048016], [121.12611922652304, 22.843872045318008], [121.12673359225313, 22.84561925842722], [121.12744305400669, 22.847633449732175], [121.12768650699002, 22.848333615851683], [121.12812696084617, 22.84960033146788], [121.12883132939196, 22.851598584520588], [121.12915995321973, 22.85251104399078], [121.12941136615017, 22.85313263360321], [121.1297212960138, 22.85379553293449], [121.12999723763923, 22.854314419432836], [121.13046140424088, 22.855098431702032], [121.13079271671995, 22.85559146647301], [121.13107502802117, 22.855978931911338], [121.1314346895533, 22.85643190982669], [121.13152738811063, 22.85654411512783], [121.13166711573898, 22.856713244673802], [121.13209552621854, 22.857184554640728], [121.13236520311399, 22.857459739088508], [121.13305549535866, 22.858127008939395], [121.13313464174377, 22.85820351469052], [121.13339379910785, 22.85842352385059], [121.13388464874981, 22.85880992145901], [121.1348330999976, 22.859525340853025], [121.13499084531567, 22.859640284912718], [121.13527703712681, 22.85984882317851], [121.13557360685176, 22.860064923568657], [121.13648646059467, 22.86075477245192], [121.13703673581884, 22.86116082448737], [121.13778595047596, 22.861724228935113], [121.1382666695213, 22.862074465530565], [121.13900246319456, 22.86260682314449], [121.13953143605002, 22.86300726509241], [121.14009179818363, 22.863406794398752], [121.1402871511874, 22.863548412422883], [121.14054039794141, 22.863735836950966], [121.14062496451984, 22.86379842294981], [121.14075410400338, 22.863890731626014], [121.14117155499679, 22.86418912475241], [121.14173463994084, 22.86461224794138], [121.1419639617995, 22.86478989297615], [121.14213160969213, 22.8649395681765], [121.1424447916918, 22.865224925533532], [121.14272676820038, 22.86551450147938], [121.14288533002464, 22.86568717841566], [121.14309844514128, 22.865934898719868], [121.14323977877721, 22.866113708293824], [121.14350410371176, 22.86644740998385], [121.14365666261135, 22.866664670613247], [121.14393130491906, 22.867087914140015], [121.1441540944412, 22.867454738652167], [121.14537200475414, 22.869621907142154], [121.14557348603438, 22.869997219032786], [121.14580552459402, 22.870457200404896], [121.1460219702416, 22.871004291167683], [121.14642684388788, 22.872131238854926], [121.14683109994148, 22.873333792255], [121.14685248638092, 22.87339741027497], [121.14703620484691, 22.873990056898897], [121.14708991938797, 22.8742164045573], [121.14714282634861, 22.87454785497418], [121.14717314332496, 22.874934368438936], [121.14717313247714, 22.87516307492983], [121.14716638932545, 22.875356709985507], [121.14713366393202, 22.8756395560142], [121.14711248113416, 22.87580887708932], [121.14706646551188, 22.87601901711397], [121.14701369802579, 22.87621950847205], [121.14694537841957, 22.876440661424134], [121.14680914871134, 22.876793980402542], [121.14661611479177, 22.877177007148127], [121.14644287131084, 22.87746281723084], [121.14626541942596, 22.877731997958563], [121.14578297800391, 22.878418389413575], [121.14495512744146, 22.879623349063433], [121.14452501610887, 22.880262453014865], [121.14427945710469, 22.880598946101287], [121.1440634799079, 22.880916802127754], [121.14390508238496, 22.881153198950855], [121.14368856275387, 22.881508323463223], [121.14352642038187, 22.88180599760803], [121.14337603245322, 22.88212310350163], [121.14323341050644, 22.8824557181535], [121.14314881208446, 22.88267893400519], [121.14308677728188, 22.88285724888907], [121.1429884207168, 22.88319638256726], [121.14281849043303, 22.883882743482225], [121.14258390694675, 22.884949741063576], [121.14246160789915, 22.885560719803703], [121.14180543911682, 22.888698310624992], [121.14178261210708, 22.888793377907117], [121.14176022401467, 22.88891504514425], [121.14172087734336, 22.889150480903872], [121.14157353519934, 22.889862574053065], [121.14136936243997, 22.89084116261041], [121.14128652660514, 22.89123639065556], [121.14118569074935, 22.891715014574324], [121.1410800140168, 22.892170331391174], [121.14102931462578, 22.89236612886925], [121.14097544299815, 22.892567248304804], [121.14091743503462, 22.89278305282046], [121.14083972750626, 22.893023211070183], [121.1407458206246, 22.89331618512959], [121.14060486424164, 22.893714230304678], [121.14040190383716, 22.894223579204915], [121.14031753897822, 22.894430437312476], [121.14025230632676, 22.894566508330985], [121.14014160297425, 22.89480498486324], [121.14004975845289, 22.894999747185494], [121.13993671955315, 22.895242641702048], [121.1397866581336, 22.895560265455817], [121.13962630516343, 22.895903142899016], [121.13945328602804, 22.896270355839054], [121.13928048736041, 22.896607137177085], [121.13910929923087, 22.896969849854028], [121.13886630118193, 22.897503249169134], [121.1387131176169, 22.897884231289936], [121.13859153815949, 22.89824051526099], [121.1385602415055, 22.898333629676163], [121.13855957386315, 22.89833561794477], [121.13852657064157, 22.898433813684175], [121.13844944571746, 22.89867805656955], [121.1383572721945, 22.899019492406644], [121.13829349018349, 22.899297319186985], [121.13823876497851, 22.89955828832815], [121.1381864170336, 22.899847158841883], [121.13816544283716, 22.90001173058201], [121.13812896650026, 22.90028773819526], [121.13808366916074, 22.900723508865447], [121.13803239467893, 22.901358217639796], [121.13798533762971, 22.901877278392202], [121.13794601632418, 22.902402266541706], [121.13790128117498, 22.90295181326701], [121.13785064706835, 22.90354755684429], [121.13781605804854, 22.903995942172184], [121.13777549295763, 22.90450676185552], [121.13775185963384, 22.904787497476484], [121.13774746913857, 22.904839657017025], [121.13773643784737, 22.904967680355167], [121.1377140543555, 22.90522745342033], [121.1376726424438, 22.905703551112776], [121.13764321759864, 22.906039608210612], [121.13760920459382, 22.906480452120416], [121.13760385405018, 22.906539627622607], [121.13757040005055, 22.906909633225712], [121.13752955819338, 22.90736135338732], [121.13750195161076, 22.907749533829048], [121.13746637003163, 22.90818051821869], [121.13743252207631, 22.908588868030552], [121.13740334432698, 22.90896717906763], [121.1373672779761, 22.909419780868948], [121.13733187794304, 22.909833424904466], [121.13729855623326, 22.910265617324484], [121.13725966331356, 22.910694200393916], [121.13725658953366, 22.910725112838243], [121.13722841589356, 22.911008453872213], [121.13720938136007, 22.911270439044127], [121.13718412170721, 22.91165875629428], [121.13713600371537, 22.912191801289037], [121.1370479279225, 22.913212965709324], [121.13704034962387, 22.91341403978472], [121.13704519958667, 22.9136506393987], [121.13706473629881, 22.9139088280478], [121.1371218538517, 22.914239987564596], [121.13718407169861, 22.914535724684253], [121.13724242289172, 22.914746672070272], [121.13735748795635, 22.91506981982189], [121.13749121860627, 22.91536387299885], [121.13767911718014, 22.91575804800172], [121.13788151102996, 22.916131512454168], [121.13791897370365, 22.916220736883904], [121.1379801625281, 22.91635058929139], [121.13815392429453, 22.916686356524092], [121.13817070911364, 22.916719130098265], [121.13823787387061, 22.91685027582901], [121.13833961762015, 22.91704894189673], [121.13852239573615, 22.917418925809486], [121.13861285163983, 22.917594271328298], [121.13881085673971, 22.91797809665997], [121.1389717670504, 22.918283738326366], [121.13917095052005, 22.91863856420318], [121.13933987522023, 22.918916565065324], [121.13946143707196, 22.91911225085674], [121.13962227955527, 22.91934418601102], [121.13985558919654, 22.919666627187144], [121.140072078538, 22.91994999749659], [121.1402796285288, 22.92019808479872], [121.14048861203344, 22.920427838912758], [121.14076063407634, 22.92071928955002], [121.14116137435458, 22.92112343729501], [121.14178551339143, 22.921734089041184], [121.1426938913432, 22.922628797266853], [121.14331375584085, 22.923239876541377], [121.14341131849456, 22.923333792818802], [121.14341308785446, 22.92333549533373], [121.14341440438217, 22.92333676116666], [121.14350000966743, 22.923407678599876], [121.1435864267033, 22.92349388259717], [121.14378217766928, 22.923700970562827], [121.14395939520527, 22.92388191826207], [121.14412403095369, 22.92404296335242], [121.14425939251512, 22.924200478533066], [121.14441037519791, 22.924371047863954], [121.14459121827205, 22.92458042140828], [121.14498914172728, 22.92506747175485], [121.14528965501913, 22.925446448310613], [121.14550264599788, 22.925707666990284], [121.14596393900888, 22.926291413615676], [121.14626168705749, 22.92666148010235], [121.14659073782393, 22.927074825211854], [121.14707395952871, 22.927685725510752], [121.14724412018852, 22.92790109954546], [121.14726812470892, 22.92793148307728], [121.14774593794627, 22.92853382867215], [121.14808815026184, 22.928962429371765], [121.14847439338229, 22.92944498597132], [121.14871572353124, 22.929746854677795], [121.1487309326466, 22.929765879154363], [121.14908670039796, 22.93020854391887], [121.14936183295968, 22.93056165851472], [121.14963663091292, 22.930897328142578], [121.14965058426661, 22.930914372354536], [121.14987855057834, 22.931204816117358], [121.15037317335847, 22.93181852270824], [121.15096526580783, 22.932568315762936], [121.15141317027691, 22.93312871127829], [121.1518513016399, 22.93368006958343], [121.15227582464361, 22.934207299476384], [121.15287491538368, 22.93496240473698], [121.15319865819612, 22.935366956408856], [121.15377349458495, 22.936094483444126], [121.15402429513034, 22.936404716926006], [121.15430639291473, 22.936757420258182], [121.15453759685488, 22.937050657941256], [121.15492898718966, 22.937540841304205], [121.15514259300305, 22.937798749653613], [121.15551669004653, 22.938266488844228], [121.15580423838206, 22.93863119319219], [121.15622871110723, 22.939164234242178], [121.15655931572496, 22.939598318914477], [121.15685424375008, 22.940005075762034], [121.15707145893656, 22.940350850946697], [121.15723438271063, 22.94062069823299], [121.1574002679833, 22.94091632166838], [121.15761807147405, 22.94134667143075], [121.15783250138487, 22.941812980266846], [121.15792947248443, 22.9420559815334], [121.15805553409484, 22.942415491443317], [121.15806507389217, 22.942439537226534], [121.15810978386114, 22.942577005253867], [121.15821953829361, 22.94292651882784], [121.15830316422701, 22.943240182707285], [121.15839587002444, 22.94361708631871], [121.15847222601893, 22.94400568117122], [121.15854932013306, 22.94447507719318], [121.15858391709838, 22.944818832514194], [121.1586147244196, 22.94527420114234], [121.15862769225735, 22.945631480849542], [121.15864309052247, 22.94624927968395], [121.15863375372514, 22.94702300414261], [121.15862499979261, 22.947988999400337], [121.15862620336088, 22.948225157393612], [121.15862475787104, 22.948275878361105], [121.15862355627013, 22.948333386612287], [121.15862352026254, 22.948335121459504], [121.15862352029306, 22.948335147648695], [121.1586239514668, 22.948383817657344], [121.15861622902314, 22.949854200093444], [121.15861879800397, 22.950610879365772], [121.15863713368685, 22.951105398566074], [121.15867178751473, 22.95148866131881], [121.15875364845382, 22.952231443132966], [121.15884555764849, 22.952956972328973], [121.15889015617303, 22.953732651478138], [121.15900810702675, 22.9544607497915], [121.15946826079139, 22.958290423746337], [121.15951823779692, 22.958802201727988], [121.1596626857115, 22.959992021390313], [121.15975874986582, 22.960775636366524], [121.1598099889156, 22.96121438018515], [121.15984599564844, 22.961518043719078], [121.15989442832218, 22.961953233080592], [121.1599480176063, 22.96253130180745], [121.15996069489155, 22.96283260196034], [121.15997091818853, 22.96344944725054], [121.15995867240268, 22.963772096824655], [121.15993910577622, 22.96410079082685], [121.15990970233514, 22.964378464657756], [121.15988488529861, 22.96463538840535], [121.1598317698343, 22.965023534014588], [121.15972146333488, 22.965597976585855], [121.15966971447642, 22.96585086174247], [121.1595327406949, 22.966457137281658], [121.15940888216747, 22.967034529073363], [121.15924249936563, 22.967785076583926], [121.15908359200714, 22.968521371255164], [121.15895498321656, 22.969114697564596], [121.15883111244351, 22.969660675292523], [121.15863535161927, 22.970551424811738], [121.15847325564282, 22.971306262858494], [121.15834718058156, 22.97187303285965], [121.1582640303406, 22.972247405931146], [121.15818861173803, 22.97257649017565], [121.15811455899937, 22.97289537097897], [121.1580555422016, 22.973113700189817], [121.1580552440668, 22.973114802237745], [121.15805421359471, 22.973119354759767], [121.15802724566267, 22.973238489923887], [121.15800578811236, 22.973333284446277], [121.15800545723545, 22.97333474685338], [121.15800519719726, 22.973335901241523], [121.15798937910951, 22.973405790575047], [121.15778374137534, 22.974346981598075], [121.1576218622782, 22.975094017485567], [121.15750327817551, 22.975628544802987], [121.15734464894614, 22.976309198423387], [121.15724273467328, 22.976763438295382], [121.15704808036512, 22.977554062060833], [121.15695533654356, 22.97788613470555], [121.15687955499989, 22.97812333884929], [121.15678052016368, 22.97838499771026], [121.15642922596844, 22.979265357635263], [121.15631571260677, 22.979535653011496], [121.15609480676842, 22.9800015063227], [121.15575244707958, 22.980682806658926], [121.15541778287734, 22.9813832275694], [121.15506492474253, 22.982116118374773], [121.1548412252602, 22.982540417637676], [121.15439470080871, 22.98350820734521], [121.15435820484164, 22.983593636600748], [121.15434379399755, 22.983627371391524], [121.1542811667628, 22.9837540495628], [121.15416254488562, 22.98400430905833], [121.15390658140086, 22.984541914390523], [121.15328617402731, 22.985822334652063], [121.1528932067208, 22.98670296120612], [121.15265372175486, 22.987328609824022], [121.15246780991727, 22.987837199870768], [121.15230349028539, 22.988325811915324], [121.15218412506259, 22.988717707561925], [121.15205822022608, 22.98915947253737], [121.15183505644767, 22.990106066941916], [121.15173076679089, 22.990599577703513], [121.15167865914941, 22.99087071010073], [121.15161870790486, 22.99126329697178], [121.15157838934368, 22.991546245573353], [121.15156848100295, 22.991643325405462], [121.15150772083786, 22.99218924111716], [121.15145799200013, 22.99285548693098], [121.15144817080639, 22.99331599454437], [121.15143204501933, 22.993846271386673], [121.15144084259646, 22.99432822175107], [121.15145548803973, 22.99471742821681], [121.15148384339079, 22.995174648163204], [121.15155661040419, 22.995974247905853], [121.15166340542783, 22.996874181457397], [121.15170811112327, 22.997246945658333], [121.15173630929361, 22.997561373659977], [121.15175404575038, 22.997889001931696], [121.15175707186066, 22.998265290043076], [121.15175538856548, 22.998333698431562], [121.15175457960395, 22.99836660081645], [121.15174185847464, 22.998641594706893], [121.15169296028553, 22.999184367705677], [121.15157271897294, 23.000241376299865], [121.15150819749499, 23.000864126543565], [121.15147904874932, 23.00110196381937], [121.15145009421613, 23.0013382205226], [121.15139303209982, 23.00184005219593], [121.15135491885752, 23.00245303739066], [121.151352532621, 23.002914823313365], [121.15140262556785, 23.003630577594468], [121.15151717503927, 23.00437371356382], [121.15170304636823, 23.005100072453647], [121.15236206922582, 23.007238182267038], [121.15257601791757, 23.007947516124467], [121.15263654481389, 23.00814354420844], [121.15320592979386, 23.00997699307036], [121.15421479179878, 23.01316643571013], [121.15521442161624, 23.01634301435027], [121.15601099155303, 23.01881533010103], [121.1565069791126, 23.02040051966202], [121.15743245841868, 23.02333332659294], [121.15748591144478, 23.0235027134735], [121.15796722024064, 23.025052415963238], [121.15805551391111, 23.02532977300438], [121.15815554440988, 23.02564399776212], [121.15871706751527, 23.02743161187859], [121.15947741874754, 23.02985581978266], [121.15984316125774, 23.03100966437114], [121.16004887981693, 23.031651855406725], [121.16028635564375, 23.032396703561226], [121.16062253501849, 23.033470149582794], [121.16088102890274, 23.034296499705302], [121.16115295691493, 23.03512354001353], [121.16146095624335, 23.03607047296034], [121.1617365141695, 23.036957815154516], [121.16191741229085, 23.037522723333836], [121.16215204513352, 23.03829214159166], [121.16242131321818, 23.039150687243257], [121.1626122097547, 23.039744577131923], [121.16272963210665, 23.040057688640687], [121.16296054506297, 23.040770708220283], [121.16330375242553, 23.041844903063645], [121.1634680710468, 23.042268881910637], [121.1636227509454, 23.04270994390124], [121.16374361874665, 23.04309960929311], [121.16396457435258, 23.043613402040794], [121.16416372657157, 23.044220861409432], [121.16430617714911, 23.044644941398797], [121.16475890963164, 23.046069697168583], [121.164978779566, 23.046842615082415], [121.16508053432175, 23.047140765315635], [121.16525478676988, 23.047853027169747], [121.16541186550383, 23.04833373362798], [121.16542190047457, 23.048364445421143], [121.16579369222951, 23.049520588535955], [121.16601598970512, 23.05020490323604], [121.16634008616703, 23.051199272761355]], [[121.1772775333312, 23.10330561726571], [121.17721694623202, 23.10440528313566], [121.1772098236939, 23.104601810262164], [121.1772009206949, 23.104835716079553], [121.1772034370988, 23.105088430618835], [121.17721901303321, 23.105405309962602], [121.17722098841583, 23.10551500408381], [121.17723577594161, 23.10568705265747], [121.17727986322771, 23.106026023080855], [121.17731886299818, 23.106268715993593], [121.17737906852183, 23.106554024771697], [121.17744315024481, 23.106826103866], [121.17753360800255, 23.107142086146798], [121.17765985785636, 23.107518081458334], [121.1777612658333, 23.10778542245996], [121.1779527988038, 23.108216773674954], [121.1781042497598, 23.10852715373903], [121.17817615168995, 23.108651087763327], [121.17824451499519, 23.10876632387981], [121.1784389690916, 23.109072879333386], [121.17849436170258, 23.10916202078034], [121.17859570280062, 23.109313117800326], [121.17880961402638, 23.10960879327989], [121.17905731927877, 23.109912620850885], [121.17920344023057, 23.110083195276072], [121.17935722940824, 23.110237690024917], [121.1795738546035, 23.1104626536993], [121.17980392646126, 23.110685801048486], [121.18007760941025, 23.11092980408362], [121.18033961370683, 23.111139977883955], [121.18086902884235, 23.111516829398056], [121.18201021186499, 23.112307415857533], [121.18305538156706, 23.11304595826723], [121.18305551544665, 23.113046051126847], [121.18310727407223, 23.113081935475265], [121.18373137980224, 23.113514616232465], [121.18529432700487, 23.114589956389448], [121.1862720360501, 23.115273108586962], [121.18677378932252, 23.115610992112693], [121.18726124339959, 23.115952039043396], [121.18745634955587, 23.116084407749728], [121.18836118584969, 23.11671182620539], [121.1895413232298, 23.11753348512496], [121.18987141911853, 23.117757279294967], [121.1901093590484, 23.117912201134118], [121.1902770102535, 23.118008536701108], [121.1905372367436, 23.11816324136317], [121.19105946080579, 23.118426553417567], [121.19137841210215, 23.11857569405977], [121.19198074431038, 23.118816794497327], [121.19254435190076, 23.119016189771827], [121.1932946637986, 23.11928472446827], [121.1937880893784, 23.119463752428626], [121.19462738687788, 23.119757901295415], [121.19536005138063, 23.120026975253026], [121.19600713516134, 23.120253596511148], [121.19662775588006, 23.12047614640042], [121.1970911008683, 23.12062650231741], [121.19768092143664, 23.120804089931294], [121.19851448068584, 23.121014414334304], [121.19898784463315, 23.121123386653693], [121.19935454431452, 23.12120174602587], [121.19973139070585, 23.121275435539225], [121.20003312555887, 23.121329828990937], [121.20050984010794, 23.12139763299181], [121.20080472859756, 23.12143713775721], [121.2010455946305, 23.12146524924139], [121.2013428101465, 23.1215015161899], [121.2017320877304, 23.121538743125093], [121.2022709427143, 23.121585084274184], [121.20262291433683, 23.121611578865586], [121.2036286657388, 23.12165447487093], [121.20484069849215, 23.12170895295764], [121.20597115324472, 23.121759217975875], [121.20699672864535, 23.12180961163944], [121.20764456767343, 23.121847177122657], [121.20805013966206, 23.121869276940714], [121.20805549641318, 23.12186953718032], [121.20925635655675, 23.121928040837563], [121.21009336596691, 23.121959307378336], [121.21072460402914, 23.121988553429837], [121.21119888528398, 23.12201090915257], [121.2119853023257, 23.1220547253406], [121.21215902312233, 23.12206931003439], [121.21230406946387, 23.122083575520172], [121.21248628094698, 23.122106915287855], [121.2127122052871, 23.122153659093037], [121.21287597394287, 23.122189154020134], [121.2130464066592, 23.12223408663895], [121.21334475545734, 23.1223258320969], [121.21358251217141, 23.122416413723954], [121.2140283124916, 23.122625199132134], [121.21419769808465, 23.12272216325589], [121.21442463179322, 23.12285748030274], [121.21479489103612, 23.123102028735563], [121.21496715400451, 23.12322707582777], [121.21511697122429, 23.12333367050899], [121.21511870722178, 23.12333489449048], [121.21512033667487, 23.123336043663702], [121.21526301304937, 23.12343660740543], [121.21552810348338, 23.123621137838708], [121.21582283456873, 23.12382272119549], [121.21618664431328, 23.12407653143811], [121.21651311385169, 23.12430372577193], [121.21699327998513, 23.124647883048436], [121.21767839122586, 23.12511097653636], [121.21799030046553, 23.12532820999231], [121.21829777899023, 23.125544317423667], [121.2184208411091, 23.125628430065166], [121.21847724829914, 23.125666985530273], [121.21872326791274, 23.125835350548485], [121.21911552637481, 23.126107972941732], [121.21967341742227, 23.126491842224883], [121.2203505434357, 23.126968573835786], [121.2209723603303, 23.127397340191937], [121.22146249716344, 23.127731805129798], [121.22195265981694, 23.128066839208913], [121.22230268104038, 23.12831525510605], [121.22271393000302, 23.128601739609405], [121.2228120133638, 23.128674170511864], [121.22290390897659, 23.12873282587776], [121.22306606435514, 23.12884325416869], [121.22310881413662, 23.128872363252775], [121.22336137092039, 23.129052028721375], [121.22337974549751, 23.129064614751833], [121.22366053569188, 23.1292569430032], [121.22372338990253, 23.129300578831405], [121.22400850129073, 23.129498515511628], [121.22443301156558, 23.129793287412703], [121.22480498574107, 23.130050330301504], [121.22525043951877, 23.130361798274883], [121.22556805744517, 23.130582889617774], [121.22588686377166, 23.13080224383939], [121.22627335928672, 23.131068686665273], [121.22665174352107, 23.131333037873823], [121.22704849399823, 23.13161069620546], [121.22746911008907, 23.131898669896945], [121.22792596475811, 23.132217898940084], [121.22828088684061, 23.132463907443732], [121.22867243985164, 23.132733112034032], [121.22885415063568, 23.132862753579452], [121.22904410988326, 23.132992436210753], [121.22936521722932, 23.13321748360284], [121.22974064251557, 23.13347915580551], [121.23005282089024, 23.133695228493004], [121.23043957627397, 23.133962952792487], [121.23083900621761, 23.13424071848648], [121.23129474649554, 23.134559646612686], [121.23169152007623, 23.13483058601439], [121.2320619130103, 23.135089495726287], [121.23231534693784, 23.135288538333423], [121.23265761402172, 23.135571640204393], [121.23293423636963, 23.135837645076766], [121.23305494072653, 23.135943500486153], [121.23305550125242, 23.135944084835984], [121.23326358877178, 23.13616102186964], [121.2332784378542, 23.136177905955183], [121.23339060104126, 23.136305442490094], [121.23339083392979, 23.13630572480094], [121.23347089427271, 23.136403030330612], [121.23348905579518, 23.136425103850843], [121.23359672679955, 23.136564570794636], [121.23374245016534, 23.136767668153205], [121.23384914367112, 23.136918059690974], [121.23397476835513, 23.137107846732984], [121.2340900981957, 23.1372941460113], [121.23418143349627, 23.13745466978572], [121.23424817596326, 23.137584604815288], [121.23436225494527, 23.137811471766447], [121.23455473448453, 23.138209174392312], [121.23468962690507, 23.138501996169833], [121.23478740405399, 23.138724421447325], [121.23485674758882, 23.138891046050897], [121.23496974686248, 23.13913085666769], [121.23508877388039, 23.13939611525484], [121.23525423006345, 23.139750520627963], [121.23544927821476, 23.140182253335777], [121.23573896824018, 23.14082288553427], [121.23579069124958, 23.140941587552042], [121.23584430326258, 23.1410683058285], [121.23589665481484, 23.141210711987405], [121.23595149566968, 23.1413643203748], [121.23599148543698, 23.141490876563594], [121.23604952086427, 23.141678613693866], [121.23610284860955, 23.141861281791748], [121.23617767079958, 23.142177900799094], [121.23628257316882, 23.14261722563663], [121.2363969162369, 23.143087174063375], [121.23641851976996, 23.14318573055987], [121.23644067263552, 23.143286796712477], [121.23649202775529, 23.143521085138495], [121.23658576894782, 23.143919436904536], [121.23671734804732, 23.144439461355297], [121.23684542785347, 23.145002590864337], [121.23693304483908, 23.14540287413411], [121.23698890929805, 23.145648794979078], [121.2370723473618, 23.146006216555126], [121.2371631094522, 23.14637834046752], [121.23722462381036, 23.14664908570643], [121.23729107388601, 23.146911508181507], [121.23735549239453, 23.147167484986763], [121.23745344139535, 23.147545621196734], [121.23756566768039, 23.14798940389568], [121.23763086052523, 23.14823587837603], [121.23765670355905, 23.14833358568801], [121.23765714104313, 23.148335239418394], [121.23765755788106, 23.148336814614463], [121.23766997654485, 23.148383763588186], [121.23776918432006, 23.148767516418598], [121.23788027947018, 23.149178420422075], [121.23798093397194, 23.149567265903713], [121.23813086959284, 23.150113579530863], [121.23828766898079, 23.150753864919235], [121.2384578476742, 23.151395041927344], [121.23859162169607, 23.15190591480206], [121.23863882446834, 23.152120217674913], [121.23869155433609, 23.152354616776062], [121.23873762396573, 23.15258345050568], [121.23878165544448, 23.15286840197433], [121.23884285686911, 23.153267011549723], [121.23887433604634, 23.153591296300746], [121.23889518280976, 23.15413185249108], [121.23890288225849, 23.15437637066731], [121.23889039277998, 23.154778619161604], [121.23886919825097, 23.15518940472483], [121.23882011986682, 23.155614206331002], [121.2387474060076, 23.156128746420368], [121.23865713192653, 23.15669615413223], [121.23851831968186, 23.157467495225816], [121.23843725594419, 23.15804020775077], [121.23840376657294, 23.15837693539931], [121.2383730563497, 23.158728458008227], [121.23835881216047, 23.159121993570736], [121.23835774983036, 23.159468200185945], [121.23836592036096, 23.159696679346936], [121.23839927313578, 23.16004739065509], [121.23845539811732, 23.16052090122704], [121.23848951902698, 23.160740901165916], [121.23856137315612, 23.1611044288833], [121.23866205252128, 23.161493264200455], [121.23876171799272, 23.161844781533183], [121.23888142752524, 23.162182298212624], [121.23903360014523, 23.162569483830772], [121.23919328011253, 23.162921377536634], [121.23940828452064, 23.16335370017903], [121.23974301131355, 23.16396208127689], [121.2400157517093, 23.164434072782516], [121.24034020409555, 23.16500231676722], [121.24067423618565, 23.16558946517194], [121.24104885626059, 23.16624362467312], [121.24148825696594, 23.16700879595711], [121.24186437208168, 23.167688818891264], [121.24190870578664, 23.167768974965874], [121.2419999215615, 23.16792602495834], [121.24225317398961, 23.168362054785128], [121.2426348381347, 23.169020660404676], [121.2430548091711, 23.16975685725455], [121.24332604277305, 23.170232212314325], [121.24385647331584, 23.171155722567516], [121.24425021547775, 23.17184962073954], [121.24440551142223, 23.17211549009267], [121.24455838186938, 23.17238785867219], [121.24479371876839, 23.17281988156762], [121.24508738469144, 23.17333379834217], [121.24508837239101, 23.17333552704524], [121.24508933656999, 23.173337212438593], [121.2451184580287, 23.17338817488439], [121.24516484300106, 23.173467894205167], [121.2460474196686, 23.174993504155466], [121.24646846626976, 23.17573595113757], [121.24677383440415, 23.17626718288098], [121.24720472163804, 23.177029031431694], [121.24737214465817, 23.177306248834515], [121.24781454569806, 23.178088617294115], [121.24810150809489, 23.178578878651418], [121.24833270217282, 23.179002329662488], [121.24896820873707, 23.180161950358936], [121.24945630378157, 23.180940820783324], [121.24962315094075, 23.18124576907416], [121.25017453809359, 23.182211324768456], [121.25050906376548, 23.182742368635893], [121.25070472779296, 23.18301024219433], [121.25101677718054, 23.18341246586243], [121.2511839709564, 23.183612789332482], [121.25146535407073, 23.18390837325457], [121.2517422148408, 23.184192501515493], [121.25192245547585, 23.184371635891264], [121.25232547522238, 23.184736891325407], [121.25255955044904, 23.18492978235103], [121.25500864207798, 23.187017237615336], [121.25579938327208, 23.187706337793607], [121.2567166741323, 23.188487480890956], [121.25722029942041, 23.18892413380454], [121.25791710733107, 23.189513948456682], [121.25805546442537, 23.18962965196867], [121.25879409209111, 23.19024733519187], [121.25928995689766, 23.190677939128015], [121.25937844958132, 23.19075321025527], [121.25944625946521, 23.190810887979996], [121.25978908373473, 23.19110248837556], [121.26029873676804, 23.1915180585695], [121.26055681174748, 23.191713069495385], [121.26134195154759, 23.19230245047972], [121.26214668238511, 23.192869618742215], [121.26326879607761, 23.19367551122487], [121.26334474824355, 23.193730059001837], [121.2655030490171, 23.195280079460495], [121.26563319024946, 23.195374563931022], [121.26568799080577, 23.195412904093274], [121.26577349280493, 23.195472723679597], [121.26598864602894, 23.195627433683075], [121.26633182835364, 23.195902976258637], [121.26659677419059, 23.19613088138454], [121.26681611576299, 23.196326121700864], [121.26708343478049, 23.196586285025916], [121.267297939256, 23.196815471071496], [121.26755132546629, 23.197095723785587], [121.26781742579254, 23.197439499853743], [121.26795613930295, 23.197630584461912], [121.26804278432289, 23.197754871869478], [121.26807495722701, 23.197801022221327], [121.26825390477374, 23.19805771098649], [121.26842425730445, 23.19832624497825], [121.26845327307892, 23.198376800264068], [121.2685815434138, 23.19859829314665], [121.26885718946119, 23.19914111807906], [121.26909389959084, 23.199717255534438], [121.26929197741107, 23.200189707088448], [121.26937710969902, 23.20040398731664], [121.26956501929403, 23.200858241486102], [121.26962312503409, 23.200985122519654], [121.2698498835542, 23.201511008682882], [121.27013821682263, 23.20223864609534], [121.27016561167306, 23.202302466813222], [121.27019074979417, 23.20236579833948], [121.27042943554956, 23.202936319460395], [121.27065509364994, 23.203472855766133], [121.27086674736857, 23.203992655325887], [121.27109762500349, 23.204547097386584], [121.27136204235023, 23.20518208593636], [121.27159395621631, 23.205755588606202], [121.27176231823609, 23.20617082228147], [121.27198534930925, 23.206713604553737], [121.2721216157929, 23.20704816032515], [121.27235481266894, 23.207614691589356], [121.27260190841704, 23.20821213570821], [121.27265050838956, 23.20833328948323], [121.27298614347919, 23.20914061360578], [121.27349259220415, 23.21037141254854], [121.27474220506826, 23.213394586120284], [121.2747992951562, 23.213536179998904], [121.27540934450342, 23.21502009310338], [121.27569758466026, 23.21579604416003], [121.27594316459015, 23.216643484692423], [121.27599263172205, 23.21685368286437], [121.27623883456276, 23.218393153980237], [121.27633732640089, 23.21896538273936], [121.27637201141707, 23.219174831886626], [121.27643935443898, 23.219561962001276], [121.27651582455961, 23.219978438400094], [121.27665400646819, 23.220633510648828], [121.27670106264235, 23.22083174741852], [121.27692979658522, 23.22166342210837], [121.27711625623178, 23.22235289948452], [121.27736848401298, 23.223333639312425], [121.2774507217539, 23.223653402723013], [121.27769227634424, 23.22449412525148], [121.27776739278431, 23.224727602842925], [121.27802261684225, 23.22536942485445], [121.27874999933822, 23.227101882249762], [121.27889145861145, 23.227361355663632], [121.27918119813762, 23.228091250977457], [121.2793547402197, 23.228602231341046], [121.27944328962398, 23.228920136401722], [121.27950495243209, 23.229197694421206], [121.27957701008904, 23.229522042090707], [121.27958922358688, 23.2295770173073], [121.27973612332121, 23.23034496839151], [121.27993274494924, 23.23133995333141], [121.28020250520422, 23.232685409919387], [121.28030871520289, 23.233209801622095], [121.28050352254668, 23.23417835217693], [121.28065110049414, 23.234904358102288], [121.28086178278909, 23.23594449694251], [121.28118072619822, 23.237573566248823], [121.28135114102459, 23.23835024765239], [121.28143798630514, 23.23870331036291], [121.28149354153884, 23.23888022813288], [121.2816905863305, 23.239381399277335], [121.28181601447722, 23.23968080803928], [121.28199653624829, 23.240077069856365], [121.28221228347175, 23.240488818499507], [121.28234661820075, 23.24073197315321], [121.28264509443405, 23.241184321178547], [121.2829075956583, 23.24154295012486], [121.28305430696467, 23.241719180238515], [121.2830546782663, 23.24171962115539], [121.28305553157463, 23.24172063463333], [121.28332247791054, 23.242037822534996], [121.28355987404423, 23.242297772737686], [121.28377569065015, 23.242503631623038], [121.28404093032574, 23.242753079917083], [121.28428360802555, 23.242961761179902], [121.28453661502287, 23.243169545597247], [121.28465138433279, 23.2432574444302], [121.284813776791, 23.24337843537764], [121.28502778252812, 23.243532417133785], [121.28515594825362, 23.243619246470324], [121.28534788009438, 23.243745842576395], [121.28557719189462, 23.243894853440647], [121.28573863937332, 23.243999042299272], [121.28598380270891, 23.24415431248448], [121.2862290246349, 23.24431662496546], [121.28625798133872, 23.2443348262169], [121.28688178193059, 23.244726921655122], [121.28732679918164, 23.245007413720778], [121.28776333924371, 23.24528592250882], [121.28881395731177, 23.245957316634403], [121.28948188763766, 23.24638698158946], [121.28954811124805, 23.24642958225153], [121.2895909838875, 23.246457160556783], [121.29021729218894, 23.24685920287983], [121.290253551985, 23.246884556393134], [121.29052860995522, 23.24707690513054], [121.29082294233905, 23.247303437390915], [121.29107407265747, 23.24750670020683], [121.29147260627823, 23.24785159516411], [121.29178884831173, 23.248169618566006], [121.29195029547614, 23.248333746315357], [121.29195254820796, 23.24833603674603], [121.29196752887317, 23.24835126661911], [121.29222644502501, 23.248653675567816], [121.29239975680557, 23.24886812056482], [121.29266995816076, 23.24922626846851], [121.2928579312435, 23.24948839034926], [121.29293850123166, 23.249610680189065], [121.29308655100067, 23.24985131531272], [121.29318845070816, 23.250027193867457], [121.2932836712421, 23.250204133246555], [121.29328747273213, 23.25021119873338], [121.29340869035953, 23.250466660012968], [121.29344022260776, 23.25053311157762], [121.29346496428056, 23.25058511368759], [121.29373340097428, 23.251114097612152], [121.29396350287232, 23.251578346348136], [121.29419144396064, 23.252051670659217], [121.29450158244939, 23.25269720578715], [121.29485231873338, 23.253448501688943], [121.29502565549022, 23.25381346704218], [121.29530491703947, 23.25438903242317], [121.29557559213141, 23.254937945843853], [121.29587368118408, 23.255555277101166], [121.2960208696878, 23.255867870132427], [121.29620544870018, 23.2562378824718], [121.29641015510376, 23.256665797173184], [121.29667806366645, 23.257205839546874], [121.29695209304616, 23.25779196619897], [121.29725094079969, 23.258433614537495], [121.29729981030945, 23.258533586506815], [121.29745343336495, 23.258847854516343], [121.29768557010877, 23.259328364164514], [121.29774467051698, 23.25945130786845], [121.29813562919436, 23.260244243972785], [121.29854729235656, 23.261088534972785], [121.30047592729422, 23.26510235947596], [121.30139116515431, 23.266996338465976], [121.30202591736311, 23.268322643219907], [121.30209077253897, 23.268460523740465], [121.30246317221447, 23.269226505288273], [121.30281612945822, 23.269955891772145], [121.30299873226443, 23.270377223792405], [121.3034618765937, 23.271306589514243], [121.303848211955, 23.27211172666831], [121.30430129973708, 23.273073481022625], [121.30442715712803, 23.273333525565754], [121.30458762442602, 23.273665080885603], [121.30477078449717, 23.274065408526923], [121.3049442183696, 23.274414420984623], [121.30552645878889, 23.275655305339335], [121.30564918186599, 23.27591685391247], [121.30624967962099, 23.277171099783263], [121.30649540553517, 23.2776843338743], [121.3066291751013, 23.277978725889817], [121.30673361250061, 23.278230867115777], [121.30693315135697, 23.278763709742407], [121.30698388460301, 23.278905685559767], [121.30705328260034, 23.279125764262798], [121.30717408401463, 23.27953082790163], [121.30729448969596, 23.279994425868008], [121.3073793658668, 23.28036063802988], [121.30748449635252, 23.28086636147393], [121.30758535004951, 23.28134485863534], [121.30773723361446, 23.282087684279663], [121.30785743030461, 23.282692338391417], [121.30793607571783, 23.28307539394118], [121.30805464908356, 23.283648815113473], [121.3080547934114, 23.283649513777], [121.30805551998408, 23.283653026951736], [121.30806177544244, 23.283683278890418], [121.30816295077372, 23.284181576529527], [121.3082249501891, 23.2844664426449], [121.30838119719579, 23.28528913913978], [121.30858606574908, 23.28631111383329], [121.30878832805554, 23.287300725863414], [121.30896610369831, 23.288184609102803], [121.30920849743451, 23.289393429811245], [121.30934001467635, 23.2900290554456], [121.30956309145783, 23.291126794461032], [121.30972172879322, 23.291869317479417], [121.3098300091657, 23.2924262331954], [121.30998763623003, 23.293230130484808], [121.3101463819309, 23.294023588977605], [121.31034863570035, 23.29501102243941], [121.31049872818356, 23.29575571576574], [121.31068498473927, 23.29666368913246], [121.31075241368677, 23.296997392378227], [121.31087996977084, 23.297628661286428], [121.31100505568595, 23.29819644918707], [121.31103155763287, 23.298333551584264], [121.31109135498974, 23.29863745167413], [121.3112489513526, 23.299424913648664], [121.31141759714775, 23.30025268997523], [121.31157131704835, 23.301011582745208], [121.31169732647096, 23.30163358045806], [121.31185604593382, 23.30242870324171], [121.31198047982024, 23.303040929331367], [121.31209401906831, 23.303629470615107], [121.31215492685, 23.304006157446636], [121.31218310137251, 23.3042053828265], [121.31220814313828, 23.304401116096834], [121.3122513030159, 23.304855461698583], [121.31227632712722, 23.305274284790105], [121.31229326297388, 23.30586147302319], [121.31228896884222, 23.306219895733047], [121.31227012070903, 23.306636999166592], [121.31224827110893, 23.30691933595425], [121.31217805855643, 23.307581814293464], [121.31211101758647, 23.30815108911762], [121.31203823047746, 23.308777553307724], [121.3119825817331, 23.309274709296567], [121.31191872656055, 23.30983266263819], [121.31186303570207, 23.310301216975468], [121.31180191186017, 23.310832535354503], [121.31173073509613, 23.31144885770688], [121.31165474035402, 23.31209202486697], [121.3115114404461, 23.31332648796366], [121.31138940882265, 23.31441423953317], [121.31132083519665, 23.314966322065708], [121.31117557836127, 23.316232104461932], [121.31112429320456, 23.31666323609333], [121.31106677569197, 23.317163848206444], [121.31102089555428, 23.31755484568681], [121.31096541460386, 23.31805233461233], [121.31090831107781, 23.31855359504503], [121.31085045399735, 23.319037930567507], [121.31081998498416, 23.31928985451915], [121.31078370235082, 23.31961642524161], [121.31073545026007, 23.320020805592282], [121.31070088010809, 23.320318663813197], [121.31066191100743, 23.32065327493697], [121.31062545634629, 23.32099743237897], [121.31057795847013, 23.32138130878296], [121.31054798746777, 23.321667878091233], [121.31051677710828, 23.322025007000985], [121.31050305339761, 23.32228131252669], [121.31048681630959, 23.32260902992774], [121.31047985457104, 23.322924023339734], [121.31047813900868, 23.32322561625316], [121.31048072669914, 23.323333522007186], [121.31048076459425, 23.323335102230192], [121.31048079060466, 23.323336196647954], [121.3104840115911, 23.323470471353527], [121.31049229158297, 23.32363408171542], [121.3104963394789, 23.32373453278773], [121.31050652356367, 23.323883507617015], [121.31051813200449, 23.32401170186273], [121.31055828599973, 23.324323621857413], [121.3106089238127, 23.32473366476404], [121.3106517095796, 23.325135581503808], [121.31074242129344, 23.325716463531165], [121.31086102335034, 23.326652648443538], [121.31098422610987, 23.327601476319174], [121.31108850578693, 23.328387646806874], [121.3111566385262, 23.32893814295259], [121.3111737985614, 23.329061335003217], [121.31124996751528, 23.329585515343517], [121.31129081574393, 23.329864411640983], [121.31131959859626, 23.33027821788432], [121.31141363177689, 23.330947098745266], [121.31147864030667, 23.33169819996151], [121.31158887364667, 23.332485919147597], [121.31167152066236, 23.332917321858176], [121.31176991297248, 23.333580237214896], [121.31183199810116, 23.333807725908006], [121.31193160313371, 23.334234286924517], [121.31197442794473, 23.334487308122885], [121.31199753901335, 23.334642693653556], [121.31202707213635, 23.334860895326287], [121.31207875315083, 23.335240658399492], [121.31210592709783, 23.335420887077714], [121.31219132808302, 23.336061674777266], [121.31226026838225, 23.33655475654736], [121.31231395840595, 23.336898113571042], [121.31236086855557, 23.337155259567087], [121.3124313210098, 23.337510395569655], [121.31247996664241, 23.337709101444972], [121.31256173677967, 23.337983759706784], [121.31261307626092, 23.338148309525813], [121.31269875696941, 23.338377955803107], [121.31286454058129, 23.338784844115985], [121.31301162984332, 23.339133307714686], [121.31332217592458, 23.33982616967896], [121.31368427052472, 23.340620732062405], [121.31422278141795, 23.341800431128693], [121.31441811804568, 23.342237497841726], [121.31472977120173, 23.34293035439023], [121.3150381286194, 23.343613136392435], [121.31525553632383, 23.344098058459714], [121.31554633365849, 23.344738237448883], [121.31600394400807, 23.3457513309412], [121.31612645488477, 23.346020554308325], [121.31637901441871, 23.346574199640003], [121.31665840122852, 23.347196098630082], [121.31697612177632, 23.347899177185894], [121.31712565257753, 23.348231555752214], [121.31717234103643, 23.348333737703832], [121.31751439496404, 23.34908235669941], [121.3176595818216, 23.3494035008419], [121.31767469941181, 23.349436940755428], [121.31786151013594, 23.34975952272644], [121.3180801569297, 23.350074113032967], [121.31850793724948, 23.350596254025263], [121.3185985126484, 23.350707437857977], [121.31870863073974, 23.350842611317525], [121.31901052624688, 23.351213193414445], [121.31945984570973, 23.351754290100338], [121.31986801032983, 23.352248997216797], [121.32037114611323, 23.352868061111], [121.3207802016908, 23.353376598213238], [121.32115223542357, 23.353894119368842], [121.32142620352275, 23.3543600697429], [121.32167485201423, 23.35485538556282], [121.3218412605752, 23.3552839722892], [121.32198686453685, 23.355716483697567], [121.3220992118534, 23.356141539386662], [121.32219388961248, 23.35659839697512], [121.32227734689924, 23.357060642435254], [121.32254659211453, 23.358497376853876], [121.32277067745993, 23.3596691529694], [121.32304406407349, 23.361148269803778], [121.3232591102485, 23.36227977687199], [121.32331389672984, 23.362572951767458], [121.32336342062213, 23.362834015200274], [121.32360811529989, 23.364178331413605], [121.32395219087968, 23.36595118336779], [121.32428505474941, 23.367762330983275], [121.3245894677411, 23.369364706413712], [121.32473644508171, 23.370163381119685], [121.32487252084614, 23.370893536213778], [121.32506056556888, 23.371890358129335], [121.32520844792329, 23.372684326367576], [121.32532627445032, 23.373333698356113], [121.32532660860136, 23.373335542532804], [121.32532683847379, 23.37333674397552], [121.32543339744788, 23.373894384213912], [121.32584382613807, 23.376110664919842], [121.32618589097788, 23.37787774170235], [121.32639223802747, 23.3790206811042], [121.32683148775529, 23.38132362426048], [121.32708864569234, 23.382680424654662], [121.32722195330095, 23.383360067181705], [121.3272872843671, 23.383634303030064], [121.32735522384709, 23.383916133191214], [121.32744015997187, 23.384198696193714], [121.32745070685871, 23.38423378260386], [121.32753846517421, 23.384514531783687], [121.32765583124896, 23.38484136315972], [121.32790865194156, 23.385394975568786], [121.3281105500086, 23.385785262333034], [121.32842028073522, 23.386316757752592], [121.32872752395734, 23.386765679344084], [121.32931548331062, 23.38748899760294], [121.32976130851742, 23.38799209703165], [121.33025354848985, 23.388557026130467], [121.33027820439686, 23.38858531981322], [121.33034609480401, 23.38866461857218], [121.33062928681242, 23.38899538907054], [121.33105140147103, 23.38955893316636], [121.33153232609658, 23.39027650204015], [121.33174706033991, 23.390626750055795], [121.33196636619779, 23.39101419511073], [121.33228627103513, 23.391666546817703], [121.33266426256758, 23.392583305251996], [121.33307171640601, 23.393669538776635], [121.33370810172039, 23.3953733783464], [121.33474626377149, 23.398120631434125], [121.3348278435506, 23.398333474899907], [121.33482862354013, 23.39833550953334], [121.33542535979583, 23.39989238913382], [121.33545562652726, 23.39997135353168], [121.33596750729862, 23.401340130957205], [121.33641567168048, 23.40251706396953], [121.33682888478485, 23.40360831218993], [121.33699637515095, 23.404048752358783], [121.33715685138465, 23.404474133390373], [121.33733640535381, 23.404953327140877], [121.33763103274883, 23.4057288668952], [121.3378472103963, 23.40631307385302], [121.33812976394205, 23.407051592341052], [121.33838987133652, 23.407730498362273], [121.33858627865882, 23.40821215434918], [121.33888902700224, 23.409017177010533], [121.33905228212416, 23.409446616868944], [121.33932653203017, 23.410174671291895], [121.33951917870797, 23.410685986381164], [121.33970667232478, 23.411183124208364], [121.33995949534294, 23.411844655380673], [121.34009957020763, 23.41222420489658], [121.3402630197187, 23.41263164897459], [121.34056050960137, 23.413351774097137], [121.34099259190472, 23.414388304007268], [121.34117354098713, 23.414819618806074], [121.34118636131264, 23.41485704064934], [121.3411985635024, 23.414892658714173], [121.34120165678581, 23.414900007919204], [121.34141412743783, 23.415404822182786], [121.3414180180814, 23.415414022627033], [121.34147635412847, 23.415551956184704], [121.34175905075857, 23.41622036279731], [121.34193377276384, 23.416653582908868], [121.34229929510832, 23.417506635236943], [121.34263773494746, 23.418315313145666], [121.34293727919079, 23.41903807069062], [121.34318265276373, 23.419632829615413], [121.34360654872557, 23.42062912352273], [121.34367573029274, 23.420796843473834], [121.34377274812398, 23.42105184075638], [121.3438932034822, 23.4213742261719], [121.34405467733595, 23.421772332773177], [121.34422061428646, 23.422179485669886], [121.34443316367013, 23.42268978799775], [121.34463897352023, 23.42320314891847], [121.34468897495496, 23.42333381936757], [121.3452410995098, 23.424512676341607], [121.34558296291412, 23.42532304863987], [121.34592028543533, 23.42612040415488], [121.34599818055862, 23.426302903090637], [121.3461558812761, 23.426665877454184], [121.34620432175859, 23.426787899022475], [121.34651043868651, 23.427543556049624], [121.34673632591726, 23.428076605444023], [121.3468897930055, 23.428446146025898], [121.3470035698932, 23.428736537943845], [121.34714270110003, 23.429055130486475], [121.34745456369735, 23.42979892774868], [121.3475789992914, 23.430122717769976], [121.34767404898173, 23.43044358684012], [121.34779900933412, 23.430850069778696], [121.34787083208622, 23.43112846303713], [121.34790534918638, 23.43126434644147], [121.34800135676544, 23.43166677231769], [121.34811066952687, 23.432212048519435], [121.34833147195823, 23.433222522872565], [121.3486113572603, 23.434519955936864], [121.34895412657254, 23.436133170091843], [121.34930295680455, 23.43771073757426], [121.34962948434939, 23.439243158999467], [121.34983999451376, 23.440274853140835], [121.35001692624199, 23.44111481527372], [121.35001752200019, 23.441118059361013], [121.35006121113128, 23.441369377833805], [121.35010013986152, 23.441621359838912], [121.35013429426782, 23.441873931364405], [121.3501636692206, 23.44212701296012], [121.3501882527512, 23.442380529705908], [121.35020803679822, 23.44263440396333], [121.35022301525755, 23.44288855808922], [121.3502264688853, 23.44296237150795], [121.35022955456283, 23.443036199296635], [121.35023359101372, 23.443141016295666], [121.3502369649541, 23.44325774007923], [121.35023894186054, 23.44333160105512], [121.3502407357599, 23.443405465149965], [121.35024238286144, 23.4434793313795], [121.35024391742421, 23.443553201472874], [121.35024537858662, 23.443627071730223], [121.35024680158422, 23.4437009429755], [121.3503357542795, 23.448333777837426], [121.35033578258671, 23.448335233426967]]]}}]}