{
  "type": "FeatureCollection",
  "features": [
    {
      "type": "Feature",
      "properties": {
        "track_id": "WL-H2-1",
        "line_id": "WL-H2",
        "direction": 1,
        "name": "海線(海岸線) (彰化→竹南)",
        "origin": "彰化",
        "destination": "竹南"
      },
      "geometry": {
        "type": "MultiLineString",
        "coordinates": [
          [
            [
              120.88030638047698,
              24.681916708432297
            ],
            [
              120.88018522214658,
              24.680593592261335
            ],
            [
              120.88010264695022,
              24.67935951206256
            ],
            [
              120.8801022182484,
              24.67935315547536
            ],
            [
              120.88009899094625,
              24.679307738250746
            ],
            [
              120.88009894220428,
              24.679307042997536
            ],
            [
              120.88009778188975,
              24.6792907632221
            ],
            [
              120.88009677747549,
              24.679276785904158
            ],
            [
              120.88009672874216,
              24.679276081622195
            ],
            [
              120.88009522713962,
              24.679255034390415
            ],
            [
              120.88003731953484,
              24.67844206589486
            ],
            [
              120.87999578657823,
              24.677855497477857
            ],
            [
              120.87997255059292,
              24.6773963574815
            ],
            [
              120.87993882123939,
              24.676905960528003
            ],
            [
              120.87989455493333,
              24.67642996501177
            ],
            [
              120.87984840875257,
              24.67604969990252
            ],
            [
              120.87984092606146,
              24.676011258480944
            ],
            [
              120.87983704698092,
              24.67599141286949
            ],
            [
              120.87983686507431,
              24.67599048005295
            ],
            [
              120.87982665875505,
              24.675938023814144
            ],
            [
              120.87981819283088,
              24.675894507440447
            ],
            [
              120.8798128929604,
              24.675867335657287
            ],
            [
              120.87980782913927,
              24.675841310715416
            ],
            [
              120.87980774063352,
              24.67584086823528
            ],
            [
              120.87979857650595,
              24.67579386619939
            ],
            [
              120.87978959926883,
              24.67574775815961
            ],
            [
              120.8797895206443,
              24.675747315687374
            ],
            [
              120.8797216556031,
              24.67539885047854
            ],
            [
              120.87961174861125,
              24.674925339291306
            ],
            [
              120.87946548350448,
              24.674458895431588
            ],
            [
              120.87926602369097,
              24.673927500875802
            ],
            [
              120.8790083680985,
              24.673333562053006
            ],
            [
              120.87900822021615,
              24.673333218840863
            ],
            [
              120.87894156378329,
              24.673179567799412
            ],
            [
              120.87890269717295,
              24.673102972549547
            ],
            [
              120.878875724297,
              24.67304982555252
            ],
            [
              120.87870903539212,
              24.67272137808288
            ],
            [
              120.87844628258073,
              24.67228430889673
            ],
            [
              120.87844602609977,
              24.67228387530845
            ],
            [
              120.87842593128724,
              24.67225044358613
            ],
            [
              120.87839640562741,
              24.6722013393189
            ],
            [
              120.87834620319916,
              24.672117827734276
            ],
            [
              120.87828721124171,
              24.6720196914393
            ],
            [
              120.87768576744688,
              24.67110770384748
            ],
            [
              120.87693122558065,
              24.669980414829936
            ],
            [
              120.87682247246823,
              24.669816363274297
            ],
            [
              120.87678798091622,
              24.669764347343552
            ],
            [
              120.87675586708752,
              24.669715926804926
            ],
            [
              120.87643954494001,
              24.669238767428972
            ],
            [
              120.87621230917146,
              24.66890070577997
            ],
            [
              120.87610371355835,
              24.66873914575622
            ],
            [
              120.8759348270584,
              24.668487898252955
            ],
            [
              120.87591255970213,
              24.668454572732504
            ],
            [
              120.87590509115556,
              24.6684434521485
            ],
            [
              120.87589704050924,
              24.668431473350164
            ],
            [
              120.87588766782468,
              24.668417525187493
            ],
            [
              120.87564378144215,
              24.66805457463383
            ],
            [
              120.87515640725552,
              24.667329539392533
            ],
            [
              120.87484867380851,
              24.66687173234583
            ],
            [
              120.87454933829689,
              24.666426409422563
            ],
            [
              120.87406301261294,
              24.6657029153124
            ],
            [
              120.87397894824497,
              24.665577850501993
            ],
            [
              120.87392386897146,
              24.66549589527021
            ],
            [
              120.87390961351386,
              24.66547445803035
            ],
            [
              120.87390916957325,
              24.665473789528626
            ],
            [
              120.87389127381098,
              24.66544686876699
            ],
            [
              120.87387293411616,
              24.66541927950132
            ],
            [
              120.87387249018506,
              24.66541860197071
            ],
            [
              120.87380305788018,
              24.665314162028743
            ],
            [
              120.87361146366739,
              24.665025892842344
            ],
            [
              120.87360694536059,
              24.66501909940424
            ],
            [
              120.87359586663335,
              24.665002441026793
            ],
            [
              120.87358474845183,
              24.6649857194139
            ],
            [
              120.87357597821035,
              24.66497253002605
            ],
            [
              120.8735738670439,
              24.66496935012155
            ],
            [
              120.8729800898239,
              24.66407605711765
            ],
            [
              120.87276942021118,
              24.663729932367573
            ],
            [
              120.87268864076471,
              24.663622259011582
            ],
            [
              120.87266573010054,
              24.663591713311174
            ],
            [
              120.87261330793697,
              24.663521822277204
            ],
            [
              120.87260477315213,
              24.663510474900345
            ],
            [
              120.87259620878349,
              24.663499073325255
            ],
            [
              120.87248029382214,
              24.66334488992688
            ],
            [
              120.87220129048079,
              24.66298494649185
            ],
            [
              120.87193732279454,
              24.662647677568266
            ],
            [
              120.87165487223912,
              24.66230919155683
            ],
            [
              120.87155492927208,
              24.66220936527054
            ],
            [
              120.87151766043219,
              24.662172143880046
            ],
            [
              120.87147678909332,
              24.66213132594605
            ],
            [
              120.87146273433058,
              24.662117292234825
            ],
            [
              120.87140170869283,
              24.662056331896643
            ],
            [
              120.87127413045141,
              24.661928898856832
            ],
            [
              120.87093485667705,
              24.661597134362356
            ],
            [
              120.8705194413085,
              24.66124491652344
            ],
            [
              120.8703150172804,
              24.661080588043294
            ],
            [
              120.87030721861879,
              24.66107431534132
            ],
            [
              120.87030658682643,
              24.661073809184515
            ],
            [
              120.87028692234803,
              24.661058000879965
            ],
            [
              120.87026794889945,
              24.661042743924817
            ],
            [
              120.8702673171074,
              24.66104223776784
            ],
            [
              120.87025895576201,
              24.661035513138714
            ],
            [
              120.870105638205,
              24.660912264280505
            ],
            [
              120.86952418916768,
              24.660490504873657
            ],
            [
              120.86900159490612,
              24.660166648417405
            ],
            [
              120.86838661866767,
              24.65984123756278
            ],
            [
              120.86818148839122,
              24.659742734367377
            ],
            [
              120.86817444763037,
              24.659739351427984
            ],
            [
              120.86811887202454,
              24.659712667768314
            ],
            [
              120.8681183684103,
              24.659712423549312
            ],
            [
              120.86809001775187,
              24.659698810354246
            ],
            [
              120.86806290144938,
              24.65968579413694
            ],
            [
              120.86806240770566,
              24.659685558955196
            ],
            [
              120.867702065645,
              24.659512512588083
            ],
            [
              120.86760771301702,
              24.659475510816574
            ],
            [
              120.86753081082986,
              24.65944535012637
            ],
            [
              120.86720024946366,
              24.659308145968055
            ],
            [
              120.86692800829601,
              24.65920902195301
            ],
            [
              120.86691970260533,
              24.65920599898578
            ],
            [
              120.86691407329914,
              24.659203953496473
            ],
            [
              120.8664122466808,
              24.659030327225956
            ],
            [
              120.86580092104641,
              24.65882264429775
            ],
            [
              120.86473919418282,
              24.65855630047528
            ],
            [
              120.86373605326239,
              24.658331200608668
            ],
            [
              120.86355021508655,
              24.65828650204673
            ],
            [
              120.86350705205814,
              24.658276115868315
            ],
            [
              120.86350648906269,
              24.65827597992527
            ],
            [
              120.86348092706457,
              24.65826983519354
            ],
            [
              120.8634531229673,
              24.658263146693486
            ],
            [
              120.86345263898987,
              24.6582630288796
            ],
            [
              120.86342608929277,
              24.65825663946404
            ],
            [
              120.86290133816844,
              24.658130426871736
            ],
            [
              120.86263301977347,
              24.658072379601542
            ],
            [
              120.86197959364338,
              24.65791352445631
            ],
            [
              120.86174600266614,
              24.657841609495875
            ],
            [
              120.86086468859463,
              24.65758037453404
            ],
            [
              120.85805548503113,
              24.656539764673745
            ],
            [
              120.85783895052609,
              24.656459551470448
            ],
            [
              120.8557670739986,
              24.65567452842226
            ],
            [
              120.85507594972555,
              24.655433988736824
            ],
            [
              120.85464252468122,
              24.655299501805196
            ],
            [
              120.85437055472227,
              24.655229671764083
            ],
            [
              120.85400250095088,
              24.655148335544137
            ],
            [
              120.85366686439421,
              24.655098964785328
            ],
            [
              120.85320076913344,
              24.655067198428682
            ],
            [
              120.85286714807428,
              24.655060353406252
            ],
            [
              120.85254472184869,
              24.65506915647369
            ],
            [
              120.85210472083281,
              24.655110978813834
            ],
            [
              120.85182002832056,
              24.655149657569247
            ],
            [
              120.85129757512019,
              24.655264583508927
            ],
            [
              120.85086050316067,
              24.655392973030107
            ],
            [
              120.8505670184389,
              24.655505044650933
            ],
            [
              120.85056429045724,
              24.655506089276727
            ],
            [
              120.85044819294151,
              24.655550639159326
            ],
            [
              120.85030462562816,
              24.655615720120725
            ],
            [
              120.85003458259624,
              24.655745465303458
            ],
            [
              120.84966368630724,
              24.655943384760832
            ],
            [
              120.8483053615006,
              24.65677682054702
            ],
            [
              120.84720664549809,
              24.65746459403806
            ],
            [
              120.8470487825099,
              24.657575008859478
            ],
            [
              120.84650387560885,
              24.65799095064712
            ],
            [
              120.84555462054412,
              24.658709986643558
            ],
            [
              120.84545548176091,
              24.658794691986152
            ],
            [
              120.84524955746822,
              24.658955598521025
            ],
            [
              120.84352848251322,
              24.66027245936507
            ],
            [
              120.8433792027057,
              24.660387312327835
            ],
            [
              120.84322019852425,
              24.66051982429759
            ],
            [
              120.8430199904825,
              24.6606716417103
            ],
            [
              120.84297877123058,
              24.660703506316995
            ],
            [
              120.8429780196367,
              24.66070408337289
            ],
            [
              120.84292093764007,
              24.660748228571368
            ],
            [
              120.8429089417119,
              24.660757506635317
            ],
            [
              120.84280011791374,
              24.66084165833807
            ],
            [
              120.84279486661354,
              24.66084570676199
            ],
            [
              120.842730980513,
              24.660895117569982
            ],
            [
              120.84273023880804,
              24.660895685606185
            ],
            [
              120.84270678092854,
              24.660913826937595
            ],
            [
              120.84252805039863,
              24.66104217330435
            ],
            [
              120.84229346696772,
              24.66119513647194
            ],
            [
              120.84200458807256,
              24.66137530004147
            ],
            [
              120.84182874207485,
              24.661479370236542
            ],
            [
              120.84175988218193,
              24.66151586424955
            ],
            [
              120.84157310509731,
              24.66161483943314
            ],
            [
              120.84133530860667,
              24.661728603812808
            ],
            [
              120.84114309041264,
              24.661817081282116
            ],
            [
              120.84089950378282,
              24.661915020442642
            ],
            [
              120.84069203864166,
              24.661996917271143
            ],
            [
              120.84069113913934,
              24.66199725038188
            ],
            [
              120.84046263666502,
              24.662081147029614
            ],
            [
              120.84017097840879,
              24.662182501000014
            ],
            [
              120.83971026358186,
              24.66233733211556
            ],
            [
              120.83912681004,
              24.66254450564243
            ],
            [
              120.83908497868019,
              24.662559358314606
            ],
            [
              120.83907645823236,
              24.66256236479759
            ],
            [
              120.83907365103185,
              24.662563354955395
            ],
            [
              120.83879765557066,
              24.662660696188986
            ],
            [
              120.83876040080472,
              24.662673829185795
            ],
            [
              120.83742448240739,
              24.66314496430298
            ],
            [
              120.83321080406039,
              24.664617487794654
            ],
            [
              120.83305857223522,
              24.664667771449373
            ],
            [
              120.8330555277922,
              24.664668779288018
            ],
            [
              120.83300972279442,
              24.664683914763796
            ],
            [
              120.8326594349211,
              24.66478400612551
            ],
            [
              120.83213881916463,
              24.66491531752778
            ],
            [
              120.83161688912635,
              24.665016532783675
            ],
            [
              120.83102962857359,
              24.665096897582643
            ],
            [
              120.83097426562927,
              24.66509985994424
            ],
            [
              120.83087326257564,
              24.665105271883142
            ],
            [
              120.83040119029636,
              24.66513055296796
            ],
            [
              120.82984832320044,
              24.665129584769502
            ],
            [
              120.82963772334088,
              24.665124235838597
            ],
            [
              120.82901119135715,
              24.665078226813115
            ],
            [
              120.82831923710988,
              24.66497143104783
            ],
            [
              120.8279947365695,
              24.664902540634852
            ],
            [
              120.82763278270784,
              24.664817661767415
            ],
            [
              120.82749175169668,
              24.66478236899757
            ],
            [
              120.82667927936222,
              24.664541395312792
            ],
            [
              120.82551888246513,
              24.66419917137417
            ],
            [
              120.82452204779366,
              24.663899257798217
            ],
            [
              120.82440211445457,
              24.66386277691697
            ],
            [
              120.82355123231683,
              24.66361335372637
            ],
            [
              120.82247514773184,
              24.66330035014189
            ],
            [
              120.82094534934318,
              24.662839837723897
            ],
            [
              120.82094402598518,
              24.66283943888139
            ],
            [
              120.82094380872745,
              24.662839366392397
            ],
            [
              120.82092350387708,
              24.662833383211794
            ],
            [
              120.8209044435652,
              24.662827645288427
            ],
            [
              120.82090323871635,
              24.66282728270188
            ],
            [
              120.82088681524151,
              24.6628223424502
            ],
            [
              120.82088669673264,
              24.662822306193892
            ],
            [
              120.82086738952638,
              24.662816495741428
            ],
            [
              120.82084822059085,
              24.662810721566387
            ],
            [
              120.82084809220197,
              24.662810685298282
            ],
            [
              120.82080610027128,
              24.662798049131744
            ],
            [
              120.82053288631099,
              24.6627158141291
            ],
            [
              120.8204900472938,
              24.662701407225445
            ],
            [
              120.8201748287398,
              24.662601966738016
            ],
            [
              120.8200559935584,
              24.662566215036374
            ],
            [
              120.81967152469464,
              24.66244060645503
            ],
            [
              120.8188437647596,
              24.662099732070974
            ],
            [
              120.81882363449111,
              24.66208931569577
            ],
            [
              120.81856672539776,
              24.66196606106257
            ],
            [
              120.81843472885586,
              24.661897752532486
            ],
            [
              120.8183240195506,
              24.66183920263076
            ],
            [
              120.81808818636054,
              24.6617084878177
            ],
            [
              120.81804653089023,
              24.661682299117583
            ],
            [
              120.8178173421235,
              24.661548477002405
            ],
            [
              120.81764704630734,
              24.661443130503947
            ],
            [
              120.81740946943764,
              24.661289560713648
            ],
            [
              120.81731462087818,
              24.6612225423045
            ],
            [
              120.81710230755203,
              24.661075900714533
            ],
            [
              120.81698974540016,
              24.66098804021331
            ],
            [
              120.8169622808821,
              24.66096660859521
            ],
            [
              120.81680820956653,
              24.66085435584682
            ],
            [
              120.81611394062823,
              24.66032090116024
            ],
            [
              120.81582896211599,
              24.660088025403628
            ],
            [
              120.81581732667875,
              24.660079244214046
            ],
            [
              120.81581720824025,
              24.660079162810018
            ],
            [
              120.8157964637937,
              24.66006351762279
            ],
            [
              120.81577309421135,
              24.660045900944056
            ],
            [
              120.81548033356954,
              24.65982516769722
            ],
            [
              120.81507421609264,
              24.65952199724643
            ],
            [
              120.81485641602639,
              24.6593546427694
            ],
            [
              120.81378838066526,
              24.658516934564968
            ],
            [
              120.81298615139694,
              24.657898181290825
            ],
            [
              120.8122576053144,
              24.65734346653015
            ],
            [
              120.81171464403727,
              24.656913577815388
            ],
            [
              120.81115838479057,
              24.656486225563153
            ],
            [
              120.81034966431545,
              24.65587181993595
            ],
            [
              120.81031176530917,
              24.655839954734656
            ],
            [
              120.81030827240804,
              24.65583701597705
            ],
            [
              120.81029374825037,
              24.65582479978129
            ],
            [
              120.81027917475271,
              24.655812547406768
            ],
            [
              120.81026872565192,
              24.655803758255118
            ],
            [
              120.81024113767434,
              24.6557805465818
            ],
            [
              120.80993822276785,
              24.65553897837812
            ],
            [
              120.80978749346941,
              24.655400855222766
            ],
            [
              120.80965215935919,
              24.6552740012576
            ],
            [
              120.80951375460978,
              24.655133076459872
            ],
            [
              120.80931918319743,
              24.65492219762957
            ],
            [
              120.80909863477275,
              24.65466243992242
            ],
            [
              120.80896673723683,
              24.654505063438958
            ],
            [
              120.80891268666595,
              24.654433947359447
            ],
            [
              120.8087359086242,
              24.654172159110654
            ],
            [
              120.80872388295099,
              24.65415433907723
            ],
            [
              120.80871296129122,
              24.654138145626078
            ],
            [
              120.80870201990307,
              24.654121934091464
            ],
            [
              120.80855150224787,
              24.653898867310385
            ],
            [
              120.80847475458475,
              24.653766109846266
            ],
            [
              120.80842676232072,
              24.65368741714314
            ],
            [
              120.80805856081983,
              24.653098759250277
            ],
            [
              120.80805553527208,
              24.653093924995368
            ],
            [
              120.80751732730604,
              24.65223346317
            ],
            [
              120.80686025385945,
              24.651178448213958
            ],
            [
              120.80683652093072,
              24.65114204080086
            ],
            [
              120.8062712330299,
              24.6502100678166
            ],
            [
              120.80626587247491,
              24.650201221740595
            ],
            [
              120.80625600864158,
              24.650184957238828
            ],
            [
              120.80625052979114,
              24.650175948491913
            ],
            [
              120.80624660760648,
              24.650169677469023
            ],
            [
              120.80624207439932,
              24.650162448608647
            ],
            [
              120.80615177496051,
              24.65001847315797
            ],
            [
              120.80550788797235,
              24.648966785364333
            ],
            [
              120.80512095582499,
              24.64833356138099
            ],
            [
              120.80500417968275,
              24.64814245139325
            ],
            [
              120.80384869734202,
              24.64625278675806
            ],
            [
              120.80299351604975,
              24.644894791581354
            ],
            [
              120.8022413800748,
              24.643744578920362
            ],
            [
              120.8021083658119,
              24.64352933841244
            ],
            [
              120.80210817858978,
              24.643529040216322
            ],
            [
              120.80208406732409,
              24.643490022215026
            ],
            [
              120.8020597787157,
              24.643450715055366
            ],
            [
              120.8020595914938,
              24.643450416859203
            ],
            [
              120.79928823689059,
              24.63896565095248
            ],
            [
              120.79842654167943,
              24.637570120134114
            ],
            [
              120.7984263643384,
              24.637569830975323
            ],
            [
              120.7984168172826,
              24.637554387985837
            ],
            [
              120.79840712252228,
              24.63753865587665
            ],
            [
              120.79840693530329,
              24.63753836670458
            ],
            [
              120.79810069288163,
              24.63704238394444
            ],
            [
              120.79700778742368,
              24.63528902134776
            ],
            [
              120.7961561388891,
              24.633917805179053
            ],
            [
              120.79601183699084,
              24.63368511824223
            ],
            [
              120.79555687246997,
              24.632953782591176
            ],
            [
              120.79526612758498,
              24.63248999353979
            ],
            [
              120.79497492773514,
              24.63202182432598
            ],
            [
              120.79496978512422,
              24.632013546944542
            ],
            [
              120.79496959792132,
              24.632013257768087
            ],
            [
              120.7949617066515,
              24.632000570590137
            ],
            [
              120.7949524558555,
              24.63198568756245
            ],
            [
              120.79495226865268,
              24.63198539838597
            ],
            [
              120.794947510269,
              24.631977735485265
            ],
            [
              120.79489111877363,
              24.63188708177734
            ],
            [
              120.79473733293095,
              24.631633948494287
            ],
            [
              120.79457650001319,
              24.631359696113474
            ],
            [
              120.79426269181518,
              24.63072494953388
            ],
            [
              120.79419235873804,
              24.63057732287331
            ],
            [
              120.79393482145514,
              24.62995755908724
            ],
            [
              120.79367394259879,
              24.62917270781084
            ],
            [
              120.79343084692287,
              24.62848955367462
            ],
            [
              120.79332488429873,
              24.628182329842065
            ],
            [
              120.79319030191687,
              24.627770558294976
            ],
            [
              120.79292464825653,
              24.626963740946344
            ],
            [
              120.79264226282095,
              24.626134941965997
            ],
            [
              120.7923361229612,
              24.625218710846692
            ],
            [
              120.79233261357248,
              24.62520858472146
            ],
            [
              120.79200969409247,
              24.624276285510973
            ],
            [
              120.79171785522196,
              24.623401767716487
            ],
            [
              120.79169499511335,
              24.623333777203687
            ],
            [
              120.79169487618768,
              24.623333424012998
            ],
            [
              120.79164296210776,
              24.62317904092904
            ],
            [
              120.79158134743314,
              24.62299583348953
            ],
            [
              120.7914796428247,
              24.622693417400956
            ],
            [
              120.79137250453427,
              24.622386190377522
            ],
            [
              120.79125088571782,
              24.622056136428043
            ],
            [
              120.79115915660708,
              24.621831986541956
            ],
            [
              120.79092415869579,
              24.62133241264288
            ],
            [
              120.79073237418388,
              24.620962886112224
            ],
            [
              120.79058940271443,
              24.620711244100352
            ],
            [
              120.79040940350541,
              24.620430297051705
            ],
            [
              120.79040923598258,
              24.620430068389656
            ],
            [
              120.78980777603984,
              24.61960781872193
            ],
            [
              120.78965135994191,
              24.61940694401872
            ],
            [
              120.78933186703668,
              24.61899661645644
            ],
            [
              120.78907497724998,
              24.61866668718263
            ],
            [
              120.78832324279291,
              24.61772762908684
            ],
            [
              120.78810296659883,
              24.61744091634286
            ],
            [
              120.78773586101892,
              24.61696534836786
            ],
            [
              120.78771608227893,
              24.61693972380361
            ],
            [
              120.7876917013119,
              24.616908142760785
            ],
            [
              120.78767925461052,
              24.616892017810557
            ],
            [
              120.7876538890103,
              24.616858665726436
            ],
            [
              120.78763868345305,
              24.61683867255095
            ],
            [
              120.78665344646951,
              24.615543252413435
            ],
            [
              120.78663709812228,
              24.61552175873288
            ],
            [
              120.78627981083856,
              24.615051979501576
            ],
            [
              120.78627846081412,
              24.615050198909284
            ],
            [
              120.78625846652871,
              24.615023905712317
            ],
            [
              120.78625774717337,
              24.615022956665843
            ],
            [
              120.78623723059087,
              24.61499599459245
            ],
            [
              120.78619145762976,
              24.614935797710842
            ],
            [
              120.7861569382344,
              24.614890405993016
            ],
            [
              120.78584959728659,
              24.614491013037625
            ],
            [
              120.7855670430318,
              24.61412323753434
            ],
            [
              120.78538938001711,
              24.613885896811578
            ],
            [
              120.78538354660871,
              24.61387810566011
            ],
            [
              120.78537316078308,
              24.613864231628117
            ],
            [
              120.78535240886022,
              24.61383650164769
            ],
            [
              120.78534547183827,
              24.6138272372249
            ],
            [
              120.78534298870144,
              24.61382392011046
            ],
            [
              120.7853211528804,
              24.613794743970313
            ],
            [
              120.78530009548234,
              24.613766625308024
            ],
            [
              120.78528833940211,
              24.613751277619414
            ],
            [
              120.78451319397936,
              24.61273893411816
            ],
            [
              120.78449932922115,
              24.61272089276241
            ],
            [
              120.78449813686173,
              24.61271934712867
            ],
            [
              120.78445409887092,
              24.61266199626855
            ],
            [
              120.78429678821382,
              24.612457169035377
            ],
            [
              120.78395426598796,
              24.612003043245753
            ],
            [
              120.78390036674453,
              24.611931629236548
            ],
            [
              120.78389430678912,
              24.61192359392316
            ],
            [
              120.78389250357476,
              24.611921207728084
            ],
            [
              120.78387793009465,
              24.611901901263103
            ],
            [
              120.78387743741126,
              24.611901250481285
            ],
            [
              120.78386111987004,
              24.61187962110599
            ],
            [
              120.78385535551708,
              24.611871983483148
            ],
            [
              120.78385427162345,
              24.611870546345713
            ],
            [
              120.78351151556055,
              24.61141641919451
            ],
            [
              120.78346207060432,
              24.61135090724578
            ],
            [
              120.78333834537041,
              24.611189700349872
            ],
            [
              120.78328749946854,
              24.611123454992235
            ],
            [
              120.78321383704915,
              24.611027486413047
            ],
            [
              120.78305853589114,
              24.610825156320935
            ],
            [
              120.78305553049613,
              24.610821231679203
            ],
            [
              120.7828266370351,
              24.610522997757634
            ],
            [
              120.78281528548791,
              24.61050821927133
            ],
            [
              120.78280394383488,
              24.610493431769616
            ],
            [
              120.78267878161768,
              24.610330362313466
            ],
            [
              120.78243183944211,
              24.610013482504154
            ],
            [
              120.7823743610061,
              24.609939733331295
            ],
            [
              120.78211180186072,
              24.609602804502302
            ],
            [
              120.78190325156912,
              24.609347601025462
            ],
            [
              120.7818317084178,
              24.60926939811281
            ],
            [
              120.78183102828727,
              24.609268647735526
            ],
            [
              120.78163113574819,
              24.609050140487373
            ],
            [
              120.78133714080464,
              24.608761550073535
            ],
            [
              120.78110452354518,
              24.608547617321975
            ],
            [
              120.781041744125,
              24.608496070800438
            ],
            [
              120.78098467466434,
              24.608449209486725
            ],
            [
              120.78088358282295,
              24.60836620493238
            ],
            [
              120.78059058152206,
              24.60813831520202
            ],
            [
              120.78017551321456,
              24.607856308533606
            ],
            [
              120.779792959157,
              24.607612874238722
            ],
            [
              120.77961408262821,
              24.60749902995239
            ],
            [
              120.7794611586824,
              24.60740266715057
            ],
            [
              120.77945754816649,
              24.607400395627998
            ],
            [
              120.7794558317024,
              24.607399309655246
            ],
            [
              120.77944169546889,
              24.607390404588354
            ],
            [
              120.77944000860036,
              24.607389336716427
            ],
            [
              120.77942440251188,
              24.607379508555
            ],
            [
              120.77942271564363,
              24.60737844068288
            ],
            [
              120.77942019026334,
              24.607376847910707
            ],
            [
              120.77926405070454,
              24.607278457741852
            ],
            [
              120.7788847595925,
              24.607051620882423
            ],
            [
              120.77853158167649,
              24.606846851798434
            ],
            [
              120.77818210239265,
              24.606667819454035
            ],
            [
              120.77789979498151,
              24.606540828198256
            ],
            [
              120.77756329067094,
              24.6064027682608
            ],
            [
              120.7772277185575,
              24.60627966066646
            ],
            [
              120.77722241821002,
              24.60627805472132
            ],
            [
              120.77720607302389,
              24.606273091766287
            ],
            [
              120.77718646077099,
              24.606267139832347
            ],
            [
              120.77717504087043,
              24.606263664890584
            ],
            [
              120.77717261277753,
              24.606262929961986
            ],
            [
              120.7771638874507,
              24.606260280630615
            ],
            [
              120.77715137192386,
              24.60625648805647
            ],
            [
              120.77680374096906,
              24.606150958819995
            ],
            [
              120.77662370906337,
              24.606106522784124
            ],
            [
              120.77657899230749,
              24.606095486404374
            ],
            [
              120.77646990518912,
              24.60606855400295
            ],
            [
              120.77643292469473,
              24.60606101419096
            ],
            [
              120.77642940039254,
              24.6060602956797
            ],
            [
              120.77628212016326,
              24.606030254666052
            ],
            [
              120.77627876368284,
              24.606029572516007
            ],
            [
              120.77610381234929,
              24.605993892330858
            ],
            [
              120.77609213379564,
              24.605991509408682
            ],
            [
              120.77539344524206,
              24.605893146807084
            ],
            [
              120.77534717557896,
              24.605889114103228
            ],
            [
              120.77529468528594,
              24.605884539398243
            ],
            [
              120.77504755832811,
              24.60586301573914
            ],
            [
              120.77469305872485,
              24.605850197275533
            ],
            [
              120.77431899065215,
              24.605856724467994
            ],
            [
              120.77431672907525,
              24.605856766220946
            ],
            [
              120.77431312439417,
              24.605856824017565
            ],
            [
              120.77429519969533,
              24.60585714023376
            ],
            [
              120.77429160488974,
              24.605857198044678
            ],
            [
              120.77427393697074,
              24.605857505614612
            ],
            [
              120.77427034214894,
              24.605857572453793
            ],
            [
              120.77426125635535,
              24.605857730374463
            ],
            [
              120.7739894923324,
              24.60586246895574
            ],
            [
              120.77318616683223,
              24.60594928240505
            ],
            [
              120.77263937355345,
              24.606049417582273
            ],
            [
              120.77263436498929,
              24.60605033095499
            ],
            [
              120.77263092715842,
              24.606050957778436
            ],
            [
              120.77260403695709,
              24.60605588300034
            ],
            [
              120.77260058923406,
              24.60605651883694
            ],
            [
              120.77258253071987,
              24.60605982318333
            ],
            [
              120.77257905337,
              24.606060458974685
            ],
            [
              120.77255288432418,
              24.606065249844914
            ],
            [
              120.77237446253007,
              24.606097926244022
            ],
            [
              120.77237331659106,
              24.606098132173596
            ],
            [
              120.77237003681537,
              24.606098732143682
            ],
            [
              120.7723438578784,
              24.606103522962464
            ],
            [
              120.77234055833502,
              24.606104131930806
            ],
            [
              120.77229851397361,
              24.606111824077786
            ],
            [
              120.77229523419723,
              24.606112424046213
            ],
            [
              120.7722856121953,
              24.606114188164646
            ],
            [
              120.77203834454347,
              24.606159463524705
            ],
            [
              120.7713525243642,
              24.60630664017245
            ],
            [
              120.7707791790662,
              24.60643034759726
            ],
            [
              120.76984662202797,
              24.606616254184388
            ],
            [
              120.76922846433372,
              24.60675282542999
            ],
            [
              120.76908792292518,
              24.606796643373848
            ],
            [
              120.76908498818212,
              24.606797559809745
            ],
            [
              120.76908182616765,
              24.60679854812736
            ],
            [
              120.76907121367593,
              24.6068018544462
            ],
            [
              120.76906805166126,
              24.606802842763525
            ],
            [
              120.76905428702953,
              24.60680713741357
            ],
            [
              120.76905112503115,
              24.606808116701746
            ],
            [
              120.76904586819572,
              24.606809751878377
            ],
            [
              120.76882097004578,
              24.60687988548229
            ],
            [
              120.768370638011,
              24.60705325949115
            ],
            [
              120.76782491853528,
              24.607321440994227
            ],
            [
              120.7675650005,
              24.607476642276726
            ],
            [
              120.76718373682338,
              24.607734520638502
            ],
            [
              120.76665789459014,
              24.608171513106637
            ],
            [
              120.76586988192012,
              24.608971821476484
            ],
            [
              120.76521925672822,
              24.609637395472312
            ],
            [
              120.76505350421878,
              24.60980460304642
            ],
            [
              120.76492739448477,
              24.60992346894504
            ],
            [
              120.76478748396431,
              24.610049725812686
            ],
            [
              120.7646860038335,
              24.6101423922938
            ],
            [
              120.76453277088541,
              24.610263030228232
            ],
            [
              120.7644259285557,
              24.6103500090222
            ],
            [
              120.76429166149208,
              24.610447093160367
            ],
            [
              120.76414057977546,
              24.61055244829325
            ],
            [
              120.7641228117557,
              24.61056364324597
            ],
            [
              120.76412003332878,
              24.61056539950749
            ],
            [
              120.76410125676222,
              24.61057723392177
            ],
            [
              120.76409848824441,
              24.61057897214081
            ],
            [
              120.76407363078546,
              24.61059464328906
            ],
            [
              120.76407083258843,
              24.610596408547465
            ],
            [
              120.76392090658958,
              24.610690921676174
            ],
            [
              120.76373890163157,
              24.61079685087204
            ],
            [
              120.76360787254131,
              24.61087309196875
            ],
            [
              120.76344333878156,
              24.610957397178883
            ],
            [
              120.76325607079367,
              24.611046713543473
            ],
            [
              120.76301994624356,
              24.611146462267698
            ],
            [
              120.76283232845502,
              24.611216717749596
            ],
            [
              120.76260895774563,
              24.611298329004104
            ],
            [
              120.76233059818954,
              24.611384683496286
            ],
            [
              120.7620165198613,
              24.61146420035845
            ],
            [
              120.76179494086684,
              24.611511819797173
            ],
            [
              120.76145563293598,
              24.611568281133902
            ],
            [
              120.76121684932939,
              24.61160041513985
            ],
            [
              120.76119398181378,
              24.61160282565764
            ],
            [
              120.761190149166,
              24.61160322587151
            ],
            [
              120.7611297058114,
              24.611609603589038
            ],
            [
              120.76112587314609,
              24.611610012830038
            ],
            [
              120.76110416135576,
              24.611612298765483
            ],
            [
              120.76106338506472,
              24.611616594937512
            ],
            [
              120.76105955239898,
              24.61161700417683
            ],
            [
              120.7610051049815,
              24.611622741290898
            ],
            [
              120.76100132171243,
              24.611623141578377
            ],
            [
              120.7610007092821,
              24.61162320380731
            ],
            [
              120.76099778539408,
              24.611623515171566
            ],
            [
              120.76099687663314,
              24.611623604016245
            ],
            [
              120.76097990624834,
              24.611625400880087
            ],
            [
              120.76086804798487,
              24.611637195358462
            ],
            [
              120.76086415606208,
              24.611637604498615
            ],
            [
              120.76084188121195,
              24.61163995270298
            ],
            [
              120.76079893174314,
              24.611644480098303
            ],
            [
              120.7607950496959,
              24.611644889252354
            ],
            [
              120.76073957494782,
              24.611650732982774
            ],
            [
              120.76073376669034,
              24.61165134673509
            ],
            [
              120.76072988464269,
              24.611651755887475
            ],
            [
              120.76066630992369,
              24.611658462505215
            ],
            [
              120.76066242787562,
              24.611658871655855
            ],
            [
              120.76053711574387,
              24.611672080068658
            ],
            [
              120.7601079662315,
              24.611717425378355
            ],
            [
              120.7595013737174,
              24.611778475985954
            ],
            [
              120.75877497241979,
              24.611850997346423
            ],
            [
              120.7580585470838,
              24.611922483893338
            ],
            [
              120.75805551456351,
              24.611922785996867
            ],
            [
              120.75793349261897,
              24.61193495921591
            ],
            [
              120.75737377989388,
              24.611975364574043
            ],
            [
              120.75699502611087,
              24.611989804432334
            ],
            [
              120.75680095138944,
              24.61199026738553
            ],
            [
              120.75679574670403,
              24.611990277031623
            ],
            [
              120.75679258635004,
              24.611990289981545
            ],
            [
              120.75677024666994,
              24.61199034416297
            ],
            [
              120.75676704682942,
              24.611990348019745
            ],
            [
              120.75674223813262,
              24.611990407234988
            ],
            [
              120.75674173445678,
              24.611990406420787
            ],
            [
              120.75673902839864,
              24.611990420103957
            ],
            [
              120.75661559722667,
              24.6119907171065
            ],
            [
              120.7561902749551,
              24.611970986875406
            ],
            [
              120.75597990254556,
              24.611952263256374
            ],
            [
              120.75575885901844,
              24.611925982978736
            ],
            [
              120.75541161917411,
              24.6118746320098
            ],
            [
              120.75521251616527,
              24.61184038707628
            ],
            [
              120.75499775224635,
              24.611794803300732
            ],
            [
              120.7546187168583,
              24.61170570350945
            ],
            [
              120.75424028188816,
              24.611597697445912
            ],
            [
              120.75391196181506,
              24.611492959559445
            ],
            [
              120.75327232315479,
              24.611276774036526
            ],
            [
              120.75268095207865,
              24.611074849375214
            ],
            [
              120.75204277766386,
              24.61085950975372
            ],
            [
              120.75124126595719,
              24.61056511224611
            ],
            [
              120.75087452953606,
              24.610407702474692
            ],
            [
              120.75059322130618,
              24.610274775051355
            ],
            [
              120.75020906253772,
              24.61006415517499
            ],
            [
              120.7498649767581,
              24.609860778824636
            ],
            [
              120.74877935758565,
              24.60914663454011
            ],
            [
              120.74750958622752,
              24.608305391221794
            ],
            [
              120.74717373379805,
              24.60808351350611
            ],
            [
              120.74714000364393,
              24.60806122793888
            ],
            [
              120.74704572693393,
              24.607998942355263
            ],
            [
              120.74702462093,
              24.607985011560075
            ],
            [
              120.74692347998645,
              24.607918181905312
            ],
            [
              120.7469224641366,
              24.607917512066066
            ],
            [
              120.7465010758213,
              24.60763913123689
            ],
            [
              120.74650063199937,
              24.60763884156781
            ],
            [
              120.74602347311972,
              24.607323600190256
            ],
            [
              120.74592673187827,
              24.60725969359284
            ],
            [
              120.74586868242265,
              24.607220771753536
            ],
            [
              120.74550010960056,
              24.606973671794655
            ],
            [
              120.74547895507429,
              24.60695948789461
            ],
            [
              120.74546038445052,
              24.60694704189087
            ],
            [
              120.74487898701095,
              24.60655725035054
            ],
            [
              120.74475953438701,
              24.606482966530457
            ],
            [
              120.74472016072743,
              24.6064584768529
            ],
            [
              120.7444085648607,
              24.606264695621466
            ],
            [
              120.74413133652986,
              24.606105082977077
            ],
            [
              120.74387024022221,
              24.6059723398954
            ],
            [
              120.74366095040514,
              24.60586923586251
            ],
            [
              120.74338071018371,
              24.605754020341873
            ],
            [
              120.7431086183839,
              24.605653020509365
            ],
            [
              120.74272043409042,
              24.605535759554108
            ],
            [
              120.74231556666318,
              24.605434982712012
            ],
            [
              120.74197540184147,
              24.605369040476877
            ],
            [
              120.74158306835764,
              24.605315955212056
            ],
            [
              120.74121123546978,
              24.605287489593902
            ],
            [
              120.74083145879746,
              24.605280172882903
            ],
            [
              120.74046476913122,
              24.605291070808832
            ],
            [
              120.74007627041989,
              24.605313414810926
            ],
            [
              120.73986830280612,
              24.605327528686942
            ],
            [
              120.73983926476815,
              24.605329500948365
            ],
            [
              120.73981435526971,
              24.60533119141955
            ],
            [
              120.73979500645846,
              24.605332503261657
            ],
            [
              120.73978923836728,
              24.605332890556834
            ],
            [
              120.73876300004335,
              24.605402530655937
            ],
            [
              120.73739926093987,
              24.60548367387325
            ],
            [
              120.73604729258965,
              24.605569141128452
            ],
            [
              120.7352803467348,
              24.605617795649184
            ],
            [
              120.73487912578733,
              24.60563112019507
            ],
            [
              120.73458281761076,
              24.605632611388245
            ],
            [
              120.73440752561493,
              24.60563334951059
            ],
            [
              120.73417723204983,
              24.605622343153936
            ],
            [
              120.73394938661208,
              24.605607160440748
            ],
            [
              120.73366425635577,
              24.605581240106574
            ],
            [
              120.73329052227159,
              24.60552777791862
            ],
            [
              120.73305851307789,
              24.605487712152073
            ],
            [
              120.73305549227655,
              24.605487192153223
            ],
            [
              120.73288547865104,
              24.605457835865927
            ],
            [
              120.73244134443695,
              24.605352547742843
            ],
            [
              120.73204805024744,
              24.60523785956693
            ],
            [
              120.73145135467512,
              24.605024574314488
            ],
            [
              120.73100453453104,
              24.604832727152687
            ],
            [
              120.73062069480007,
              24.604639303013816
            ],
            [
              120.73017044466526,
              24.60438572640873
            ],
            [
              120.72960160249445,
              24.604035751717838
            ],
            [
              120.72879841908039,
              24.603530969482527
            ],
            [
              120.72810508514323,
              24.603053630338717
            ],
            [
              120.72743759568557,
              24.602528166185603
            ],
            [
              120.72688116572968,
              24.602040433324564
            ],
            [
              120.72637694403868,
              24.601578254518206
            ],
            [
              120.72637392824876,
              24.60157548622481
            ],
            [
              120.72636862597788,
              24.60157061909445
            ],
            [
              120.72636779809443,
              24.601569868199494
            ],
            [
              120.72634488395174,
              24.60154886168106
            ],
            [
              120.72634387866924,
              24.60154794794515
            ],
            [
              120.72634295225052,
              24.601547097554167
            ],
            [
              120.72632713410671,
              24.601532595637174
            ],
            [
              120.7263261781217,
              24.60153171810596
            ],
            [
              120.72632028452364,
              24.601526308171078
            ],
            [
              120.72631937779664,
              24.601525484902147
            ],
            [
              120.7262997554306,
              24.60150749095059
            ],
            [
              120.72593419406971,
              24.601145502451548
            ],
            [
              120.72541896017259,
              24.600632910668697
            ],
            [
              120.7246216494488,
              24.59984024274208
            ],
            [
              120.72351301172222,
              24.59875009613717
            ],
            [
              120.72309412296445,
              24.59833377581061
            ],
            [
              120.7230936992775,
              24.598333350677805
            ],
            [
              120.72250134574634,
              24.597744611614775
            ],
            [
              120.72249296060275,
              24.597736271606454
            ],
            [
              120.7224922905662,
              24.597735611269083
            ],
            [
              120.72247901816931,
              24.5977224228152
            ],
            [
              120.72247679131108,
              24.597720215683363
            ],
            [
              120.72246456338166,
              24.597708058436623
            ],
            [
              120.72216932985754,
              24.597414619662743
            ],
            [
              120.72200151047905,
              24.59725188178047
            ],
            [
              120.72178148858805,
              24.597019724131876
            ],
            [
              120.72154834878897,
              24.59676302870947
            ],
            [
              120.72139244605387,
              24.596584213836856
            ],
            [
              120.72112033017746,
              24.596270446805466
            ],
            [
              120.72090637036156,
              24.596009081904786
            ],
            [
              120.72061210654775,
              24.59562920013263
            ],
            [
              120.72028489693436,
              24.595185179178884
            ],
            [
              120.72003416068766,
              24.59482916801227
            ],
            [
              120.71970264053938,
              24.5943449776532
            ],
            [
              120.71917491673167,
              24.593567842419922
            ],
            [
              120.71879290341305,
              24.593013573595712
            ],
            [
              120.7183207469515,
              24.59232357673596
            ],
            [
              120.71782663505708,
              24.59159828877907
            ],
            [
              120.71743970789142,
              24.591012505756957
            ],
            [
              120.71707082491797,
              24.59040904111153
            ],
            [
              120.71675785063535,
              24.58984198553672
            ],
            [
              120.71655817097715,
              24.589452603750455
            ],
            [
              120.71642929335306,
              24.589189144351376
            ],
            [
              120.71632235286242,
              24.5889668433448
            ],
            [
              120.71606869728816,
              24.58839202489189
            ],
            [
              120.71549440373522,
              24.586916238883806
            ],
            [
              120.7149886907991,
              24.585591903136788
            ],
            [
              120.71497094709149,
              24.585539664982335
            ]
          ],
          [
            [
              120.60272853995731,
              24.30424046864861
            ],
            [
              120.60043015701802,
              24.29795425370797
            ],
            [
              120.59867709697264,
              24.294229392438183
            ],
            [
              120.59727893296167,
              24.292445331741632
            ],
            [
              120.58846904824046,
              24.28194752561714
            ],
            [
              120.58660457828077,
              24.2797470331695
            ],
            [
              120.58563675306664,
              24.278654897502726
            ],
            [
              120.58481128879512,
              24.27756276183595
            ],
            [
              120.58367891769902,
              24.275943825394513
            ],
            [
              120.58311273214966,
              24.27528035068137
            ],
            [
              120.5825287514838,
              24.274876422797995
            ],
            [
              120.58208138034277,
              24.274614731396543
            ],
            [
              120.58153877175143,
              24.27436750950868
            ],
            [
              120.58029482548682,
              24.274205864989067
            ],
            [
              120.57799740785774,
              24.27415749741226
            ],
            [
              120.57660266896552,
              24.274111609989383
            ],
            [
              120.57614339314242,
              24.274081431503333
            ],
            [
              120.57544602369643,
              24.273993374706766
            ],
            [
              120.57441636169231,
              24.273683417697086
            ],
            [
              120.57392637856643,
              24.273373460687402
            ],
            [
              120.57357468260066,
              24.273149778340763
            ],
            [
              120.57323885954389,
              24.272839277913775
            ],
            [
              120.57277356123514,
              24.272319564854648
            ],
            [
              120.5721762956864,
              24.271135441034264
            ],
            [
              120.57106112913013,
              24.268680372685736
            ],
            [
              120.56883682045348,
              24.26347411870312
            ]
          ]
        ]
      }
    }
  ]
}