{"type": "FeatureCollection", "features": [{"type": "Feature", "properties": {"track_id": "WL-SH-1", "route_id": "WL-SH", "direction": 1, "name": "\u897f\u90e8\u5e79\u7dda (\u4ec1\u5fb7\u2192\u5927\u6e56)"}, "geometry": {"type": "LineString", "coordinates": [[120.24048927715309, 22.923416816020307], [120.2421331768499, 22.9220922001846], [120.24269011592544, 22.921648088635237], [120.24318280997014, 22.921255752866994], [120.24338317287977, 22.921102226290834], [120.24357972188349, 22.92091451523894], [120.2438667161769, 22.92064684111792], [120.24410658087484, 22.920409452939836], [120.24502154553245, 22.919421657348646], [120.24601681648721, 22.918367291503777], [120.24748464621534, 22.916786707860894], [120.24833500520316, 22.91586327373615], [120.24867987840476, 22.91546812830166], [120.24906490475118, 22.914991617438634], [120.24950345112855, 22.914298862337255], [120.249827122498, 22.91364181459939], [120.25005721853202, 22.913032206111296], [120.25025920736414, 22.9123486272709], [120.25137780294054, 22.908366714357733], [120.25196515106379, 22.906265945940394], [120.25262262502996, 22.904203934471965], [120.25299866894812, 22.902625125179604], [120.25345024252022, 22.90094581621608], [120.25356075950708, 22.900350576140987], [120.25366427509664, 22.899600546433636], [120.25370187780271, 22.897389193826186], [120.25370977715204, 22.896557401885214], [120.25374729119852, 22.895183880170187], [120.25380280810779, 22.892836831573238], [120.25371397712472, 22.889956173577737], [120.25370768434655, 22.888557336857577], [120.25389912240884, 22.883538509811963], [120.25399484143998, 22.88097982431913], [120.25400651856035, 22.879835997990227], [120.25408686730813, 22.87885406245635], [120.25429024115495, 22.87785188063588], [120.25447896779895, 22.877190415075923], [120.25470915581404, 22.876522235129766], [120.25496723930755, 22.875866905861315], [120.25584860940957, 22.873508792603022], [120.25637596609809, 22.872102452956895], [120.25670631493061, 22.871190425093705], [120.25700999556699, 22.870364396167666], [120.25821019518413, 22.867157353674], [120.2586369517199, 22.866020710665836], [120.25915701423925, 22.864917936112867], [120.25937415255427, 22.864440176306847], [120.25965040856059, 22.863950311473033], [120.25971715109961, 22.863818375471194], [120.2600823915737, 22.86330825204093], [120.26334500512652, 22.858600316113673], [120.26498608248788, 22.856232843636313], [120.2658505888013, 22.85499058483059], [120.26665647160439, 22.85382035404732]]}}]}