{
  "type": "FeatureCollection",
  "features": [
    {
      "type": "Feature",
      "properties": {
        "name": "集集線缺口",
        "gap_id": "JJ-gap-01",
        "line": "集集線",
        "note": "從現有軌道終點補到車埕站，需經過: 濁水 → 龍泉 → 集集 → 水里 → 車埕",
        "stroke": "#8B4513",
        "stroke-width": 4,
        "stroke-opacity": 0.9,
        "stations_to_pass": [
          {
            "id": "3432",
            "name": "濁水",
            "approx_coord": [
              120.664,
              23.828
            ]
          },
          {
            "id": "3433",
            "name": "龍泉",
            "approx_coord": [
              120.687,
              23.832
            ]
          },
          {
            "id": "3434",
            "name": "集集",
            "approx_coord": [
              120.781,
              23.827
            ]
          },
          {
            "id": "3435",
            "name": "水里",
            "approx_coord": [
              120.855,
              23.819
            ]
          },
          {
            "id": "3436",
            "name": "車埕",
            "approx_coord": [
              120.867,
              23.833
            ]
          }
        ]
      },
      "geometry": {
        "coordinates": [
          [
            120.70119583446967,
            23.83407923079343
          ],
          [
            120.70321045424626,
            23.834111373619187
          ],
          [
            120.703389120985,
            23.834134972630693
          ],
          [
            120.70362105453785,
            23.834194007402907
          ],
          [
            120.70378907752156,
            23.834244564757203
          ],
          [
            120.70403457950673,
            23.834290692645098
          ],
          [
            120.70479675999003,
            23.834513617585355
          ],
          [
            120.70561707491322,
            23.834736957885966
          ],
          [
            120.70615840913587,
            23.834824440805328
          ],
          [
            120.70647836292339,
            23.834907083854674
          ],
          [
            120.70664046160832,
            23.8349438767734
          ],
          [
            120.7068435815751,
            23.83497549414449
          ],
          [
            120.70699706868629,
            23.83498948570316
          ],
          [
            120.7071350377108,
            23.83499496050277
          ],
          [
            120.70732033690138,
            23.834992628274914
          ],
          [
            120.70748204198696,
            23.834982945401762
          ],
          [
            120.70760340004394,
            23.834967584688876
          ],
          [
            120.70782869591457,
            23.834936917111094
          ],
          [
            120.7079547794582,
            23.83491159791525
          ],
          [
            120.70809261916219,
            23.83486784411713
          ],
          [
            120.7084120891787,
            23.83475643873045
          ],
          [
            120.70891850448362,
            23.834487822143643
          ],
          [
            120.71123080273283,
            23.83322452502141
          ],
          [
            120.71185866911023,
            23.83288138708187
          ],
          [
            120.71232492850763,
            23.83264059048922
          ],
          [
            120.71249429625622,
            23.83257173932368
          ],
          [
            120.71273480446064,
            23.832505846081837
          ],
          [
            120.71291683575545,
            23.832472860494597
          ],
          [
            120.71307668582088,
            23.832461742757694
          ],
          [
            120.7131885097306,
            23.832458487485795
          ],
          [
            120.71332887474185,
            23.832464446600444
          ],
          [
            120.71342913427569,
            23.832473861124107
          ],
          [
            120.71349896005167,
            23.832483275647775
          ],
          [
            120.71369052085623,
            23.832519600905137
          ],
          [
            120.7138045615113,
            23.832551682875657
          ],
          [
            120.71392063108499,
            23.832591188494106
          ],
          [
            120.71403999346697,
            23.83264156806339
          ],
          [
            120.71416747151802,
            23.832703083096767
          ],
          [
            120.71480537675762,
            23.83300392870394
          ],
          [
            120.7162377903432,
            23.833688195225502
          ],
          [
            120.71748310765507,
            23.83427951476604
          ],
          [
            120.71777047700476,
            23.834391561474146
          ],
          [
            120.71861738559771,
            23.834685115388254
          ],
          [
            120.7194417136042,
            23.83496981721793
          ],
          [
            120.7228521313909,
            23.836149089051688
          ],
          [
            120.72361235843317,
            23.836323669235668
          ],
          [
            120.72399049954555,
            23.836354597624894
          ],
          [
            120.72451927951157,
            23.83643763141746
          ],
          [
            120.72595114361968,
            23.83666062685236
          ],
          [
            120.72737516823732,
            23.83698670666191
          ],
          [
            120.72838240826434,
            23.837214042747508
          ],
          [
            120.72879324242469,
            23.837273701951162
          ],
          [
            120.72945712891678,
            23.837312786368386
          ],
          [
            120.7302943685387,
            23.837341923187505
          ],
          [
            120.73074672865957,
            23.837369350824744
          ],
          [
            120.73132868414635,
            23.837381263380035
          ],
          [
            120.73186902232804,
            23.837399520467592
          ],
          [
            120.73200670602961,
            23.83739590903927
          ],
          [
            120.73215826216767,
            23.8373827808132
          ],
          [
            120.73236357399163,
            23.83734586059082
          ],
          [
            120.73252033229224,
            23.837305768101338
          ],
          [
            120.73267969167404,
            23.837249021206542
          ],
          [
            120.73281477429428,
            23.837189102042487
          ],
          [
            120.73338666500717,
            23.836878927384777
          ],
          [
            120.73399090037871,
            23.83654566501189
          ],
          [
            120.73479975417357,
            23.83613309546842
          ],
          [
            120.7355496501199,
            23.835752248768465
          ],
          [
            120.7359182819828,
            23.835565285807107
          ],
          [
            120.73603190401545,
            23.835507831615256
          ],
          [
            120.73617253779804,
            23.835457857651285
          ],
          [
            120.73633942931566,
            23.835407883687317
          ],
          [
            120.73645680778463,
            23.835378729076645
          ],
          [
            120.7366171451755,
            23.835351360601017
          ],
          [
            120.73683215755726,
            23.835335602004285
          ],
          [
            120.73715456724116,
            23.8353252018132
          ],
          [
            120.73852709784175,
            23.83529252512846
          ],
          [
            120.73988585199697,
            23.835250397344687
          ],
          [
            120.74050656502985,
            23.835233323620606
          ],
          [
            120.74121682495304,
            23.835222550631762
          ],
          [
            120.74193483412395,
            23.835216503189535
          ],
          [
            120.74226800787537,
            23.83524498314314
          ],
          [
            120.74256674051807,
            23.835289214931638
          ],
          [
            120.74281502236029,
            23.835338905633442
          ],
          [
            120.74312529820219,
            23.835423250345976
          ],
          [
            120.74362375255072,
            23.835591362192602
          ],
          [
            120.74414088498527,
            23.835770864045422
          ],
          [
            120.74459259865708,
            23.835916876249645
          ],
          [
            120.74515436900413,
            23.83611186282856
          ],
          [
            120.7453926449087,
            23.836197059873093
          ],
          [
            120.74568113690671,
            23.836282256917624
          ],
          [
            120.74597153278579,
            23.836337796103635
          ],
          [
            120.74629261627973,
            23.836363989308673
          ],
          [
            120.74652093935947,
            23.83636340918701
          ],
          [
            120.74669485287954,
            23.836347112663027
          ],
          [
            120.74694465341841,
            23.83630855122923
          ],
          [
            120.74710678128142,
            23.836269624999737
          ],
          [
            120.74722309056679,
            23.836230698770244
          ],
          [
            120.74814472092265,
            23.835905056506753
          ],
          [
            120.74864250751861,
            23.8357186408577
          ],
          [
            120.74882984253952,
            23.835647644209928
          ],
          [
            120.74930329044582,
            23.835496349742314
          ],
          [
            120.75003729966149,
            23.83524612254399
          ],
          [
            120.75036068574377,
            23.835125810523984
          ],
          [
            120.75064455595319,
            23.834963433038048
          ],
          [
            120.75075845520307,
            23.834885702865915
          ],
          [
            120.75113209361706,
            23.83463243956254
          ],
          [
            120.7515074951921,
            23.834382514819175
          ],
          [
            120.75190949171702,
            23.834128167011258
          ],
          [
            120.75216021663981,
            23.834042344941338
          ],
          [
            120.75235654280536,
            23.83399080171911
          ],
          [
            120.75359935095742,
            23.833759749740572
          ],
          [
            120.75387308011076,
            23.833708618529357
          ],
          [
            120.75420954797397,
            23.833652497014818
          ],
          [
            120.7547788284388,
            23.83351530245581
          ],
          [
            120.7550786783685,
            23.83338152724172
          ],
          [
            120.75583912864822,
            23.832918927820455
          ],
          [
            120.75661916959331,
            23.832439798243783
          ],
          [
            120.7569714461614,
            23.832196812740385
          ],
          [
            120.75734474251651,
            23.83185768978342
          ],
          [
            120.75804509169487,
            23.831187134634277
          ],
          [
            120.75839938267109,
            23.830865750325405
          ],
          [
            120.75861450871687,
            23.83071369917871
          ],
          [
            120.75883286585,
            23.830603263446562
          ],
          [
            120.75897626186469,
            23.830547709550267
          ],
          [
            120.75909123972323,
            23.830507752862346
          ],
          [
            120.75922119494633,
            23.83047217732985
          ],
          [
            120.75939661921575,
            23.830434002260922
          ],
          [
            120.75957247549206,
            23.830404435537595
          ],
          [
            120.7598922175361,
            23.83032551173121
          ],
          [
            120.76013056089417,
            23.830235431121984
          ],
          [
            120.76037269072027,
            23.830124568560723
          ],
          [
            120.76086688651435,
            23.829755946406273
          ],
          [
            120.76119948277992,
            23.829342113600788
          ],
          [
            120.76132950423,
            23.829094387158325
          ],
          [
            120.76147681894474,
            23.828635260226243
          ],
          [
            120.76151924937929,
            23.828250677877254
          ],
          [
            120.76136647237392,
            23.8268993339346
          ],
          [
            120.76136051751357,
            23.82678151557791
          ],
          [
            120.7613633499285,
            23.826639582189642
          ],
          [
            120.76138617677553,
            23.8264829382653
          ],
          [
            120.76141559407742,
            23.82634036147488
          ],
          [
            120.76145105263163,
            23.82622642144637
          ],
          [
            120.76149749527862,
            23.82610243344576
          ],
          [
            120.76161229058218,
            23.82586747752866
          ],
          [
            120.76182313304338,
            23.825639843426895
          ],
          [
            120.76297443725709,
            23.82468368526093
          ],
          [
            120.76377419939837,
            23.824117742608653
          ],
          [
            120.76406818610926,
            23.82404398447897
          ],
          [
            120.76439418853944,
            23.824021479764987
          ],
          [
            120.76470418310998,
            23.824028262702523
          ],
          [
            120.76501417768051,
            23.824078977145504
          ],
          [
            120.76531775390065,
            23.824123841576956
          ],
          [
            120.7656133261903,
            23.824214145558276
          ],
          [
            120.76662124823424,
            23.82456868261336
          ],
          [
            120.76743560647094,
            23.824838549697436
          ],
          [
            120.76767052774976,
            23.82496312081203
          ],
          [
            120.76790456586352,
            23.82508607611532
          ],
          [
            120.76805239552684,
            23.82521482642586
          ],
          [
            120.76817234741844,
            23.825346507964916
          ],
          [
            120.76843857461839,
            23.825690501096837
          ],
          [
            120.76866091922739,
            23.82606214776361
          ],
          [
            120.7687506378199,
            23.82617348401117
          ],
          [
            120.7688364557371,
            23.826254490209408
          ],
          [
            120.76897463229568,
            23.826364681635244
          ],
          [
            120.76911865986582,
            23.826465952471075
          ],
          [
            120.76921407770196,
            23.82652640052298
          ],
          [
            120.76931144587422,
            23.82657971211193
          ],
          [
            120.76949838087094,
            23.826669386193412
          ],
          [
            120.76998573309959,
            23.82688702422017
          ],
          [
            120.77072178240303,
            23.82716819654624
          ],
          [
            120.77144370538531,
            23.82748013628933
          ],
          [
            120.77163470285464,
            23.827562561345893
          ],
          [
            120.77199720381253,
            23.827695308149384
          ],
          [
            120.77208950587678,
            23.827727411503645
          ],
          [
            120.7722278804836,
            23.827744943228943
          ],
          [
            120.7723436036864,
            23.82775063455911
          ],
          [
            120.77249556706823,
            23.827753079731878
          ],
          [
            120.77268673440358,
            23.827747248973044
          ],
          [
            120.77286885467022,
            23.82771107312832
          ],
          [
            120.77303438865314,
            23.827665242027017
          ],
          [
            120.7735197122511,
            23.82747898602913
          ],
          [
            120.77414494132233,
            23.82718372959294
          ],
          [
            120.77449308714868,
            23.82703327506206
          ],
          [
            120.77463573779377,
            23.82698859557776
          ],
          [
            120.77481289600004,
            23.826941248646946
          ],
          [
            120.77504771585947,
            23.826893583923322
          ],
          [
            120.77521983059623,
            23.826866521546705
          ],
          [
            120.77545477936391,
            23.826840733740582
          ],
          [
            120.7756285848321,
            23.826832988543533
          ],
          [
            120.77629571882458,
            23.826772391621695
          ],
          [
            120.77995288575028,
            23.826492002248134
          ],
          [
            120.78184161440475,
            23.826347130441548
          ],
          [
            120.78274461205226,
            23.826283103685796
          ],
          [
            120.78384984680355,
            23.82626252422753
          ],
          [
            120.78496130246499,
            23.826318069302054
          ],
          [
            120.78562270761526,
            23.82632974499973
          ],
          [
            120.78607473483927,
            23.82629101714106
          ],
          [
            120.7907971814287,
            23.826521023053584
          ],
          [
            120.79395013822715,
            23.826653445546235
          ],
          [
            120.7964322672945,
            23.826809707165594
          ],
          [
            120.79668177058585,
            23.826829092428262
          ],
          [
            120.79680576786645,
            23.826841010499344
          ],
          [
            120.79688505529063,
            23.826837843425544
          ],
          [
            120.7969730844121,
            23.826827236696623
          ],
          [
            120.79707351057743,
            23.826826348110394
          ],
          [
            120.79717804881946,
            23.82681936855503
          ],
          [
            120.79729351884079,
            23.826769824386368
          ],
          [
            120.7974336942093,
            23.826765479685474
          ],
          [
            120.79804397576842,
            23.82678604868901
          ],
          [
            120.79872013825496,
            23.82676895146946
          ],
          [
            120.7992254220868,
            23.826783870545746
          ],
          [
            120.80001893497553,
            23.826670724442252
          ],
          [
            120.80368502643901,
            23.82544113384963
          ],
          [
            120.80815435306091,
            23.82345430903724
          ],
          [
            120.81092089760415,
            23.822204017934304
          ],
          [
            120.81172273449292,
            23.821929441210706
          ],
          [
            120.81243207029468,
            23.821860371243798
          ],
          [
            120.8151024990878,
            23.822049243336252
          ],
          [
            120.81828603660426,
            23.822644923486784
          ],
          [
            120.82157219586543,
            23.823350127364687
          ],
          [
            120.82540567110142,
            23.82421179429508
          ],
          [
            120.8270405039921,
            23.824366210781207
          ],
          [
            120.82759497937442,
            23.824438510128296
          ],
          [
            120.82811905969481,
            23.824464842030498
          ],
          [
            120.82890574910104,
            23.824429556150335
          ],
          [
            120.8293377890524,
            23.824381485250186
          ],
          [
            120.82975356212658,
            23.82430365286052
          ],
          [
            120.83057600716768,
            23.824002609040605
          ],
          [
            120.83108483096038,
            23.823710719582238
          ],
          [
            120.83180498633129,
            23.82341254273445
          ],
          [
            120.83261939403367,
            23.823256379377078
          ],
          [
            120.83388101475217,
            23.82309261074858
          ],
          [
            120.83553648889556,
            23.822887912767467
          ],
          [
            120.83688893681824,
            23.822746197869947
          ],
          [
            120.83759168275209,
            23.822588918974937
          ],
          [
            120.83857529521637,
            23.822240058976153
          ],
          [
            120.83928413209858,
            23.82193725020292
          ],
          [
            120.8400273549303,
            23.8214854370992
          ],
          [
            120.84083978791384,
            23.820662300126592
          ],
          [
            120.84172994573407,
            23.81988664207558
          ],
          [
            120.84231967893655,
            23.819496744830342
          ],
          [
            120.84356968103961,
            23.818952058299885
          ],
          [
            120.84385987152399,
            23.818822100223905
          ],
          [
            120.84454428324857,
            23.81862301410766
          ],
          [
            120.84524317326671,
            23.818473597293846
          ],
          [
            120.84659003144222,
            23.818176646804226
          ],
          [
            120.847780000446,
            23.818055353500522
          ],
          [
            120.84812814286515,
            23.81802188881037
          ],
          [
            120.84873455524385,
            23.817862968966907
          ],
          [
            120.84943744919694,
            23.817664437153887
          ],
          [
            120.85011291625261,
            23.817461723491675
          ],
          [
            120.85060881704425,
            23.817429657492184
          ],
          [
            120.85098018848134,
            23.817457533975023
          ],
          [
            120.8512122321257,
            23.81751444089365
          ],
          [
            120.85141098486339,
            23.817575320298033
          ],
          [
            120.8518885821257,
            23.817857037658946
          ],
          [
            120.85236617938799,
            23.81812499071482
          ],
          [
            120.85334328629386,
            23.81867142192843
          ],
          [
            120.85350467426994,
            23.818765211789504
          ],
          [
            120.85491073300066,
            23.819766368957445
          ],
          [
            120.85563611240968,
            23.82042948650895
          ],
          [
            120.85618355793186,
            23.8209478534819
          ],
          [
            120.8562891620995,
            23.821074698517677
          ],
          [
            120.85662541903122,
            23.82153988684393
          ],
          [
            120.85671155198183,
            23.821673216359976
          ],
          [
            120.85671907366887,
            23.821829255582767
          ],
          [
            120.85665212152648,
            23.82205720883455
          ],
          [
            120.85654793246762,
            23.82233815130766
          ],
          [
            120.85638460874469,
            23.822967144779675
          ],
          [
            120.85637906870097,
            23.823325282538455
          ],
          [
            120.85646729062447,
            23.82364253095148
          ],
          [
            120.85707185896462,
            23.82485076606116
          ],
          [
            120.85739897475827,
            23.82549750331552
          ],
          [
            120.85773380161625,
            23.826090160444473
          ],
          [
            120.85816222439226,
            23.826605179272107
          ],
          [
            120.85862767428722,
            23.82699889958667
          ],
          [
            120.85896279060833,
            23.827205266250264
          ],
          [
            120.85921409773462,
            23.82731360896699
          ],
          [
            120.85950683867773,
            23.827372678690992
          ],
          [
            120.85973892592895,
            23.82738522527799
          ],
          [
            120.86007704675976,
            23.82735564876576
          ],
          [
            120.86044759771524,
            23.827279598994465
          ],
          [
            120.86075819108629,
            23.82723570105362
          ],
          [
            120.86106687281409,
            23.827162046030274
          ],
          [
            120.86143781881815,
            23.82712105597644
          ],
          [
            120.86197343362775,
            23.827228288134158
          ],
          [
            120.86229238046268,
            23.827390084582184
          ],
          [
            120.86249500277694,
            23.827536768088443
          ],
          [
            120.86268164401565,
            23.827718537073444
          ],
          [
            120.86279769525872,
            23.82791257660609
          ],
          [
            120.8633767967629,
            23.82948154076213
          ],
          [
            120.86365879578268,
            23.829902869379815
          ],
          [
            120.86404581870687,
            23.830393561094944
          ],
          [
            120.86447915589966,
            23.8308355300428
          ],
          [
            120.8673931205406,
            23.833916391587536
          ]
        ],
        "type": "LineString"
      }
    },
    {
      "type": "Feature",
      "properties": {
        "name": "現有軌道終點 (起點標記)",
        "type": "gap_start",
        "note": "從這裡開始手繪"
      },
      "geometry": {
        "coordinates": [
          120.70141214730648,
          23.834092134962344
        ],
        "type": "Point"
      }
    },
    {
      "type": "Feature",
      "properties": {
        "name": "車埕站 (終點標記)",
        "type": "gap_end",
        "station_id": 3436,
        "note": "手繪終點"
      },
      "geometry": {
        "coordinates": [
          120.867,
          23.833
        ],
        "type": "Point"
      }
    },
    {
      "type": "Feature",
      "properties": {
        "name": "濁水站 (參考點)",
        "type": "reference_station",
        "station_id": 3432
      },
      "geometry": {
        "coordinates": [
          120.664,
          23.828
        ],
        "type": "Point"
      }
    },
    {
      "type": "Feature",
      "properties": {
        "name": "龍泉站 (參考點)",
        "type": "reference_station",
        "station_id": 3433
      },
      "geometry": {
        "coordinates": [
          120.687,
          23.832
        ],
        "type": "Point"
      }
    },
    {
      "type": "Feature",
      "properties": {
        "name": "集集站 (參考點)",
        "type": "reference_station",
        "station_id": 3434
      },
      "geometry": {
        "coordinates": [
          120.781,
          23.827
        ],
        "type": "Point"
      }
    },
    {
      "type": "Feature",
      "properties": {
        "name": "水里站 (參考點)",
        "type": "reference_station",
        "station_id": 3435
      },
      "geometry": {
        "coordinates": [
          120.855,
          23.819
        ],
        "type": "Point"
      }
    }
  ]
}