{
  "type": "FeatureCollection",
  "features": [
    {
      "type": "Feature",
      "properties": {
        "track_id": "CZ-1",
        "line_id": "CZ",
        "direction": 1,
        "name": "成追線 (追分→成功)",
        "origin": "追分",
        "destination": "成功"
      },
      "geometry": {
        "type": "LineString",
        "coordinates": [
          [
            120.56587896354335,
            24.121316413321892
          ],
          [
            120.56669356225814,
            24.121133450748232
          ],
          [
            120.57480583022493,
            24.11896940221618
          ],
          [
            120.57550120941335,
            24.1187604213564
          ],
          [
            120.57621299763184,
            24.118460367052364
          ],
          [
            120.57684974821734,
            24.118102560984426
          ],
          [
            120.57891983917932,
            24.116576744221447
          ],
          [
            120.57978004701158,
            24.116141282594185
          ],
          [
            120.58058995396323,
            24.115884739289356
          ],
          [
            120.5816855161737,
            24.11573397334422
          ],
          [
            120.5826668249141,
            24.115775808007186
          ],
          [
            120.58391667751278,
            24.115985448070035
          ],
          [
            120.58460997566988,
            24.11604564329184
          ],
          [
            120.58559151913335,
            24.11600338774622
          ],
          [
            120.58655211019175,
            24.115813468017166
          ],
          [
            120.59347943682656,
            24.113374273703812
          ],
          [
            120.59482603219567,
            24.112817734550845
          ]
        ]
      }
    }
  ]
}