{
  "type": "FeatureCollection",
  "features": [
    {
      "type": "Feature",
      "properties": {
        "track_id": "PT-0",
        "line_id": "PT",
        "direction": 0,
        "name": "屏東線 (左營→屏東)",
        "origin": "左營",
        "destination": "屏東"
      },
      "geometry": {
        "type": "LineString",
        "coordinates": [
          [
            120.2939,
            22.6743
          ],
          [
            120.287,
            22.6659
          ],
          [
            120.2815,
            22.6519
          ],
          [
            120.2809,
            22.6421
          ],
          [
            120.2939,
            22.6392
          ],
          [
            120.303,
            22.6396
          ],
          [
            120.3151,
            22.6387
          ],
          [
            120.3264,
            22.6371
          ],
          [
            120.3422,
            22.6342
          ],
          [
            120.3576,
            22.6316
          ],
          [
            120.3911,
            22.6404
          ],
          [
            120.4212,
            22.656
          ],
          [
            120.4648,
            22.6657
          ],
          [
            120.4861,
            22.669
          ]
        ]
      }
    }
  ]
}