{
  "type": "FeatureCollection",
  "features": [
    {
      "type": "Feature",
      "properties": {
        "track_id": "PT-1",
        "line_id": "PT",
        "direction": 1,
        "name": "屏東線 (屏東→左營)",
        "origin": "屏東",
        "destination": "左營"
      },
      "geometry": {
        "type": "LineString",
        "coordinates": [
          [
            120.4862,
            22.669
          ],
          [
            120.465,
            22.666
          ],
          [
            120.4209,
            22.6564
          ],
          [
            120.3913,
            22.6402
          ],
          [
            120.3575,
            22.6315
          ],
          [
            120.3424,
            22.6343
          ],
          [
            120.326,
            22.6371
          ],
          [
            120.3149,
            22.6388
          ],
          [
            120.3029,
            22.6395
          ],
          [
            120.2941,
            22.6393
          ],
          [
            120.2807,
            22.6418
          ],
          [
            120.2815,
            22.6518
          ],
          [
            120.287,
            22.6659
          ],
          [
            120.294,
            22.6745
          ]
        ]
      }
    }
  ]
}