{
  "type": "FeatureCollection",
  "features": [
    {
      "type": "Feature",
      "properties": {
        "track_id": "SH-0",
        "line_id": "SH",
        "direction": 0,
        "name": "沙崙線 (中洲→沙崙)",
        "origin": "中洲",
        "destination": "沙崙"
      },
      "geometry": {
        "type": "LineString",
        "coordinates": [
          [
            120.25265287043374,
            22.90396368657491
          ],
          [
            120.25325044025567,
            22.901924513405618
          ],
          [
            120.25349004033319,
            22.901262615077655
          ],
          [
            120.25361543460474,
            22.90101657135773
          ],
          [
            120.25376465641386,
            22.90084643941168
          ],
          [
            120.25399136201179,
            22.900655166203023
          ],
          [
            120.25425091444822,
            22.90049367494322
          ],
          [
            120.25473630283818,
            22.90029955358159
          ],
          [
            120.25503105294081,
            22.900231129563053
          ],
          [
            120.25548858572972,
            22.900245051068282
          ],
          [
            120.2558604347114,
            22.900323941396834
          ],
          [
            120.25630026614442,
            22.900512065179726
          ],
          [
            120.256646758741,
            22.900749668762273
          ],
          [
            120.2569000869695,
            22.901004988989087
          ],
          [
            120.25707011909083,
            22.901264458687876
          ],
          [
            120.25755439322074,
            22.902287804438686
          ],
          [
            120.25779785498707,
            22.9025566918379
          ],
          [
            120.25829576104059,
            22.90287668680969
          ],
          [
            120.25867714373521,
            22.90300553357855
          ],
          [
            120.25904425059173,
            22.90305716455657
          ],
          [
            120.2603715932745,
            22.903086040888127
          ],
          [
            120.26332089294488,
            22.90301351596105
          ],
          [
            120.26393794298178,
            22.903043604578727
          ],
          [
            120.26467701483239,
            22.903155941593468
          ],
          [
            120.26551349225394,
            22.9033731026866
          ],
          [
            120.26795244015307,
            22.904382750863306
          ],
          [
            120.2689053510012,
            22.904813723074938
          ],
          [
            120.26933941777997,
            22.905169696324492
          ],
          [
            120.27021148497215,
            22.906063180871172
          ],
          [
            120.27063086402325,
            22.906419082174978
          ],
          [
            120.27091405603892,
            22.906592832093565
          ],
          [
            120.27487542486108,
            22.908285407445646
          ],
          [
            120.28044851908396,
            22.910591252084657
          ],
          [
            120.28445771655049,
            22.91197762626649
          ],
          [
            120.2883943360298,
            22.913272165278272
          ],
          [
            120.28867687873503,
            22.913402463552927
          ],
          [
            120.28902394959562,
            22.9136233730203
          ],
          [
            120.28929667080479,
            22.913856852311937
          ],
          [
            120.28965933860763,
            22.914287641961153
          ],
          [
            120.28983542856224,
            22.914576334230503
          ],
          [
            120.2899645496243,
            22.914857557630228
          ],
          [
            120.2901053429872,
            22.915404963268486
          ],
          [
            120.29012963367575,
            22.915755879630183
          ],
          [
            120.2900585287781,
            22.916370080614797
          ],
          [
            120.28985700329815,
            22.91695224594946
          ],
          [
            120.2861959297984,
            22.924149831449597
          ]
        ]
      }
    }
  ]
}