{
  "type": "FeatureCollection",
  "features": [
    {
      "type": "Feature",
      "properties": {
        "track_id": "WL-1",
        "line_id": "WL",
        "direction": 1,
        "name": "西部幹線 (屏東→基隆)",
        "origin": "屏東",
        "destination": "基隆"
      },
      "geometry": {
        "type": "LineString",
        "coordinates": [
          [
            120.36329001092534,
            22.630831101474268
          ],
          [
            120.362351026079,
            22.630699608000427
          ],
          [
            120.36094260231913,
            22.630785198278442
          ],
          [
            120.36039627137102,
            22.63088657075872
          ],
          [
            120.36327535737203,
            22.630873594440875
          ],
          [
            120.36233627270083,
            22.63074271520428
          ],
          [
            120.36092791459167,
            22.63082922548844
          ],
          [
            120.34987271505398,
            22.6329680120642
          ],
          [
            120.3396551080968,
            22.634688732599116
          ],
          [
            120.33691828854819,
            22.635232271152606
          ],
          [
            120.31899458793008,
            22.63840822875689
          ],
          [
            120.31677784362256,
            22.638677751077477
          ],
          [
            120.30260352543233,
            22.639463200066732
          ],
          [
            120.29927972917633,
            22.639827413804042
          ],
          [
            120.29639753961497,
            22.63998751111474
          ],
          [
            120.29568892600328,
            22.639886742079636
          ],
          [
            120.29498491152447,
            22.639658067865472
          ],
          [
            120.29115376003801,
            22.637808901659454
          ],
          [
            120.29006623057211,
            22.63740135678725
          ],
          [
            120.28615437392514,
            22.6365517780423
          ],
          [
            120.28533869782274,
            22.636505755236588
          ],
          [
            120.28451000763098,
            22.636619619299935
          ],
          [
            120.28389627609238,
            22.636817492633273
          ],
          [
            120.28683157062055,
            22.6367246268402
          ],
          [
            120.285972420391,
            22.636570407498482
          ],
          [
            120.28523376942304,
            22.636554908582315
          ],
          [
            120.28422363651183,
            22.636746897651303
          ],
          [
            120.28359502029402,
            22.63700756614624
          ],
          [
            120.28276692725201,
            22.637577835248905
          ],
          [
            120.28231587677641,
            22.638060683054015
          ],
          [
            120.28196200164493,
            22.6386088989817
          ],
          [
            120.2816691365216,
            22.63930441846428
          ],
          [
            120.30732496797283,
            22.639232779369298
          ],
          [
            120.29813853266707,
            22.63994890501788
          ],
          [
            120.2813905490345,
            22.64985387525626
          ],
          [
            120.28143130900787,
            22.650513979436507
          ],
          [
            120.42023683206415,
            22.651632569687276
          ],
          [
            120.42184638830027,
            22.658771900702792
          ],
          [
            120.42210440739258,
            22.659609486088918
          ],
          [
            120.4224806999243,
            22.660323614343223
          ],
          [
            120.42298489403777,
            22.660966247394615
          ],
          [
            120.42360167068047,
            22.661517857363283
          ],
          [
            120.4243122888811,
            22.661961683584853
          ],
          [
            120.44785042195967,
            22.661925363564652
          ],
          [
            120.44954765669915,
            22.66196418280075
          ],
          [
            120.45123479205202,
            22.662140122568545
          ],
          [
            120.45352582575624,
            22.662606255574353
          ],
          [
            120.46444080479945,
            22.665610500224417
          ],
          [
            120.46770213414604,
            22.66640597755403
          ],
          [
            120.486123064528,
            22.66888769810898
          ],
          [
            120.48410593194345,
            22.66915595957979
          ],
          [
            120.48238632926564,
            22.66948225340342
          ],
          [
            120.30413451059921,
            22.684783689215994
          ],
          [
            120.31122527642538,
            22.690848131636027
          ],
          [
            120.31823701972255,
            22.6977246591657
          ],
          [
            120.32178268862029,
            22.702028164268455
          ],
          [
            120.32250631281609,
            22.703220333451785
          ],
          [
            120.32345904020248,
            22.705281573285895
          ],
          [
            120.323754384757,
            22.706141444771763
          ],
          [
            120.3239317328633,
            22.707028776157255
          ],
          [
            120.32398799894702,
            22.707929727774776
          ],
          [
            120.3239254466021,
            22.70883044916599
          ],
          [
            120.32319122749318,
            22.714205555841655
          ],
          [
            120.32297142868859,
            22.71508485807991
          ],
          [
            120.32208942218924,
            22.717667263133652
          ],
          [
            120.32189400130726,
            22.718551344368958
          ],
          [
            120.3218174069478,
            22.71945101894953
          ],
          [
            120.32186081812225,
            22.720352601891264
          ],
          [
            120.32202357652682,
            22.721242355150554
          ],
          [
            120.3222948920956,
            22.72210929710636
          ],
          [
            120.32538168012053,
            22.730672735158617
          ],
          [
            120.32555868648424,
            22.731560133992936
          ],
          [
            120.32561519268707,
            22.73246107481894
          ],
          [
            120.32555032998373,
            22.73336153090993
          ],
          [
            120.32536507953495,
            22.734247490829173
          ],
          [
            120.32506235064716,
            22.735105149083505
          ],
          [
            120.32464683058672,
            22.735921167827662
          ],
          [
            120.32241353425738,
            22.73887777538921
          ],
          [
            120.32134594995556,
            22.740550552166255
          ],
          [
            120.30830786401685,
            22.764638287926644
          ],
          [
            120.30753808751281,
            22.76629632571488
          ],
          [
            120.30199422215586,
            22.781844823279883
          ],
          [
            120.30151976862244,
            22.78338250389933
          ],
          [
            120.30128622188163,
            22.78496715341138
          ],
          [
            120.29983841321234,
            22.79868242165661
          ],
          [
            120.2994729970811,
            22.80007047757043
          ],
          [
            120.29892452664562,
            22.801301304111863
          ],
          [
            120.28225783183366,
            22.827089135355262
          ],
          [
            120.27263889007281,
            22.842403570868257
          ],
          [
            120.26806882411708,
            22.851688649211948
          ],
          [
            120.25976508509079,
            22.863683088104217
          ],
          [
            120.25895738957179,
            22.86512252768247
          ],
          [
            120.25444439639176,
            22.8772448097004
          ],
          [
            120.25410007655734,
            22.878549241254593
          ],
          [
            120.25395585318033,
            22.879865869414264
          ],
          [
            120.253704461192,
            22.888919329163635
          ],
          [
            120.25379088604058,
            22.891857931398494
          ],
          [
            120.25367705794991,
            22.899567464067374
          ],
          [
            120.25349695701891,
            22.90075583811135
          ],
          [
            120.25306442808112,
            22.902368530283617
          ],
          [
            120.25313189432164,
            22.902274401842128
          ],
          [
            120.25142653690536,
            22.908349452665274
          ],
          [
            120.2394360289496,
            22.924236375907956
          ],
          [
            120.2348561657793,
            22.927899647350984
          ],
          [
            120.2342098554005,
            22.92857433313901
          ],
          [
            120.2336915230454,
            22.929338040118623
          ],
          [
            120.22792330291813,
            22.939963477932242
          ],
          [
            120.22035112370553,
            22.94918124831605
          ],
          [
            120.21980757795737,
            22.94993051218338
          ],
          [
            120.21915998154802,
            22.951118189253155
          ],
          [
            120.21869789459234,
            22.952425876353118
          ],
          [
            120.21851364059204,
            22.953312267047448
          ],
          [
            120.21732800768149,
            22.96176149119986
          ],
          [
            120.21728661278705,
            22.96317277030707
          ],
          [
            120.21775762551395,
            22.970383521882102
          ],
          [
            120.21777385827718,
            22.971285906119647
          ],
          [
            120.21766703050925,
            22.97207031998929
          ],
          [
            120.21220874283937,
            22.989524507949863
          ],
          [
            120.21190704007793,
            22.99099932955535
          ],
          [
            120.21198385477102,
            22.99219896850756
          ],
          [
            120.21438685676812,
            23.004643687156403
          ],
          [
            120.21474815040685,
            23.00586060388381
          ],
          [
            120.21550035325863,
            23.007123103648468
          ],
          [
            120.2241057995429,
            23.019176777286514
          ],
          [
            120.2252872371165,
            23.02061045400921
          ],
          [
            120.22600591953763,
            23.02122016377948
          ],
          [
            120.22679959012902,
            23.021744575551917
          ],
          [
            120.2459391516706,
            23.03289413555598
          ],
          [
            120.24787985087437,
            23.0341797326086
          ],
          [
            120.25285924955467,
            23.038123819158884
          ],
          [
            120.29359495983945,
            23.071357729375716
          ],
          [
            120.29428960877856,
            23.071991374602245
          ],
          [
            120.29489563402636,
            23.072698425192115
          ],
          [
            120.29540061774448,
            23.073470446403935
          ],
          [
            120.2957965199935,
            23.07429516698844
          ],
          [
            120.29607528104957,
            23.075152544654145
          ],
          [
            120.29625721300008,
            23.076039927300872
          ],
          [
            120.30788131826843,
            23.13979482677003
          ],
          [
            120.31712100602965,
            23.159674702125937
          ],
          [
            120.31792064632074,
            23.161782127543155
          ],
          [
            120.32073851187286,
            23.17014114519777
          ],
          [
            120.32104554311753,
            23.171224775203306
          ],
          [
            120.32118816210395,
            23.17207616698144
          ],
          [
            120.32124294970228,
            23.173057342622204
          ],
          [
            120.32118738598895,
            23.17411860918646
          ],
          [
            120.31825127307795,
            23.206447846390944
          ],
          [
            120.32232444741534,
            23.257733652885733
          ],
          [
            120.32279411475652,
            23.29247099933732
          ],
          [
            120.32269223415933,
            23.293406254694855
          ],
          [
            120.32248449436406,
            23.294326437415144
          ],
          [
            120.3207473612018,
            23.29931623675501
          ],
          [
            120.32060997986683,
            23.30057603315754
          ],
          [
            120.32078571458898,
            23.30161705148591
          ],
          [
            120.32187742590273,
            23.304129945240877
          ],
          [
            120.32248039075743,
            23.30524163049683
          ],
          [
            120.36507246092525,
            23.37371701292987
          ],
          [
            120.37938622979075,
            23.39345942781038
          ],
          [
            120.38056558273531,
            23.39473975483586
          ],
          [
            120.38344505004923,
            23.397181947489035
          ],
          [
            120.38459106152821,
            23.39864199683079
          ],
          [
            120.38539854750492,
            23.40028368044754
          ],
          [
            120.38583505774184,
            23.402041028570558
          ],
          [
            120.38638048217355,
            23.409247020034122
          ],
          [
            120.38650909781677,
            23.41195293168256
          ],
          [
            120.3867999493582,
            23.413587302911743
          ],
          [
            120.387119383153,
            23.414596149792516
          ],
          [
            120.38774705598195,
            23.415898644206976
          ],
          [
            120.39540674372617,
            23.428930467267307
          ],
          [
            120.39654874512847,
            23.430395642744703
          ],
          [
            120.4118992461532,
            23.447394944621177
          ],
          [
            120.4480825396775,
            23.487158972508638
          ],
          [
            120.44869420187608,
            23.4878637801894
          ],
          [
            120.44921558742946,
            23.488627258741126
          ],
          [
            120.44962101799563,
            23.489448415312022
          ],
          [
            120.4499031623011,
            23.490312379612757
          ],
          [
            120.45005688431787,
            23.49120346746625
          ],
          [
            120.45000893786211,
            23.49278510874589
          ],
          [
            120.44707225298207,
            23.50535804553756
          ],
          [
            120.44646610272869,
            23.507338829323498
          ],
          [
            120.4457523656791,
            23.508742180906907
          ],
          [
            120.44165505803448,
            23.51537518731498
          ],
          [
            120.44054397532426,
            23.517432878424717
          ],
          [
            120.42889114031394,
            23.536298939044766
          ],
          [
            120.42819907602657,
            23.53794252742577
          ],
          [
            120.4279831541993,
            23.53882289895781
          ],
          [
            120.42784202089256,
            23.540621126663694
          ],
          [
            120.4279182141545,
            23.54152098290703
          ],
          [
            120.42825264414448,
            23.543019164403
          ],
          [
            120.4387186222668,
            23.581033185333286
          ],
          [
            120.43924161221071,
            23.582651389450195
          ],
          [
            120.43962459210127,
            23.58348221912908
          ],
          [
            120.44008231374788,
            23.584280276613644
          ],
          [
            120.44120838815674,
            23.58575558745048
          ],
          [
            120.45754700758823,
            23.602574147179112
          ],
          [
            120.4584347094944,
            23.60361270676117
          ],
          [
            120.45914202718293,
            23.604833433016566
          ],
          [
            120.46768191738644,
            23.622085107141984
          ],
          [
            120.46804291334963,
            23.62306913003637
          ],
          [
            120.46847395390985,
            23.62476059292705
          ],
          [
            120.47486983427542,
            23.663484310252805
          ],
          [
            120.47516949107906,
            23.664851064824745
          ],
          [
            120.475502742058,
            23.665699613846
          ],
          [
            120.4759499191537,
            23.666502486300914
          ],
          [
            120.47649946517832,
            23.667249737485555
          ],
          [
            120.48950605236259,
            23.683096432254526
          ],
          [
            120.49056069541992,
            23.684057356062233
          ],
          [
            120.49169015847401,
            23.68476245512315
          ],
          [
            120.52539160104173,
            23.69958716121852
          ],
          [
            120.5264267512936,
            23.70019111892502
          ],
          [
            120.52748780202042,
            23.701013057906195
          ],
          [
            120.53380092047614,
            23.707115926558718
          ],
          [
            120.53452701331098,
            23.70772208310763
          ],
          [
            120.54137742183066,
            23.71210346230492
          ],
          [
            120.5434357388682,
            23.713317458933652
          ],
          [
            120.54430274017952,
            23.713737269659237
          ],
          [
            120.54523432540377,
            23.71401589581707
          ],
          [
            120.54620355265195,
            23.7141475322829
          ],
          [
            120.55990512602094,
            23.71493144073334
          ],
          [
            120.56086287522153,
            23.715123885758782
          ],
          [
            120.56243586322466,
            23.715654966903358
          ],
          [
            120.56354330457971,
            23.716215543112774
          ],
          [
            120.56434225059445,
            23.716738558237886
          ],
          [
            120.56568155246181,
            23.717904960945397
          ],
          [
            120.59379458894934,
            23.745599003291467
          ],
          [
            120.595324548889,
            23.746920698231705
          ],
          [
            120.59900518983775,
            23.74965888025324
          ],
          [
            120.60024177383892,
            23.7504811088162
          ],
          [
            120.60588562492165,
            23.75343497884119
          ],
          [
            120.60831678469197,
            23.754959561734346
          ],
          [
            120.61583995445048,
            23.76071925359081
          ],
          [
            120.62271251327185,
            23.765854032637453
          ],
          [
            120.62441094321049,
            23.766754001296167
          ],
          [
            120.63245562262901,
            23.770104417484877
          ],
          [
            120.63414897499527,
            23.771011410748013
          ],
          [
            120.63491420992284,
            23.771575925988238
          ],
          [
            120.63624209399758,
            23.772901461932957
          ],
          [
            120.63725671632442,
            23.774443722799752
          ],
          [
            120.6379118202744,
            23.77612024255531
          ],
          [
            120.64059101846091,
            23.78957365520014
          ],
          [
            120.64064169166076,
            23.790362361533855
          ],
          [
            120.6405860973706,
            23.791263305956868
          ],
          [
            120.64041035815163,
            23.792151094197617
          ],
          [
            120.64011714948707,
            23.793012205848783
          ],
          [
            120.63971093021546,
            23.793833547680155
          ],
          [
            120.63919787688039,
            23.7946025912366
          ],
          [
            120.63859381305399,
            23.795313856049617
          ],
          [
            120.62971004278437,
            23.804957059720625
          ],
          [
            120.62872575908648,
            23.80591798532676
          ],
          [
            120.6275693487464,
            23.806807812330653
          ],
          [
            120.61346569838354,
            23.81659538506889
          ],
          [
            120.61261200434049,
            23.817304835050216
          ],
          [
            120.61158727543257,
            23.818515354899777
          ],
          [
            120.6037960897178,
            23.829065303620766
          ],
          [
            120.60309704309411,
            23.830292494203327
          ],
          [
            120.60265982329209,
            23.83129881488845
          ],
          [
            120.58758913732906,
            23.86782253867912
          ],
          [
            120.58702156978961,
            23.869327875181302
          ],
          [
            120.58671055544777,
            23.870405629016638
          ],
          [
            120.57509707477017,
            23.91798004404389
          ],
          [
            120.57017556904725,
            23.93264771502009
          ],
          [
            120.5697181171974,
            23.934402145742496
          ],
          [
            120.56957579858418,
            23.93620142205808
          ],
          [
            120.56966442317473,
            23.964750475054412
          ],
          [
            120.56954690156827,
            23.966181859405168
          ],
          [
            120.56924389838738,
            23.967418069288513
          ],
          [
            120.55901468388073,
            23.994167494334306
          ],
          [
            120.55846236434672,
            23.99533717327186
          ],
          [
            120.55760898776455,
            23.99653431390744
          ],
          [
            120.54102448199446,
            24.016710380979458
          ],
          [
            120.54036478430737,
            24.01767004303816
          ],
          [
            120.53987038111322,
            24.01858066776367
          ],
          [
            120.52890400581528,
            24.04432336383233
          ],
          [
            120.52862334179392,
            24.045188204072527
          ],
          [
            120.52843095342591,
            24.046302150224225
          ],
          [
            120.52846566186096,
            24.0478788892994
          ],
          [
            120.52863368309795,
            24.048768279232707
          ],
          [
            120.53490176080756,
            24.076160192538975
          ],
          [
            120.53548832742457,
            24.077489614454322
          ],
          [
            120.53937369274188,
            24.083613586597725
          ],
          [
            120.53938896323032,
            24.08354796037012
          ],
          [
            120.54191109931772,
            24.08661782944937
          ],
          [
            120.54228876781261,
            24.086829414745814
          ],
          [
            120.54549190382839,
            24.088045640793865
          ],
          [
            120.5425070161859,
            24.086933335904885
          ],
          [
            120.54228876781261,
            24.086829414745814
          ],
          [
            120.56934003411536,
            24.09682656819162
          ],
          [
            120.57108629899349,
            24.097653676475954
          ],
          [
            120.57189751625744,
            24.098163829497107
          ],
          [
            120.57353464840531,
            24.09952475016716
          ],
          [
            120.57460124435202,
            24.100764654465436
          ],
          [
            120.5751184633465,
            24.10153236342791
          ],
          [
            120.57594604107688,
            24.103198968158008
          ],
          [
            120.5776615671276,
            24.108353185151557
          ],
          [
            120.62964060702838,
            24.108807165618245
          ],
          [
            120.6280963901364,
            24.108493643067238
          ],
          [
            120.62677724747209,
            24.10844270007056
          ],
          [
            120.62570011686698,
            24.10853497231119
          ],
          [
            120.62959904486009,
            24.10888809650845
          ],
          [
            120.62793958524374,
            24.108548679777794
          ],
          [
            120.62656884037979,
            24.108500484209923
          ],
          [
            120.62242057085253,
            24.108964178254382
          ],
          [
            120.61972954568209,
            24.10918020710092
          ],
          [
            120.63100397475372,
            24.10924973368824
          ],
          [
            120.63149676456409,
            24.10937911015785
          ],
          [
            120.61948951303056,
            24.109280114585598
          ],
          [
            120.60850641124203,
            24.11046238313263
          ],
          [
            120.60792917509146,
            24.11045220460561
          ],
          [
            120.60831084017327,
            24.110482050406322
          ],
          [
            120.60746978790033,
            24.110569194712728
          ],
          [
            120.63422544794624,
            24.110612145434256
          ],
          [
            120.6386052020685,
            24.113301081479676
          ],
          [
            120.64002948986922,
            24.1140535127596
          ],
          [
            120.63981694409662,
            24.113980042645057
          ],
          [
            120.6574983250877,
            24.124807058099183
          ],
          [
            120.65876872719488,
            24.12549717175722
          ],
          [
            120.68243822244608,
            24.135429482284756
          ],
          [
            120.68537033157568,
            24.13644221603557
          ],
          [
            120.68503921738598,
            24.136364733146
          ],
          [
            120.68780552840236,
            24.13744168298737
          ],
          [
            120.68748209981918,
            24.1373455670442
          ],
          [
            120.68876318137575,
            24.13790104949388
          ],
          [
            120.69028411032345,
            24.13871094565374
          ],
          [
            120.69215692510207,
            24.139460810268165
          ],
          [
            120.69450159167519,
            24.140571123158903
          ],
          [
            120.69567535263545,
            24.141523603231636
          ],
          [
            120.69629052848515,
            24.142300185804967
          ],
          [
            120.6967494129551,
            24.143162998073894
          ],
          [
            120.69712190495191,
            24.144563492511253
          ],
          [
            120.70273402255728,
            24.185746682963
          ],
          [
            120.70283772697971,
            24.187279584585085
          ],
          [
            120.70498688633565,
            24.203129265103577
          ],
          [
            120.70606536952123,
            24.213993245392103
          ],
          [
            120.70608270934973,
            24.214911020627124
          ],
          [
            120.70656169726465,
            24.21989075745269
          ],
          [
            120.70838870417532,
            24.22764739661022
          ],
          [
            120.70936225176668,
            24.231388851514236
          ],
          [
            120.71287695700605,
            24.24031276212437
          ],
          [
            120.71342633665614,
            24.24144206240127
          ],
          [
            120.71385988092894,
            24.24212208746447
          ],
          [
            120.7148519131852,
            24.243314045307073
          ],
          [
            120.72007972439998,
            24.24869594726021
          ],
          [
            120.7199640500008,
            24.248631180784358
          ],
          [
            120.7210081700912,
            24.249846818675856
          ],
          [
            120.72196457570465,
            24.251393934082884
          ],
          [
            120.7242893465762,
            24.255649711265352
          ],
          [
            120.7253100555147,
            24.257232124163355
          ],
          [
            120.72606456153055,
            24.258126214852922
          ],
          [
            120.72708388551283,
            24.25900416361146
          ],
          [
            120.73310739798796,
            24.26348977603232
          ],
          [
            120.73293123428905,
            24.263406077928167
          ],
          [
            120.73390268825861,
            24.264170344285983
          ],
          [
            120.73504862239619,
            24.265342298508358
          ],
          [
            120.73666563131394,
            24.267793465495945
          ],
          [
            120.73745504901123,
            24.269437232841995
          ],
          [
            120.73773957741965,
            24.270301257397104
          ],
          [
            120.7380193259312,
            24.272085737166968
          ],
          [
            120.73801173295526,
            24.27298824641061
          ],
          [
            120.73779202767997,
            24.274429915408394
          ],
          [
            120.73345582682485,
            24.288718176802366
          ],
          [
            120.73303110310292,
            24.290443162821816
          ],
          [
            120.73236765973991,
            24.300355809672926
          ],
          [
            120.7322289833811,
            24.30124928882365
          ],
          [
            120.73180115789705,
            24.303011837726253
          ],
          [
            120.73168713825093,
            24.303908095782102
          ],
          [
            120.73169591023822,
            24.304810385590848
          ],
          [
            120.73198103219889,
            24.306285607394862
          ],
          [
            120.7479616818862,
            24.347108665232795
          ],
          [
            120.74833738626141,
            24.348234305269173
          ],
          [
            120.75126709689916,
            24.358731407128687
          ],
          [
            120.75187081358715,
            24.36045009069925
          ],
          [
            120.75259807823889,
            24.362128162684606
          ],
          [
            120.75391341497233,
            24.36455289050343
          ],
          [
            120.75548625278846,
            24.366845338841365
          ],
          [
            120.76937309729075,
            24.383260217185395
          ],
          [
            120.77050130579057,
            24.384740288133735
          ],
          [
            120.77146325572477,
            24.38631573488336
          ],
          [
            120.77224869661995,
            24.387971260865136
          ],
          [
            120.77307921603315,
            24.390568346452003
          ],
          [
            120.77339305604474,
            24.39235036837476
          ],
          [
            120.77351107947284,
            24.394152187073786
          ],
          [
            120.77331889974738,
            24.396852636240194
          ],
          [
            120.77294648329364,
            24.398625178409176
          ],
          [
            120.7723826902092,
            24.400354823816084
          ],
          [
            120.77081735094026,
            24.403667949616274
          ],
          [
            120.77051551957564,
            24.40452692267954
          ],
          [
            120.77032931134866,
            24.40541302199338
          ],
          [
            120.77029047592484,
            24.407006456083156
          ],
          [
            120.77048313408949,
            24.40810314424483
          ],
          [
            120.77076939189396,
            24.408966583341105
          ],
          [
            120.77141023439489,
            24.410191821495467
          ],
          [
            120.77278761535636,
            24.412056060338838
          ],
          [
            120.77327533119153,
            24.412840178331773
          ],
          [
            120.7737189325827,
            24.413844901820806
          ],
          [
            120.77407278702975,
            24.41543293997837
          ],
          [
            120.77419628283229,
            24.423563639550373
          ],
          [
            120.7740888687065,
            24.42474428841836
          ],
          [
            120.77347518483212,
            24.42801635567037
          ],
          [
            120.77339981984596,
            24.429404619327855
          ],
          [
            120.77358720438593,
            24.43162056863434
          ],
          [
            120.77527329382735,
            24.444681696103494
          ],
          [
            120.77561560817392,
            24.446511016970025
          ],
          [
            120.65257062843176,
            24.44656199234208
          ],
          [
            120.65290504133452,
            24.447084967896945
          ],
          [
            120.88059215580333,
            24.686625028222654
          ],
          [
            120.88105084422108,
            24.694041037463826
          ],
          [
            120.88099937422187,
            24.69485119532649
          ],
          [
            120.8807891648881,
            24.69563960938041
          ],
          [
            120.88047388955825,
            24.69630113538902
          ],
          [
            120.88004716664365,
            24.69690834144676
          ],
          [
            120.87105050447715,
            24.707329529734135
          ],
          [
            120.87048774921027,
            24.708071252785963
          ],
          [
            120.87001735251872,
            24.70886478398276
          ],
          [
            120.86944698988674,
            24.710306177787935
          ],
          [
            120.86847680306214,
            24.713900267983025
          ],
          [
            120.86830935559239,
            24.71478962194348
          ],
          [
            120.86825099588664,
            24.715780728797597
          ],
          [
            120.86832535633025,
            24.7167709408264
          ],
          [
            120.86853132895766,
            24.71774548576546
          ],
          [
            120.86883024022345,
            24.718605596471054
          ],
          [
            120.87005730669948,
            24.720969787325846
          ],
          [
            120.87218777454609,
            24.72379501652694
          ],
          [
            120.87351801124736,
            24.7256971752844
          ],
          [
            120.87443796014384,
            24.72675768821672
          ],
          [
            120.87552108203249,
            24.727680743371756
          ],
          [
            120.88466463676372,
            24.73384763476068
          ],
          [
            120.89178910828083,
            24.737564824157257
          ],
          [
            120.89698131083905,
            24.739560217430192
          ],
          [
            120.90023640248808,
            24.74124037314469
          ],
          [
            120.90145362138767,
            24.741966715091827
          ],
          [
            120.90253666503524,
            24.742747687255925
          ],
          [
            120.90354106926496,
            24.743611884481002
          ],
          [
            120.9044591889405,
            24.7445527327225
          ],
          [
            120.90528403812797,
            24.745563072477953
          ],
          [
            120.9064712205704,
            24.747449315933185
          ],
          [
            120.91125614265705,
            24.756917646432175
          ],
          [
            120.91738370219616,
            24.770185814024195
          ],
          [
            120.91781014901935,
            24.771658843281163
          ],
          [
            120.9193793589704,
            24.780851600820775
          ],
          [
            120.91983058661239,
            24.78203966999496
          ],
          [
            120.92013949833941,
            24.78260227147774
          ],
          [
            120.92091218055273,
            24.78364323224941
          ],
          [
            120.92187113574427,
            24.784545879088945
          ],
          [
            120.9224115590463,
            24.784936574263615
          ],
          [
            120.92385753939395,
            24.785693755762367
          ],
          [
            120.93464890212529,
            24.789732058887576
          ],
          [
            120.94262570611157,
            24.792134732631965
          ],
          [
            120.95053470661163,
            24.795719567004394
          ],
          [
            120.95183279434804,
            24.7961755115908
          ],
          [
            120.95250719145395,
            24.79632396627817
          ],
          [
            120.96200621221705,
            24.79629082086471
          ],
          [
            120.96326918502496,
            24.796484438605855
          ],
          [
            120.96406186456348,
            24.796777272253472
          ],
          [
            120.97792727372475,
            24.80526915754577
          ],
          [
            120.9798283937655,
            24.806504275651772
          ],
          [
            120.98338155941163,
            24.808468630622986
          ],
          [
            120.98655792710657,
            24.809899468186003
          ],
          [
            120.98928008141085,
            24.811403817232527
          ],
          [
            120.99011448949207,
            24.811972727459338
          ],
          [
            120.99505954126502,
            24.815812775039706
          ],
          [
            120.99594997710972,
            24.816619395868383
          ],
          [
            120.99649627298484,
            24.81723218401821
          ],
          [
            120.99698197793586,
            24.8178860936683
          ],
          [
            120.99771726993633,
            24.81920637937091
          ],
          [
            121.00012998461126,
            24.825459120042545
          ],
          [
            121.00084629731893,
            24.827110028904666
          ],
          [
            121.00198056635017,
            24.829234154732426
          ],
          [
            121.00334758352429,
            24.831307001217134
          ],
          [
            121.0101160961808,
            24.840478378274675
          ],
          [
            121.01218681307088,
            24.843156712212405
          ],
          [
            121.01276523722596,
            24.844050023190135
          ],
          [
            121.0133059213312,
            24.84528666025126
          ],
          [
            121.01348567782169,
            24.845932502083468
          ],
          [
            121.0136571848313,
            24.847254693449273
          ],
          [
            121.01364762863538,
            24.84792098046905
          ],
          [
            121.01343825477154,
            24.84923862306412
          ],
          [
            121.01324002800487,
            24.849879949400247
          ],
          [
            121.01266402302649,
            24.85110324591816
          ],
          [
            121.01186394836255,
            24.85221668844942
          ],
          [
            121.01138723303433,
            24.852721482410438
          ],
          [
            121.01029855963077,
            24.853608034083614
          ],
          [
            121.00886345658343,
            24.854395577593838
          ],
          [
            121.00219249248953,
            24.85712381041558
          ],
          [
            120.99455469514312,
            24.86125032174487
          ],
          [
            120.993632722772,
            24.8619044103602
          ],
          [
            120.9931966738875,
            24.862394307051723
          ],
          [
            120.99286048752147,
            24.862945843276137
          ],
          [
            120.99256489115683,
            24.863851676413656
          ],
          [
            120.99251568205321,
            24.864481162275883
          ],
          [
            120.99258703246554,
            24.86510888186933
          ],
          [
            120.99291438119383,
            24.86600558239175
          ],
          [
            120.99324142415233,
            24.866505002004306
          ],
          [
            120.99379989594858,
            24.867042465637276
          ],
          [
            121.02037288300221,
            24.888554993618175
          ],
          [
            121.02201839952961,
            24.889408782988873
          ],
          [
            121.03714521038324,
            24.89522293419096
          ],
          [
            121.03789626480079,
            24.895572332497107
          ],
          [
            121.03917243066327,
            24.896379358920296
          ],
          [
            121.04027558225256,
            24.89737624122073
          ],
          [
            121.04117220183572,
            24.898532693828685
          ],
          [
            121.04437379821225,
            24.903865138465452
          ],
          [
            121.17223966932524,
            24.913272957181135
          ],
          [
            121.17369650449028,
            24.913286675439785
          ],
          [
            121.17539812252541,
            24.91354850406015
          ],
          [
            121.17702404642252,
            24.914075808051983
          ],
          [
            121.17779305670435,
            24.914434311993997
          ],
          [
            121.17852488271706,
            24.91485257048994
          ],
          [
            121.17985503488201,
            24.915855194062054
          ],
          [
            121.18598687069763,
            24.92218733677616
          ],
          [
            121.18836881327007,
            24.924944393768754
          ],
          [
            121.18947176520976,
            24.925881528709663
          ],
          [
            121.19063545646121,
            24.92655615784041
          ],
          [
            121.20510094005643,
            24.93373811222417
          ],
          [
            121.20623647623249,
            24.93440694252647
          ],
          [
            121.20752685498036,
            24.93556255606723
          ],
          [
            121.21063017164536,
            24.939418061194637
          ],
          [
            121.21427572284642,
            24.942682816958403
          ],
          [
            121.21529115096584,
            24.943838951206775
          ],
          [
            121.33932433724834,
            24.948294397668402
          ],
          [
            121.34000014988696,
            24.9481654474775
          ],
          [
            121.34069025455175,
            24.948145445655747
          ],
          [
            121.34137368534732,
            24.948235001044573
          ],
          [
            121.34202967782748,
            24.948431390496438
          ],
          [
            121.34505283522016,
            24.949877183785222
          ],
          [
            121.34571981471788,
            24.950126453373084
          ],
          [
            121.34921083631124,
            24.950701166925345
          ],
          [
            121.3503162793727,
            24.95122783959325
          ],
          [
            121.35806839314208,
            24.956402202299962
          ],
          [
            121.36441096169648,
            24.95625240942136
          ],
          [
            121.36576502593525,
            24.956412891641595
          ],
          [
            121.3672322401759,
            24.95684856101226
          ],
          [
            121.37245599364924,
            24.959048328817467
          ],
          [
            121.37759042016178,
            24.962315707004283
          ],
          [
            121.38248630779687,
            24.965841114176143
          ],
          [
            121.38619224577546,
            24.968245494833628
          ],
          [
            121.3886942397475,
            24.969696682256018
          ],
          [
            121.38946199817258,
            24.9702948204497
          ],
          [
            121.39093389338464,
            24.971791182617114
          ],
          [
            121.39167197688035,
            24.972310352240896
          ],
          [
            121.39249775506741,
            24.972704801185674
          ],
          [
            121.39338613416288,
            24.97296254328681
          ],
          [
            121.39600759587398,
            24.973358325026798
          ],
          [
            121.39692347533807,
            24.97359939729443
          ],
          [
            121.4010270233785,
            24.975483748576245
          ],
          [
            121.40230626851947,
            24.976233088886005
          ],
          [
            121.40619889136562,
            24.979094555369517
          ],
          [
            121.40708286827991,
            24.979663997995136
          ],
          [
            121.4215439946596,
            24.986930406812917
          ],
          [
            121.42234234262519,
            24.987632037188778
          ],
          [
            121.42298201870537,
            24.988514692998713
          ],
          [
            121.42906181255275,
            25.000225360711717
          ],
          [
            121.43137070859133,
            25.002937845505297
          ],
          [
            121.43218674172473,
            25.00374082138171
          ],
          [
            121.45319914592397,
            25.00379741391946
          ],
          [
            121.45396927676069,
            25.003880239681507
          ],
          [
            121.455005290362,
            25.004214826153373
          ],
          [
            121.45562760772796,
            25.00456938387011
          ],
          [
            121.4563631650281,
            25.00521267882218
          ],
          [
            121.46307343309266,
            25.01295013633989
          ],
          [
            121.46374595241387,
            25.013611629972644
          ],
          [
            121.46539426493334,
            25.01480485675862
          ],
          [
            121.46908869788506,
            25.0171764328461
          ],
          [
            121.48074736499898,
            25.02548286534184
          ],
          [
            121.48196677374773,
            25.026108821365092
          ],
          [
            121.48312842713541,
            25.026466839673077
          ],
          [
            121.48814219790404,
            25.027259531802013
          ],
          [
            121.48965883798493,
            25.027718632109075
          ],
          [
            121.49104621491104,
            25.028548384400498
          ],
          [
            121.49549329408049,
            25.032474374792482
          ],
          [
            121.49637491297197,
            25.03299271164435
          ],
          [
            121.49727953292422,
            25.033197607783436
          ],
          [
            121.5034445375355,
            25.033629795878348
          ],
          [
            121.50412580905886,
            25.0337523455942
          ],
          [
            121.50460564503464,
            25.03393059392178
          ],
          [
            121.50542820724597,
            25.03449906258175
          ],
          [
            121.50587685653173,
            25.035075974976415
          ],
          [
            121.50610032457026,
            25.03557689375858
          ],
          [
            121.50647006823897,
            25.03690344323927
          ],
          [
            121.53938050850391,
            25.044687186164712
          ],
          [
            121.55203891866115,
            25.044578379888442
          ],
          [
            121.5535462516582,
            25.044490366837042
          ],
          [
            121.55525864986676,
            25.04470358530238
          ],
          [
            121.55458038117965,
            25.044538641545014
          ],
          [
            121.55357772613137,
            25.044445432211045
          ],
          [
            121.54276007261926,
            25.04476047371709
          ],
          [
            121.54134393987107,
            25.044621550943916
          ],
          [
            121.54022013175364,
            25.044607874953464
          ],
          [
            121.53613481297148,
            25.044823598030792
          ],
          [
            121.53503581085403,
            25.04495016771623
          ],
          [
            121.53257332589833,
            25.045611876287076
          ],
          [
            121.53134870647781,
            25.04580994926964
          ],
          [
            121.52641405446504,
            25.04584266390799
          ],
          [
            121.52157193279868,
            25.046910604341004
          ],
          [
            121.63005368163205,
            25.053123659729252
          ],
          [
            121.627940514943,
            25.053019881562424
          ],
          [
            121.62688453009709,
            25.053094124194462
          ],
          [
            121.62481386626709,
            25.053492049918134
          ],
          [
            121.6235364566424,
            25.05388544935412
          ],
          [
            121.62643409205974,
            25.053791819137047
          ],
          [
            121.62711083010072,
            25.05366450751104
          ],
          [
            121.62799034907535,
            25.05366031217379
          ],
          [
            121.63196281553144,
            25.054228964295284
          ],
          [
            121.63305115438727,
            25.05447435420822
          ],
          [
            121.6345534592748,
            25.054944165441068
          ],
          [
            121.63560653661254,
            25.05543530949206
          ],
          [
            121.6363998043074,
            25.056007391627737
          ],
          [
            121.63789420325489,
            25.057362370477183
          ],
          [
            121.63951519706862,
            25.05925338393654
          ],
          [
            121.64013005545785,
            25.05977876337918
          ],
          [
            121.64093901272547,
            25.06025332932783
          ],
          [
            121.64634273852663,
            25.062493722207517
          ],
          [
            121.64734821744626,
            25.0627424414107
          ],
          [
            121.64914126505741,
            25.062911373660903
          ],
          [
            121.65003840804604,
            25.063115602503004
          ],
          [
            121.65845876126293,
            25.066208658802665
          ],
          [
            121.65946391372869,
            25.06666091526916
          ],
          [
            121.66024371227752,
            25.067173025215073
          ],
          [
            121.6618266350912,
            25.068469138939776
          ],
          [
            121.66428992134301,
            25.070648273599016
          ],
          [
            121.66489950251028,
            25.071361806502157
          ],
          [
            121.66520948263167,
            25.07194195285887
          ],
          [
            121.66540414718386,
            25.072562310602187
          ],
          [
            121.6655210707407,
            25.074632906983133
          ],
          [
            121.66583326139613,
            25.075868533206428
          ],
          [
            121.66648596505523,
            25.076988464346233
          ],
          [
            121.66708918531769,
            25.07763263074128
          ],
          [
            121.66780609697373,
            25.078175745714194
          ],
          [
            121.6905668003177,
            25.07809112490557
          ],
          [
            121.69162662796668,
            25.07777465167901
          ],
          [
            121.69259524727306,
            25.07772138393478
          ],
          [
            121.69344261098774,
            25.07786493192122
          ],
          [
            121.69730784498107,
            25.078974049612743
          ],
          [
            121.6998810814469,
            25.07947827160487
          ],
          [
            121.70081367481122,
            25.07981260266958
          ],
          [
            121.70181612121722,
            25.08031949564839
          ],
          [
            121.7023859541485,
            25.080761543910214
          ],
          [
            121.70500466933008,
            25.084030736029586
          ],
          [
            121.70537513605359,
            25.08494971006121
          ],
          [
            121.70542183784738,
            25.086560992995377
          ],
          [
            121.70558930869964,
            25.087364412238
          ],
          [
            121.70604329815964,
            25.088247693976058
          ],
          [
            121.7069628054893,
            25.089287987450728
          ],
          [
            121.707687663555,
            25.08977301521263
          ],
          [
            121.71130911202596,
            25.09145996260723
          ],
          [
            121.712073856823,
            25.091888241349317
          ],
          [
            121.71634128202449,
            25.09474313288948
          ],
          [
            121.72029909402798,
            25.097913276376655
          ],
          [
            121.72324213711512,
            25.099874752617776
          ],
          [
            121.72389275164917,
            25.100403461350727
          ],
          [
            121.72431241218824,
            25.100903646286348
          ],
          [
            121.72472830996348,
            25.10169462160944
          ],
          [
            121.72631103582555,
            25.106529337358918
          ],
          [
            121.72657713982328,
            25.106990483624003
          ],
          [
            121.72703777257507,
            25.107481369569552
          ],
          [
            121.72798360396015,
            25.10821650238962
          ],
          [
            121.72894163734685,
            25.108750662812877
          ],
          [
            121.74056358963786,
            25.113775106735922
          ],
          [
            121.74130094558222,
            25.11424348534867
          ],
          [
            121.7419818348938,
            25.114953643096285
          ],
          [
            121.7423129832577,
            25.11550618566195
          ],
          [
            121.74253371825662,
            25.116102687988672
          ],
          [
            121.74264375930227,
            25.11705275248259
          ],
          [
            121.74189842007617,
            25.123487987180976
          ],
          [
            121.74170404330702,
            25.124293266221336
          ],
          [
            121.7412222216283,
            25.125191072010523
          ],
          [
            121.7407126558645,
            25.125762137912343
          ],
          [
            121.7386084473219,
            25.127143553232468
          ],
          [
            121.73823408743333,
            25.127477012853863
          ],
          [
            121.73780545525763,
            25.128075040430762
          ],
          [
            121.73751692126899,
            25.128998327610855
          ],
          [
            121.73752443690314,
            25.129874985842036
          ],
          [
            121.73778093973873,
            25.130720000527674
          ],
          [
            121.7397780075491,
            25.1339331226155
          ]
        ]
      }
    }
  ]
}