{
  "type": "FeatureCollection",
  "features": [
    {
      "type": "Feature",
      "properties": {
        "track_id": "WL-TN-CY-0",
        "line_id": "WL",
        "direction": 0,
        "name": "西部幹線 (臺南→嘉義)",
        "origin": "臺南",
        "destination": "嘉義"
      },
      "geometry": {
        "type": "LineString",
        "coordinates": [
          [
            120.2029,
            22.9972
          ],
          [
            120.2159,
            23.0186
          ],
          [
            120.2323,
            23.0395
          ],
          [
            120.2386,
            23.0564
          ],
          [
            120.2901,
            23.0792
          ],
          [
            120.3071,
            23.1092
          ],
          [
            120.2976,
            23.1322
          ],
          [
            120.3313,
            23.17
          ],
          [
            120.349,
            23.1856
          ],
          [
            120.3573,
            23.2084
          ],
          [
            120.322,
            23.274
          ],
          [
            120.3267,
            23.2945
          ],
          [
            120.3601,
            23.3668
          ],
          [
            120.4065,
            23.4249
          ],
          [
            120.3978,
            23.4337
          ],
          [
            120.441,
            23.4792
          ]
        ]
      }
    }
  ]
}