{
  "type": "FeatureCollection",
  "features": [
    {
      "type": "Feature",
      "properties": {
        "track_id": "WL-TN-ES-1",
        "line_id": "WL",
        "direction": 1,
        "name": "\u897f\u90e8\u5e79\u7dda (\u4e8c\u6c34\u2192\u81fa\u5357)",
        "origin": "\u4e8c\u6c34",
        "destination": "\u81fa\u5357",
        "segments": [
          "WL-yunlin",
          "WL-chiayi",
          "WL-TN-CY"
        ],
        "length_km": 110.4
      },
      "geometry": {
        "type": "LineString",
        "coordinates": [
          [
            120.61850122378918,
            23.81302783129557
          ],
          [
            120.62394540307349,
            23.809310049590906
          ],
          [
            120.62670659150072,
            23.807482405783283
          ],
          [
            120.62803921256751,
            23.806487072609176
          ],
          [
            120.62941295347628,
            23.805328714556737
          ],
          [
            120.63186989020213,
            23.802646551165466
          ],
          [
            120.63501509560587,
            23.799151883401365
          ],
          [
            120.63824909723317,
            23.795720462265088
          ],
          [
            120.63918317896571,
            23.79467109752638
          ],
          [
            120.6399498189298,
            23.793529807538476
          ],
          [
            120.6403983195402,
            23.792403837888102
          ],
          [
            120.64059162802451,
            23.79156335599801
          ],
          [
            120.64070362581622,
            23.790741474308952
          ],
          [
            120.64069365756399,
            23.789873091552444
          ],
          [
            120.64054139559715,
            23.789097711050626
          ],
          [
            120.63829811947093,
            23.777416283955297
          ],
          [
            120.63787718987435,
            23.77564082561635
          ],
          [
            120.63717016743249,
            23.7741853600159
          ],
          [
            120.63624062833186,
            23.77284625699498
          ],
          [
            120.63518393685357,
            23.771739881054803
          ],
          [
            120.63384401855737,
            23.770787844910195
          ],
          [
            120.63238424857141,
            23.770000334797814
          ],
          [
            120.6292430608527,
            23.76875190665507
          ],
          [
            120.62593098200954,
            23.76737098218668
          ],
          [
            120.62436706160909,
            23.7667311039297
          ],
          [
            120.6230794982734,
            23.766023780248766
          ],
          [
            120.61871850194856,
            23.762883788928534
          ],
          [
            120.61654507614125,
            23.76113238334868
          ],
          [
            120.61465235129116,
            23.75970211102477
          ],
          [
            120.61008451103211,
            23.75624615612586
          ],
          [
            120.60870563552244,
            23.75518719022867
          ],
          [
            120.60730551677915,
            23.754231922238944
          ],
          [
            120.60516981241885,
            23.753044960471392
          ],
          [
            120.60304472190253,
            23.75198429035315
          ],
          [
            120.60141452223372,
            23.75114496962547
          ],
          [
            120.59980334319175,
            23.750218600647216
          ],
          [
            120.59654294385402,
            23.74789579768644
          ],
          [
            120.59418955596138,
            23.745928645232336
          ],
          [
            120.59253538163713,
            23.744304916943584
          ],
          [
            120.58896153103339,
            23.740797614818543
          ],
          [
            120.5797594064064,
            23.73169348317382
          ],
          [
            120.57228381220102,
            23.724377554945683
          ],
          [
            120.56627920120064,
            23.718540235328103
          ],
          [
            120.5638625234656,
            23.71635363912999
          ],
          [
            120.56267188914327,
            23.715697965704347
          ],
          [
            120.56134215464377,
            23.715195116102855
          ],
          [
            120.56008294628668,
            23.714934501450244
          ],
          [
            120.55866919459864,
            23.714801230778644
          ],
          [
            120.55590350855493,
            23.714605436248647
          ],
          [
            120.55199777004069,
            23.714441738023517
          ],
          [
            120.55002302715518,
            23.714324842268525
          ],
          [
            120.54811390515471,
            23.71423798650235
          ],
          [
            120.54659055652711,
            23.71413766981817
          ],
          [
            120.54552748689281,
            23.714002774104344
          ],
          [
            120.54477430662209,
            23.71382330549021
          ],
          [
            120.54400608726968,
            23.713538424992677
          ],
          [
            120.54324184021273,
            23.713137163275036
          ],
          [
            120.5411029427786,
            23.711844964059992
          ],
          [
            120.53886240803715,
            23.710359859072096
          ],
          [
            120.53670884931711,
            23.709087112293666
          ],
          [
            120.53454714037275,
            23.707656508919783
          ],
          [
            120.53081012376188,
            23.704236031259523
          ],
          [
            120.52750562665261,
            23.70099556671736
          ],
          [
            120.52687534110092,
            23.700453381368398
          ],
          [
            120.52624505554924,
            23.699985568219752
          ],
          [
            120.52495742862922,
            23.69932240539362
          ],
          [
            120.52097527234162,
            23.69757492165587
          ],
          [
            120.50170138679748,
            23.6890915128928
          ],
          [
            120.49580438922041,
            23.686582613636762
          ],
          [
            120.4926969627335,
            23.68516121124334
          ],
          [
            120.49213126860865,
            23.68493571300894
          ],
          [
            120.49162703300857,
            23.684676445715137
          ],
          [
            120.49075377055905,
            23.68406786001581
          ],
          [
            120.49008808286447,
            23.68357475535476
          ],
          [
            120.48949962826329,
            23.683022710212015
          ],
          [
            120.48839912897182,
            23.68174970243464
          ],
          [
            120.48640216453649,
            23.67925572648612
          ],
          [
            120.48399571945717,
            23.676341133172464
          ],
          [
            120.48117694289837,
            23.672750391570048
          ],
          [
            120.47782415175979,
            23.668752714448964
          ],
          [
            120.47627068227823,
            23.666962964019053
          ],
          [
            120.47529672149328,
            23.665028457289736
          ],
          [
            120.47510436424213,
            23.664318432163725
          ],
          [
            120.47487688525112,
            23.663447564662302
          ],
          [
            120.47452729248846,
            23.660965947584224
          ],
          [
            120.47384566783171,
            23.656823017195588
          ],
          [
            120.47092484718652,
            23.639577330827755
          ],
          [
            120.47002397243944,
            23.634112914198106
          ],
          [
            120.46941105301958,
            23.63033239357423
          ],
          [
            120.46911561717533,
            23.628507616618442
          ],
          [
            120.4688201813311,
            23.62671750482414
          ],
          [
            120.46860046850014,
            23.625347767128417
          ],
          [
            120.46850064531031,
            23.624732493789658
          ],
          [
            120.46845073371534,
            23.624440943712774
          ],
          [
            120.4683807556692,
            23.62414939363589
          ],
          [
            120.46815384895189,
            23.623287160197396
          ],
          [
            120.46792694223456,
            23.62259629372131
          ],
          [
            120.46744048163163,
            23.62141344097421
          ],
          [
            120.46684900412104,
            23.62027869705468
          ],
          [
            120.46553514106805,
            23.617649311352007
          ],
          [
            120.46441278712945,
            23.615342097040994
          ],
          [
            120.46321838715446,
            23.612959248887243
          ],
          [
            120.46259153436095,
            23.61168631352386
          ],
          [
            120.46205684654035,
            23.61062486397147
          ],
          [
            120.46140660537588,
            23.609279335860705
          ],
          [
            120.46106364563403,
            23.608610700913864
          ],
          [
            120.46073768886096,
            23.60798880554836
          ],
          [
            120.46034154828615,
            23.607152708899218
          ],
          [
            120.46013852686232,
            23.6067323921514
          ],
          [
            120.45991570089174,
            23.606307538524966
          ],
          [
            120.45933726467712,
            23.605116275435513
          ],
          [
            120.45878751562996,
            23.60406086285121
          ],
          [
            120.45826277581821,
            23.60328572314947
          ],
          [
            120.45727361419392,
            23.602214466445194
          ],
          [
            120.45589847096066,
            23.60082734331526
          ],
          [
            120.45057750099747,
            23.595407541959343
          ],
          [
            120.44765615776741,
            23.592333090355133
          ],
          [
            120.44508111071104,
            23.589702930124794
          ],
          [
            120.4433010730715,
            23.58785963101387
          ],
          [
            120.44243941566847,
            23.58698996513683
          ],
          [
            120.44156641369807,
            23.58606831539603
          ],
          [
            120.44124381461509,
            23.58573855817241
          ],
          [
            120.44089731646335,
            23.58535769488632
          ],
          [
            120.44056675102578,
            23.584925725316875
          ],
          [
            120.44026406783398,
            23.584486454886502
          ],
          [
            120.43945363507575,
            23.58321955859401
          ],
          [
            120.43889261333234,
            23.581553942769755
          ],
          [
            120.43804073032427,
            23.578421968155375
          ],
          [
            120.43594053220585,
            23.571012834944995
          ],
          [
            120.43402308110628,
            23.56371354600433
          ],
          [
            120.43335366096417,
            23.561434937507236
          ],
          [
            120.43274180065444,
            23.55917743348133
          ],
          [
            120.43248425204891,
            23.55821979427224
          ],
          [
            120.43221604371256,
            23.557275183452795
          ],
          [
            120.43165400783886,
            23.55517340046271
          ],
          [
            120.42846091398809,
            23.54360015695236
          ],
          [
            120.42808425888987,
            23.542285684083943
          ],
          [
            120.42790854254774,
            23.54100428244471
          ],
          [
            120.42787908079157,
            23.540331993406937
          ],
          [
            120.42790647074509,
            23.539633644133765
          ],
          [
            120.42798360594459,
            23.5390069607584
          ],
          [
            120.42811759285391,
            23.538393307630777
          ],
          [
            120.42822920598552,
            23.537959027931493
          ],
          [
            120.42837350734663,
            23.537484950873512
          ],
          [
            120.42856254570452,
            23.537023178175687
          ],
          [
            120.42877842626056,
            23.53658601446568
          ],
          [
            120.42901157540769,
            23.53616974503042
          ],
          [
            120.42925872851734,
            23.535740636645755
          ],
          [
            120.42974603275633,
            23.534908097816242
          ],
          [
            120.43025020256528,
            23.534114737238934
          ],
          [
            120.43075437237422,
            23.5332774696655
          ],
          [
            120.43190638316692,
            23.531449258698483
          ],
          [
            120.43731581503911,
            23.522769750750705
          ],
          [
            120.43922602099539,
            23.519625515353663
          ],
          [
            120.44121949778761,
            23.51636250863305
          ],
          [
            120.44299079319303,
            23.513504699612888
          ],
          [
            120.44440725199604,
            23.511238472411364
          ],
          [
            120.44510024853605,
            23.51010595498139
          ],
          [
            120.44543401753756,
            23.5095701839788
          ],
          [
            120.44577031503543,
            23.5090011057369
          ],
          [
            120.44602111274952,
            23.50854963569761
          ],
          [
            120.44626168331845,
            23.50806065246389
          ],
          [
            120.44643066387266,
            23.507688898334404
          ],
          [
            120.44656896299145,
            23.507289009121465
          ],
          [
            120.44669051779086,
            23.5069169693228
          ],
          [
            120.44678147692724,
            23.506572985425713
          ],
          [
            120.44694299809147,
            23.506015948006098
          ],
          [
            120.44718445198538,
            23.505051508655676
          ],
          [
            120.44738511166189,
            23.50409174533095
          ],
          [
            120.44762656555568,
            23.50315068680176
          ],
          [
            120.44800961052772,
            23.501476705758243
          ],
          [
            120.44842649734014,
            23.49983375936441
          ],
          [
            120.44860181302712,
            23.499072001932525
          ],
          [
            120.44870522053303,
            23.49859521798809
          ],
          [
            120.44892365189293,
            23.49770026459838
          ],
          [
            120.44933092121822,
            23.495883218858694
          ],
          [
            120.44986078120093,
            23.493622745910436
          ],
          [
            120.45001777033407,
            23.492877936567787
          ],
          [
            120.45008096162877,
            23.492527987585667
          ],
          [
            120.45012578900023,
            23.49214435504663
          ],
          [
            120.4501511151664,
            23.491699553510927
          ],
          [
            120.45015438816858,
            23.49132216979595
          ],
          [
            120.45014030425799,
            23.49110256839407
          ],
          [
            120.45012989587535,
            23.49093353054748
          ],
          [
            120.4500429196224,
            23.490433651119147
          ],
          [
            120.44994475910273,
            23.490004158680968
          ],
          [
            120.4498237669439,
            23.48965543313415
          ],
          [
            120.44961010174717,
            23.489090488609186
          ],
          [
            120.44931488251041,
            23.48855826737868
          ],
          [
            120.44868366702008,
            23.487658640836948
          ],
          [
            120.44717207286602,
            23.485956211755592
          ],
          [
            120.44329123604325,
            23.481796290902867
          ],
          [
            120.44207742454397,
            23.480477118944542
          ],
          [
            120.44123057165385,
            23.479546216834855
          ],
          [
            120.3990036840455,
            23.433169596531386
          ],
          [
            120.39640846277155,
            23.43019839854914
          ],
          [
            120.39245930748723,
            23.424016869113707
          ],
          [
            120.39058889036471,
            23.42061410922556
          ],
          [
            120.38846678092511,
            23.417049318698634
          ],
          [
            120.3875736218992,
            23.4154220724212
          ],
          [
            120.38697249367519,
            23.413750162573734
          ],
          [
            120.38657416304396,
            23.41198214346954
          ],
          [
            120.38641919141367,
            23.410214124365346
          ],
          [
            120.38609427960591,
            23.40479009729294
          ],
          [
            120.38585698702747,
            23.40163165751369
          ],
          [
            120.38559875146436,
            23.400558824060315
          ],
          [
            120.3851695072294,
            23.39953830503581
          ],
          [
            120.38465007279433,
            23.39859330946936
          ],
          [
            120.38401663258085,
            23.39775294432941
          ],
          [
            120.38326202046437,
            23.396927874808565
          ],
          [
            120.38248840738433,
            23.396277191501646
          ],
          [
            120.38070955034064,
            23.394849157945302
          ],
          [
            120.37932140436519,
            23.393271711501875
          ],
          [
            120.36962894936315,
            23.38000750230333
          ],
          [
            120.36492117602285,
            23.373411713494534
          ],
          [
            120.35868587378816,
            23.363538896094585
          ],
          [
            120.35571462103331,
            23.35868434866788
          ],
          [
            120.352563513583,
            23.35364868857831
          ],
          [
            120.34752744620856,
            23.345603389268167
          ],
          [
            120.34297110916671,
            23.338306997640217
          ],
          [
            120.33671300914013,
            23.328005600077383
          ],
          [
            120.33026382527248,
            23.3178621194197
          ],
          [
            120.32685718529243,
            23.312301641029432
          ],
          [
            120.32357093486138,
            23.307072845844807
          ],
          [
            120.32259553958875,
            23.305451179450138
          ],
          [
            120.32156890367202,
            23.30359421367476
          ],
          [
            120.32077138044286,
            23.301690185673465
          ],
          [
            120.32064557767717,
            23.30111446747305
          ],
          [
            120.32059016931936,
            23.30060340220676
          ],
          [
            120.32060961656597,
            23.29994704018572
          ],
          [
            120.32071537973864,
            23.29942544830672
          ],
          [
            120.32167631849549,
            23.296558181399142
          ],
          [
            120.32237068664061,
            23.294847621114783
          ],
          [
            120.32286820318814,
            23.29325759723145
          ],
          [
            120.32284616968198,
            23.290650104867538
          ],
          [
            120.32267843325495,
            23.282197961327746
          ],
          [
            120.32256736408027,
            23.27406776973271
          ],
          [
            120.32272194926259,
            23.270849685859606
          ],
          [
            120.32267867201385,
            23.267745205615604
          ],
          [
            120.32264158312128,
            23.260513789719813
          ],
          [
            120.32207265197287,
            23.252488499440133
          ],
          [
            120.32131055282224,
            23.245084482250682
          ],
          [
            120.31957442959839,
            23.2222091159042
          ],
          [
            120.31880285514592,
            23.213922228147943
          ],
          [
            120.3182353199656,
            23.2056822204517
          ],
          [
            120.31968785160755,
            23.19103388649646
          ],
          [
            120.32091886315341,
            23.177074691103662
          ],
          [
            120.3211789285275,
            23.17465840002773
          ],
          [
            120.32128577709707,
            23.172403084526685
          ],
          [
            120.32085524905392,
            23.170481067170904
          ],
          [
            120.32037000072566,
            23.169001742047225
          ],
          [
            120.31837316256656,
            23.163047401018048
          ],
          [
            120.31704012944564,
            23.15930247205342
          ],
          [
            120.31199386434119,
            23.149129632052492
          ],
          [
            120.3097147641674,
            23.14487665517882
          ],
          [
            120.30836165368203,
            23.14223246650964
          ],
          [
            120.30786266012882,
            23.139445483747096
          ],
          [
            120.30652691515441,
            23.131832104571647
          ],
          [
            120.30443393186432,
            23.12062100935377
          ],
          [
            120.30260830055057,
            23.109088828343758
          ],
          [
            120.29938407417049,
            23.09304826824843
          ],
          [
            120.29646663492014,
            23.077572549922166
          ],
          [
            120.29620178813417,
            23.075470927019644
          ],
          [
            120.29570752451895,
            23.073844190910805
          ],
          [
            120.29466839594159,
            23.07224383688976
          ],
          [
            120.29322778792238,
            23.071118381306718
          ],
          [
            120.28597414647476,
            23.065033581619304
          ],
          [
            120.2699925390653,
            23.05220310131112
          ],
          [
            120.2567024451689,
            23.041219188785565
          ],
          [
            120.2490437880226,
            23.03492936548684
          ],
          [
            120.24189778220828,
            23.030408558215395
          ],
          [
            120.22759355927082,
            23.02220393598678
          ],
          [
            120.2265825895729,
            23.021588622251855
          ],
          [
            120.22571853960248,
            23.020922601493577
          ],
          [
            120.22501977432577,
            23.020260806635036
          ],
          [
            120.2244128338804,
            23.019480694230218
          ],
          [
            120.22019352204899,
            23.01371803202046
          ],
          [
            120.21642109776916,
            23.00836666855588
          ],
          [
            120.21539681231758,
            23.00703150708889
          ],
          [
            120.21462331087093,
            23.005630392527692
          ],
          [
            120.21397196513729,
            23.00272923198327
          ],
          [
            120.21305871745727,
            22.997192832701707
          ]
        ]
      }
    }
  ]
}