{"type": "FeatureCollection", "features": [{"type": "Feature", "properties": {"track_id": "KL-KL-BD-1", "name": "基隆支線 (基隆→八堵)", "origin": "基隆", "destination": "八堵", "direction": 1}, "geometry": {"type": "LineString", "coordinates": [[121.738453, 25.131857], [121.7378569691467, 25.130914641806783], [121.73762246705192, 25.130354946754572], [121.73750801799332, 25.129775421909503], [121.73749770763484, 25.12920286511509], [121.73753090959507, 25.128901152518342], [121.73760957186784, 25.128630308201984], [121.73778712062219, 25.128131910832764], [121.73813157082725, 25.127647754655168], [121.7384053907949, 25.127359125237717], [121.73870179612125, 25.127104575857416], [121.73902047540571, 25.12691044542382], [121.73933915469016, 25.126716314990226], [121.73997651325908, 25.126328054123036], [121.74058791663869, 25.12592804374936], [121.7410565664741, 25.125481034929425], [121.74148845933503, 25.12489445489178], [121.7417800003335, 25.124251398237753], [121.7419311894693, 25.123643639473094], [121.74202698099927, 25.123024717667015], [121.74272783534987, 25.117005180229448], [121.74267834205182, 25.116439805007246], [121.7425602773298, 25.115961352682046], [121.74235306975766, 25.115464273956896], [121.74211843361428, 25.115041701178797], [121.74174302817187, 25.114594621020792], [121.74131492535827, 25.1141952562562], [121.74066944588776, 25.11381378483631], [121.74006348944471, 25.113468100197316], [121.73440289732983, 25.111032328008193], [121.73141688382863, 25.109742115724288], [121.72873141287782, 25.10856604879511]]}}]}