{"type": "FeatureCollection", "features": [{"type": "Feature", "properties": {"track_id": "OD-HL2-YL2", "source_track": "BB-TT-ZY-0", "point_count": 1149}, "geometry": {"type": "LineString", "coordinates": [[120.73311630191603, 24.309175287074893], [120.7272494067981, 24.25910186254634], [120.72702185230527, 24.258929092251062], [120.7268715705086, 24.258812356578648], [120.72672318027017, 24.258693607032118], [120.72657735657204, 24.25857221639767], [120.72640610488503, 24.258422011038736], [120.72623973242858, 24.25826726174363], [120.72607838861246, 24.258108102429365], [120.7259222070789, 24.25794467059638], [120.72577132342559, 24.257777109166163], [120.72562586931247, 24.257605559247235], [120.72548596850285, 24.257430169157153], [120.72535174080669, 24.257251092623733], [120.72529764598495, 24.257175640810388], [120.72519208742581, 24.257023183437642], [120.72508939261641, 24.25686908604468], [120.72493897344714, 24.256635945502083], [120.72445471393435, 24.255871449291668], [120.72431176658546, 24.255640792039756], [120.72428433603692, 24.25559652810741], [120.72427227052154, 24.255577060939668], [120.72425951416245, 24.255555533859635], [120.72412528615673, 24.25532900052157], [120.7240968542641, 24.255278759209624], [120.72395520726893, 24.2550284528066], [120.72293920545754, 24.253190819817792], [120.72237346481862, 24.252167542957427], [120.72232222976601, 24.25207487477384], [120.72226726523401, 24.251975454944606], [120.72186366811697, 24.251245440991205], [120.72163289554557, 24.250828022906372], [120.72155458711288, 24.250688562500805], [120.72145259000713, 24.25050691574703], [120.72131212866928, 24.25026861782345], [120.72121445251808, 24.250111810956653], [120.72110500310495, 24.249945696804076], [120.72099084478575, 24.2497822682529], [120.72087205413212, 24.249621641007153], [120.72074871363871, 24.249463923558213], [120.72068111371902, 24.249382099552115], [120.72062350466308, 24.24931236772331], [120.72062090580278, 24.2493092225914], [120.72058105456225, 24.249262844000842], [120.72055996298224, 24.249238298178426], [120.72037244965409, 24.249028988817255], [120.72017994162539, 24.248823520094337], [120.7197091429864, 24.248333844484243], [120.71970877355209, 24.24833346096507], [120.71937476009685, 24.247986051299897], [120.71932040663117, 24.24792952207662], [120.71930112944321, 24.24790947055625], [120.71925628494338, 24.247862827781486], [120.71838614384278, 24.246957780228875], [120.71831953344534, 24.246888494964818], [120.71827771186295, 24.246844996051237], [120.71742994426667, 24.245963200347628], [120.71741006441393, 24.245942522646082], [120.7173882451183, 24.245919827825098], [120.71630071517538, 24.244788619600847], [120.71628952473382, 24.244776979943783], [120.71627653243142, 24.24476346426715], [120.71603909125878, 24.244516484074474], [120.71602385896207, 24.244500640076257], [120.7159763916799, 24.244451264614067], [120.71592113342068, 24.244393784416054], [120.71587464868603, 24.24434543286341], [120.71585605048199, 24.244326086451615], [120.71510346155092, 24.24354324769052], [120.7148335171142, 24.243259921755513], [120.71463438741682, 24.243044803020002], [120.71444021408914, 24.242825913693242], [120.71437692920482, 24.242751892598847], [120.7142151461276, 24.2425551871576], [120.71405927684684, 24.242354508964166], [120.71390943524938, 24.242150004523722], [120.7137657371729, 24.241941827568223], [120.71362828466243, 24.24173013360916], [120.71349718566496, 24.241515079974683], [120.7133725323656, 24.24129682576858], [120.71325442284336, 24.241075535522803], [120.71314294139314, 24.24085137193694], [120.71310213526495, 24.24076508043152], [120.71302315268031, 24.240591474819713], [120.7129471505797, 24.24041675335717], [120.71283731648653, 24.24015317829773], [120.71273050232803, 24.23988855965823], [120.71264019388458, 24.239662689395185], [120.7126096818304, 24.23958637641426], [120.7125732358387, 24.239495220824704], [120.71164760901836, 24.237180093417482], [120.71163427273999, 24.237146737682917], [120.71162211734631, 24.237116334934093], [120.71161866479915, 24.237107700068485], [120.71161311487633, 24.2370938188628], [120.71160456283607, 24.237072425073727], [120.71160454912376, 24.237072392542537], [120.71157486469696, 24.23699815040328], [120.71156946558196, 24.23698464329143], [120.71156133459215, 24.23696430491071], [120.71155733176369, 24.2369542929474], [120.71155297643281, 24.23694340086973], [120.71153935819846, 24.236909342118405], [120.71152326857931, 24.23686909366482], [120.70995087266581, 24.23293608536835], [120.70993522266852, 24.232896935524955], [120.70991909878681, 24.232856603754083], [120.70980187490235, 24.23256338375432], [120.70970716118657, 24.232321151285166], [120.70962876565852, 24.232112665010852], [120.70962223353384, 24.232095289348408], [120.70961573271879, 24.232078002231816], [120.70961568573856, 24.232077877538874], [120.70951514145551, 24.23179234048125], [120.70944787150339, 24.231587129466376], [120.7093844008477, 24.231380903562215], [120.70933626196127, 24.23121512714109], [120.70929008960795, 24.231048879520007], [120.70922345179748, 24.230798908104372], [120.70900528834609, 24.229954740566995], [120.70899211561849, 24.229903772479073], [120.70897577272109, 24.229840531219306], [120.70854847734404, 24.228187115571416], [120.70842972318539, 24.227714722625045], [120.70842926082716, 24.227712812960146], [120.70841472489195, 24.227652751570176], [120.70839931690192, 24.227589100291766], [120.70825478349131, 24.2269919586963], [120.70824616854594, 24.22695635979134], [120.7082424229027, 24.22694088915123], [120.70805813106158, 24.22617947454337], [120.70805551500833, 24.226168663341568], [120.70736928738553, 24.223333390876128], [120.70736919374107, 24.223333007856557], [120.70680848411371, 24.221016246056617], [120.70674113994409, 24.22072475550418], [120.70667906570125, 24.220432285459147], [120.70666000410563, 24.22033451445586], [120.70665426497997, 24.220302335834223], [120.70664699193775, 24.220261551198547], [120.70663798860474, 24.220211067632288], [120.70662035524116, 24.220112190582412], [120.70658575692119, 24.219889159502532], [120.70655932044549, 24.219692003878404], [120.70653604522326, 24.21949451303171], [120.70649583484271, 24.219098945797167], [120.7061689781985, 24.215580497473194], [120.70616071918265, 24.21549159043533], [120.70614214888712, 24.215291701310466], [120.70595838622447, 24.213313488589016], [120.70583814746797, 24.212019081738454], [120.70579983485831, 24.21160663654878], [120.70579275803694, 24.21153045033185], [120.7057852066393, 24.211449145418964], [120.70564337993237, 24.20992229796747], [120.70564000587719, 24.20988597941318], [120.70563661455544, 24.2098494639876], [120.70539177657906, 24.207213552418537], [120.7053853784148, 24.20714468476227], [120.70537925504735, 24.207078759367494], [120.70515095196508, 24.20462077292661], [120.70514893080261, 24.2045989976715], [120.70514691339572, 24.20457730188103], [120.70504885551327, 24.203521552177897], [120.70501647421814, 24.203184261147012], [120.70498497443863, 24.20289175331373], [120.70495660726606, 24.202655682592198], [120.70493955386706, 24.20252621514244], [120.70493383391695, 24.202482796805832], [120.70492083830005, 24.20238413601241], [120.70491370194691, 24.20232995566603], [120.70491233003764, 24.202319531438114], [120.70475384251819, 24.201156979898983], [120.70474782894996, 24.201112872949988], [120.7047431842338, 24.201078798355645], [120.70473209226925, 24.200997437670743], [120.70472476798992, 24.20094370840577], [120.70471901196629, 24.200901480039885], [120.70470898293998, 24.200827920886994], [120.70470110496044, 24.200770127379403], [120.70468574784361, 24.200657472032987], [120.70467786987999, 24.200599680328946], [120.70466731040011, 24.200522233948686], [120.7046591710826, 24.20046252392114], [120.70465101239225, 24.200402680222126], [120.70436894798156, 24.19833358340023], [120.70436889764305, 24.198333214908622], [120.70421760534465, 24.197227073027957], [120.70421200126913, 24.197182269773513], [120.70416107579445, 24.196775082890728], [120.70415967621952, 24.196763900137384], [120.70415712841952, 24.19674352336279], [120.70409488123222, 24.19624581593198], [120.70396657687121, 24.195213693148375], [120.70387500536152, 24.194618658082227], [120.70385209690244, 24.194467963847007], [120.70384447173899, 24.194417809505048], [120.7038361445573, 24.19436304345397], [120.7037784596516, 24.193983604565016], [120.70371769304428, 24.19355603183805], [120.70363493966431, 24.192973744928256], [120.70352038990845, 24.19216020162087], [120.70342324203546, 24.191398837860792], [120.70334986235721, 24.190861549112554], [120.70334319714321, 24.19081274376064], [120.70333655322999, 24.19076409375313], [120.70330595289374, 24.190540052261746], [120.70319878949654, 24.189791226635023], [120.70306943852785, 24.188851191666483], [120.70296416760502, 24.188050541378576], [120.70284167102437, 24.187165606998683], [120.70278673904417, 24.186688961794335], [120.7027764438628, 24.18648734325551], [120.70277194695589, 24.186399255697903], [120.70275568723993, 24.186237460886023], [120.70272844800496, 24.18596639762744], [120.70268504944083, 24.185401152444523], [120.7026471896871, 24.18498331556935], [120.70264347166693, 24.18494228469338], [120.70263888414614, 24.184891650386263], [120.70263866915893, 24.18488928068422], [120.70262862648613, 24.18477845559349], [120.70259752741788, 24.18455495820082], [120.70258721854762, 24.184480863691107], [120.70258361508381, 24.184454967912366], [120.70258010261536, 24.18442973144837], [120.70256336522249, 24.18430944866071], [120.70249270463134, 24.183820935117886], [120.70239294533381, 24.183066019001078], [120.70231011534689, 24.182471965369214], [120.70229040759001, 24.182330618634914], [120.70227908792776, 24.182249439543423], [120.70227313767833, 24.182206757345433], [120.70225819912747, 24.182099606582074], [120.70225709540581, 24.18209170380519], [120.70225020994896, 24.182042309217017], [120.70224857710069, 24.1820265968838], [120.70224413885438, 24.18198384720796], [120.7022342361089, 24.181888453369695], [120.70219870136891, 24.181546194038923], [120.70213113609698, 24.18113230421354], [120.70213074013981, 24.181129883592202], [120.70213039475762, 24.181126876166303], [120.70208253080533, 24.18070955393043], [120.70201212887372, 24.180145136698293], [120.70190319654927, 24.179346753097352], [120.70188373642499, 24.179216975063888], [120.70180005968231, 24.178658937058202], [120.70169710912428, 24.177949012150112], [120.70168309777405, 24.177852402075292], [120.70165439543584, 24.177635722502195], [120.7016457268749, 24.177570297389018], [120.70163843380683, 24.177515233363984], [120.70163437327795, 24.177484581825507], [120.70156323400852, 24.1769475882922], [120.70145447209202, 24.176162838638646], [120.70132314514849, 24.175177740697368], [120.70119355628935, 24.17422561007091], [120.70107432044729, 24.17333374656791], [120.70107427401776, 24.173333397946266], [120.70064078878508, 24.17015969382582], [120.70062929888468, 24.170075576032488], [120.70061736393413, 24.169988176118096], [120.70054644905106, 24.169468980638047], [120.70054283975936, 24.169442550221028], [120.7005390311353, 24.169414660278267], [120.70029790020229, 24.167649156011194], [120.70029114235425, 24.167599687463735], [120.70028385041785, 24.16754629553931], [120.7000404988083, 24.165764486434103], [120.70003824627335, 24.165747989085773], [120.70003612339808, 24.165732440068815], [120.69993995345472, 24.165028270706404], [120.69993449631657, 24.164988314346264], [120.69992839670142, 24.16494365787389], [120.6999096838233, 24.16480662851234], [120.69990362293558, 24.16476225202256], [120.69989794907197, 24.164720713300035], [120.6993357039518, 24.160603717581147], [120.69932568827488, 24.16053036904716], [120.6993138053049, 24.1604433500748], [120.69866451424494, 24.155688618705334], [120.6986539749243, 24.155611440624238], [120.69864710999846, 24.155561151863193], [120.69862045121785, 24.15536593426415], [120.69861086391587, 24.1552957232683], [120.69860289610605, 24.15523737456765], [120.69829549852744, 24.15298616579785], [120.69798914827206, 24.150742556977097], [120.69798338856931, 24.15070036422467], [120.69797732313295, 24.15065595326667], [120.69766026350887, 24.14833382109906], [120.69766021903934, 24.148333483314445], [120.69762005080518, 24.148038731908283], [120.6976076848264, 24.147947995254512], [120.69759499580603, 24.147854879635997], [120.69717273725767, 24.144756271959658], [120.6971614880914, 24.14467372704747], [120.6971513377829, 24.144599225829047], [120.69714877844264, 24.144580441564962], [120.69712731311033, 24.144438840857653], [120.69710382806466, 24.144297514240524], [120.69707766180083, 24.14415658139292], [120.69704816254581, 24.144016208965432], [120.69700099310002, 24.143823292326218], [120.69694630822613, 24.143632052843866], [120.69688418018553, 24.143442738057654], [120.69681468518671, 24.143255590096125], [120.69677630015389, 24.143163221515188], [120.69673791714345, 24.14307085292795], [120.69665397392059, 24.142888763305333], [120.69663211738029, 24.142845727643618], [120.69659462751875, 24.142771907026585], [120.6965664460009, 24.142716414568067], [120.696562963229, 24.14270955438752], [120.69652586984638, 24.142642876737163], [120.69648951722981, 24.142577531472895], [120.69646500064903, 24.14253345934865], [120.69644755800549, 24.142504704187385], [120.69636021358323, 24.14236070416228], [120.69624874124338, 24.14219151301901], [120.69613072089214, 24.142026101075757], [120.69600630750492, 24.141864681718385], [120.69587566196653, 24.141707464732487], [120.69573895305196, 24.14155465088981], [120.6955963534776, 24.14140643735812], [120.6955555166122, 24.141366944721504], [120.69553138244792, 24.14134360454007], [120.69552220156997, 24.141334726654488], [120.69547622063114, 24.141290261219176], [120.69545208649562, 24.141266921025263], [120.69544804974073, 24.141263017720846], [120.69529423426927, 24.141124572932235], [120.69513510145606, 24.140991283950655], [120.6949708614554, 24.140863322736813], [120.69482885831526, 24.140760501909362], [120.69480172050432, 24.14074085221463], [120.69478946238945, 24.14073261282697], [120.69462789862067, 24.14062403172428], [120.69460411446917, 24.140609219392466], [120.69454687846766, 24.140573576290187], [120.69449370607701, 24.140540464092382], [120.69444962174448, 24.140513011588965], [120.69426711583445, 24.140407933103262], [120.69408061866231, 24.140308933974325], [120.69387428551768, 24.14020828040102], [120.69366481631576, 24.140113231080868], [120.69331177228719, 24.13996231761301], [120.69254969296351, 24.139643151148178], [120.6924405537836, 24.139597443378754], [120.69232544030393, 24.13954923320346], [120.6907006638066, 24.138868741653518], [120.69049982682617, 24.138783269360847], [120.69030032267538, 24.13869521350983], [120.69009733955335, 24.13860065644614], [120.68984261455704, 24.138474830191864], [120.68983742952864, 24.138472269776603], [120.68981908824681, 24.138462838403377], [120.6897242568603, 24.138414076962835], [120.68970072689817, 24.138401976796857], [120.68862158444773, 24.13784708020843], [120.68842786389382, 24.137748751120643], [120.688232653792, 24.137652934316847], [120.68822241682994, 24.137648163986974], [120.68802967386452, 24.137558372717685], [120.68783017333506, 24.137470313661368], [120.6875622426692, 24.137356655238822], [120.68616486817932, 24.136771453760364], [120.68597989622303, 24.136694860510634], [120.68579410371468, 24.136619955639087], [120.68555738818905, 24.13652888611802], [120.6855071156966, 24.136510561395905], [120.68530592758262, 24.136437220605504], [120.68324099343702, 24.13571089172919], [120.68305814007944, 24.135645513773778], [120.68305553895615, 24.135644583771487], [120.68298887904481, 24.135620748823246], [120.6829763004246, 24.135616108721372], [120.6828998496215, 24.135587915717277], [120.6828633503987, 24.13557445664493], [120.68262663892028, 24.135483382609127], [120.68257876867283, 24.135463983818934], [120.68246712456556, 24.135418740494003], [120.68237912763081, 24.135383079442352], [120.68219469093049, 24.13530582721257], [120.68201654098014, 24.135231209969877], [120.68195430276005, 24.135205140895973], [120.68189274865219, 24.13517935854875], [120.6804130376938, 24.134559565696957], [120.6803336076988, 24.134526294309293], [120.68025553607411, 24.134493592766653], [120.67830522100311, 24.133676647557323], [120.6782151693527, 24.133638926520106], [120.67814331442372, 24.133608826613823], [120.67626975146248, 24.13282399374561], [120.67624526086455, 24.132813735073643], [120.67615599671436, 24.1327763413592], [120.67606705499205, 24.132739081910827], [120.6760478521412, 24.132731037579795], [120.67290918869696, 24.131416169219534], [120.67282393054215, 24.13138044896091], [120.67273351063304, 24.13134256861358], [120.66860484164174, 24.129612807491018], [120.66852493624702, 24.129579328508854], [120.66843543683257, 24.129541828664987], [120.66836538504145, 24.129512479335332], [120.66722944159945, 24.1290365304463], [120.6671807385048, 24.129016124588954], [120.66715752896424, 24.129006399988818], [120.66712572395886, 24.12899307381444], [120.66578287321616, 24.128430414990685], [120.662735706456, 24.127153582963327], [120.66264429603707, 24.127115277331058], [120.66255611108085, 24.127078325945977], [120.66017757785622, 24.12608160185127], [120.66008209058683, 24.126041588110013], [120.66001486115582, 24.126013415063525], [120.65998679010377, 24.126001650571514], [120.65987147712292, 24.125953328925448], [120.6597828201032, 24.125916174445347], [120.65956681377966, 24.12582565452861], [120.65954477132343, 24.12581626907569], [120.65949455029586, 24.12579488945312], [120.65941088925035, 24.125759270046018], [120.65935446140425, 24.125735247197703], [120.65931779412603, 24.12571963678369], [120.6592723000621, 24.125700268530128], [120.65897969948703, 24.125571169769092], [120.65878631097239, 24.125481965164237], [120.65854263155555, 24.125363829905993], [120.65830202212142, 24.12524050926868], [120.65806461632117, 24.12511206677116], [120.65805825652922, 24.12510849859169], [120.65805553146434, 24.125106970147048], [120.65797228445356, 24.125060257457147], [120.65769792443282, 24.124900959703382], [120.65760940867241, 24.12484746662842], [120.65755374109649, 24.12481382678807], [120.65749205045218, 24.124776545439286], [120.65733638697692, 24.124682475532087], [120.6551423838709, 24.12333355367168], [120.65514180830556, 24.123333200228597], [120.65382982291214, 24.1225265342578], [120.65373012982006, 24.122465237562988], [120.65363004984431, 24.12240370335792], [120.6504466638481, 24.12044632386384], [120.6504151212137, 24.12042692893006], [120.65028699826934, 24.12034814737227], [120.65024188636826, 24.120320407136923], [120.64945390048538, 24.119835875244377], [120.6488937377418, 24.119491425746105], [120.6488050531739, 24.119436894255884], [120.64873411186419, 24.11939327120847], [120.64820279606413, 24.11906655590619], [120.6421776098359, 24.115361320912086], [120.64214721087176, 24.11534262582967], [120.64212512807005, 24.115329046371574], [120.64210637645489, 24.115317513535057], [120.6420487447648, 24.11528207025299], [120.64196359558454, 24.11522970291252], [120.64194256363587, 24.115216768778676], [120.64191229044312, 24.115198151596747], [120.64188571179491, 24.115181805817294], [120.64105346885681, 24.114669972325565], [120.64053849760093, 24.11434856914161], [120.64012856209467, 24.114106873330247], [120.63970004634649, 24.113871850429376], [120.63929922775498, 24.113648936841354], [120.63893646650207, 24.1134529472985], [120.63853757656817, 24.113220970841194], [120.63816264720897, 24.113003903331396], [120.63789112687674, 24.112830122800712], [120.63785639673844, 24.112809350696], [120.63762024111358, 24.112668112116783], [120.63751154828128, 24.112600625558358], [120.63726129049564, 24.11244760040317], [120.6369991383258, 24.112288917702834], [120.63673996443823, 24.11212852606455], [120.63647526846333, 24.111965390384224], [120.63623155411207, 24.111815427420527], [120.63594011871105, 24.11163534412773], [120.63575185354256, 24.111518872248077], [120.63541787223623, 24.11131361210454], [120.63520914044932, 24.11118685688991], [120.63498453909796, 24.11104646712695], [120.63473389616743, 24.110892633328913], [120.63471719621474, 24.110882384853795], [120.63470049234013, 24.11087213275578], [120.63464767237471, 24.11083971219129], [120.63436624682699, 24.110668951859083], [120.63403388322217, 24.11046369619262], [120.63378073892136, 24.11030886343067], [120.63349366406158, 24.110150969196678], [120.63324687029096, 24.11000911147991], [120.63316133533294, 24.10996343448637], [120.63307561961956, 24.109919763327138], [120.63307490240952, 24.109919449190322], [120.63305905675652, 24.109911207096566], [120.63305833773359, 24.109910838779395], [120.63305552782826, 24.109909613073096], [120.63299819007875, 24.10988459236282], [120.63286857362553, 24.10981817009937], [120.6327156775129, 24.109753620438298], [120.63254044810402, 24.10967853207066], [120.63235857830496, 24.1096077868853], [120.6321708303376, 24.109537646747143], [120.63194152203117, 24.10946031645789], [120.63180510651888, 24.109414086355113], [120.6316400449392, 24.109366064285773], [120.63152642813272, 24.109333500597565], [120.63097967193974, 24.10918669173102], [120.63094339382299, 24.109177165767594], [120.63066297010121, 24.109105270369547], [120.62978864605346, 24.108881575090066], [120.62978864605346, 24.108881575090066], [120.62864697631512, 24.108610092323755], [120.62820778885984, 24.10854326657871], [120.62774415729827, 24.10850153752989], [120.6273415881959, 24.10848315593805], [120.62703535807248, 24.108480478381964], [120.6266074095411, 24.10849103328913], [120.6257929611116, 24.10855484224896], [120.62529576751601, 24.108613226476063], [120.62473505574106, 24.108692373144294], [120.62413822873293, 24.10878739727406], [120.623535, 24.108862], [120.6196025792799, 24.10925414067286], [120.61598, 24.109618], [120.61524434254368, 24.109694523724755], [120.61478845158582, 24.10975494062473], [120.61378451694591, 24.10984627886621], [120.61116487145532, 24.110142965997774], [120.60805552228993, 24.11046786597209], [120.60750058426565, 24.110525845355923], [120.60568117420715, 24.110726500158236], [120.60524250762953, 24.110774875200082], [120.60488506075916, 24.110814292466895], [120.60047773353011, 24.1112819832198], [120.59957912578602, 24.11140435635133], [120.59870929126691, 24.111566741749442], [120.59813610290597, 24.111703112714316], [120.59769215665177, 24.111819186297808], [120.5974105448431, 24.111900022466287], [120.596763598566, 24.11210917949797], [120.59553645823596, 24.112539687187684], [120.59471280006885, 24.112837970672675], [120.59290607857822, 24.113552153003514], [120.59222057645071, 24.113693231605343], [120.59096115766535, 24.11413573148217], [120.59016310938335, 24.114415117976627], [120.58918420990959, 24.11476975445083], [120.58698939924518, 24.115584117008996], [120.58649848524023, 24.11572998181906], [120.58615570638648, 24.115806223375024], [120.58572052395904, 24.11586741011132], [120.58535750235883, 24.11590070046225], [120.58495766611799, 24.115907343850495], [120.58455794699356, 24.115902076886858], [120.58420938130958, 24.115875955020044], [120.5838457114045, 24.115829726347716], [120.58343221617837, 24.1157618550241], [120.58312990588615, 24.11569048467329], [120.58305556319486, 24.115669535226623], [120.5828425898008, 24.11560952042545], [120.5824865754333, 24.115484221958248], [120.58216159863719, 24.11535596649193], [120.58162613446352, 24.11509049217825], [120.58131975300688, 24.11491663380945], [120.5811071137271, 24.11477575398949], [120.5808577429574, 24.114595351272502], [120.58042222783112, 24.114250337121195], [120.58025591707253, 24.114102684974434], [120.58007764557739, 24.11391550389377], [120.57972003247745, 24.11351685301306], [120.57956123371584, 24.113316652301293], [120.57915654464709, 24.112662276873984], [120.57896458192991, 24.112280026099516], [120.57873986144236, 24.11169971593981], [120.57861400598055, 24.11128526612945], [120.57835228720569, 24.11049782449045], [120.57801950610906, 24.109481091512375], [120.57789627308159, 24.109103711692626], [120.57770614345263, 24.108513790754383], [120.57748920752896, 24.10787008744078], [120.57728065546097, 24.107229144660167], [120.57709639621669, 24.106674489457507], [120.57695811711257, 24.10626242359499], [120.5767352801307, 24.105581765758483], [120.57652266368522, 24.1049292422542], [120.57629674809701, 24.104240909314303], [120.5761044436199, 24.10366694392738], [120.57606309138836, 24.103555016821343], [120.57588256153727, 24.103066384398982], [120.57569908433734, 24.102642157625525], [120.57552921718195, 24.10229935845223], [120.57535184896024, 24.101967516057776], [120.57515185111686, 24.101616876579804], [120.5749452551895, 24.101283807548914], [120.57469146276792, 24.100903941729975], [120.57443418542047, 24.100567074111282], [120.5741533850863, 24.100223034473785], [120.57384739984738, 24.099871771103885], [120.57356524860656, 24.099592060335922], [120.57330147831365, 24.0993254747781], [120.57305306541001, 24.099099825332054], [120.5727982774674, 24.098865903089212], [120.57251253190626, 24.098633241023382], [120.5725117097482, 24.09863260486777], [120.57223941578332, 24.098421670081994], [120.5721172183071, 24.098333799919757], [120.57211662365907, 24.098333372072602], [120.57158799466237, 24.097952801998993], [120.57097359250994, 24.097584305367185], [120.57010026994945, 24.097154519797506], [120.5694642794947, 24.096887406867097], [120.56910393999428, 24.096753351288207], [120.56885000339057, 24.096658877838202], [120.56920529993872, 24.09686796316689], [120.56709038295904, 24.096095316106712], [120.56612675159701, 24.09572727181878], [120.56565608501845, 24.095519505741425], [120.56516296471689, 24.095317596018006], [120.56420504198292, 24.094974313500067], [120.56328755501511, 24.09462839448082], [120.55951650676926, 24.09319486881316], [120.55747019, 24.09244482], [120.55542387, 24.09169477], [120.55337756, 24.09094473], [120.5524897692477, 24.090613376120373], [120.55184627113834, 24.090367340350316], [120.55142411114117, 24.09020961235624], [120.551031462895, 24.09006385831347], [120.54911000800965, 24.089379064104914], [120.54815758439547, 24.089032210313455], [120.54722579835266, 24.088690589905916], [120.5449586470759, 24.087858719643933], [120.54435105065889, 24.087637269874133], [120.5425134505747, 24.086892478096935], [120.54220655060988, 24.08674711636522], [120.54192420941001, 24.086586807700968], [120.54156409878578, 24.086340553968526], [120.5413554338827, 24.086180245360932], [120.54112411729196, 24.085965781584918], [120.54101382876313, 24.085853647453362], [120.54091642767679, 24.085739552422694], [120.54061491272404, 24.08532898501354], [120.53990555624678, 24.084347183869603], [120.53972009908537, 24.08408696494303], [120.53953464192395, 24.083795291610386], [120.53934143053115, 24.08347545759591], [120.53914821913835, 24.083070672692], [120.538402, 24.081859], [120.53776618092267, 24.080872695488413], [120.53762116640364, 24.080657980469415], [120.53725724028193, 24.080086206403585], [120.53686197318147, 24.079533086787503], [120.53657906785051, 24.079117354043063], [120.53638738392613, 24.07880998508436], [120.5360181426413, 24.078246775193524], [120.53568667850709, 24.077722189901426], [120.53548530344379, 24.07737618205899], [120.53532288041512, 24.07708595694102], [120.53516144958162, 24.076716847578837], [120.53499697057556, 24.076290310625055], [120.53486757387941, 24.075882570790917], [120.53481022329592, 24.075647973477903], [120.53472711632804, 24.07530801718921], [120.53445392776636, 24.0741033135029], [120.53431766546201, 24.073515612916726], [120.53427541884635, 24.07333340052359], [120.53427531232468, 24.07333294241422], [120.53427514770179, 24.07333223401661], [120.53425875168662, 24.07326128971611], [120.5330603505137, 24.068075548963613], [120.53305843546413, 24.06806642623859], [120.53305554500683, 24.068052656769577], [120.53302083736307, 24.067887308396113], [120.53298986506965, 24.067751455679392], [120.53273502488712, 24.06663085335866], [120.53245271427788, 24.065399988355562], [120.5323168932712, 24.064787098762814], [120.53229725829473, 24.064698498340135], [120.53223030570038, 24.064396375569057], [120.53165710781752, 24.061901672014745], [120.53164070345073, 24.06183027316463], [120.53162515483912, 24.061762600615822], [120.53161153069085, 24.061703305924663], [120.53123505462507, 24.06006472425264], [120.53035297314136, 24.056225380321504], [120.53034837341201, 24.056205359067086], [120.53030958551032, 24.056036527423984], [120.53027343246833, 24.055879164755698], [120.53026521167733, 24.055843376242542], [120.53006192102808, 24.054958497578767], [120.52862730714008, 24.048629994392876], [120.52862730714008, 24.048629994392876], [120.52861779590626, 24.048580834797207], [120.52856880850163, 24.04833362472931], [120.52856872934164, 24.048333223583942], [120.52856858934678, 24.04833251886624], [120.5285374781305, 24.04817551793445], [120.52847321192773, 24.04777370777617], [120.52843555487927, 24.047366542079047], [120.52842594816893, 24.04686732218113], [120.52843776361969, 24.046471785974074], [120.52845599805771, 24.04626534072834], [120.52852018470672, 24.045756761582247], [120.52862409719941, 24.045273761033556], [120.52875994795419, 24.044774916504565], [120.52888634205492, 24.044419497852804], [120.52888811128278, 24.044414521820123], [120.52892663105041, 24.044336072600245], [120.52895350185399, 24.044281345482837], [120.52915724213813, 24.043782097152214], [120.5291648134471, 24.043764099713268], [120.52917231334928, 24.04374627090265], [120.5292399567952, 24.04358233483937], [120.52951039202436, 24.04293553515565], [120.5298348925065, 24.04217019419951], [120.53027379794732, 24.041142143033618], [120.53039589208423, 24.040858802531353], [120.53071041138887, 24.04013492936982], [120.53109954403658, 24.039214149301923], [120.53273476072437, 24.03537777409373], [120.53280947760798, 24.035201586878394], [120.53299827579175, 24.034756268791543], [120.53305555387858, 24.034612293689857], [120.53305848366088, 24.034604928363105], [120.53342649212667, 24.033679886394403], [120.53386130972281, 24.032690137485154], [120.53443207945557, 24.031369153623967], [120.53489595726948, 24.03029798805505], [120.53539187775014, 24.029115791174796], [120.53594726675772, 24.027809320163282], [120.53609029117173, 24.0274767672837], [120.5361918808452, 24.02724055564795], [120.53625954044314, 24.027087955019443], [120.5362765901045, 24.027049500975775], [120.53629228097914, 24.02701411098942], [120.53656580543155, 24.026397193085185], [120.53706407839044, 24.025369970381888], [120.53723462225547, 24.024945848105098], [120.53731639162254, 24.024742497429738], [120.537901527272, 24.02333358776959], [120.53790168889985, 24.023333198188976], [120.53790199231744, 24.0233324686294], [120.53791296812598, 24.023304915251313], [120.53793532387033, 24.023254727096816], [120.53812947099446, 24.022762181531824], [120.53817219252849, 24.02265820456069], [120.53818566912057, 24.02262540451559], [120.53820037238333, 24.022589618546956], [120.5382558553806, 24.02245458020431], [120.53853583383619, 24.02179796743146], [120.53867706993, 24.021466905201915], [120.53869129728639, 24.021433556573772], [120.53880042204284, 24.021177761052694], [120.53906771847184, 24.02054772750653], [120.5393349355528, 24.01992238934151], [120.53936155512577, 24.01986014602346], [120.539376679911, 24.0198247819565], [120.53939153805392, 24.019790036500304], [120.5395634492974, 24.01938805773192], [120.53971189868385, 24.01904085530611], [120.53982883519164, 24.01878146793477], [120.53997521432055, 24.018468966951794], [120.54013902468364, 24.018152473865833], [120.54026826742707, 24.01792327207496], [120.54042047665651, 24.01766247216445], [120.54057287566002, 24.017422784207394], [120.54072093077501, 24.017199000929697], [120.54092666200468, 24.01691355810377], [120.54109308045354, 24.01669188813908], [120.54126610948067, 24.016471719486603], [120.5415535758985, 24.016115991127755], [120.54209140163775, 24.01546583144111], [120.54285850703518, 24.014533814061092], [120.542974757905, 24.01438785972166], [120.5430932911838, 24.01424379110389], [120.54310420773622, 24.014230522485395], [120.54321182518342, 24.01409972148777], [120.54333035793152, 24.013955652673282], [120.54344889041751, 24.013811582857485], [120.54356742361792, 24.01366751384921], [120.54368595557322, 24.01352344383672], [120.54380448824615, 24.0133793737288], [120.54392301966763, 24.01323530442253], [120.54404155180673, 24.013091235020823], [120.54416008171462, 24.01294716551493], [120.54427861332626, 24.012803095013613], [120.54439714368966, 24.01265902441103], [120.5445156747675, 24.012514954615945], [120.54463420558322, 24.012370883819585], [120.54474147145442, 24.012240503208943], [120.54474965120623, 24.01223056178673], [120.5447527351475, 24.012226813824896], [120.54476057824544, 24.01221728855913], [120.5447942388831, 24.01217641143514], [120.54487133308723, 24.01208279088843], [120.5449903200397, 24.011939038987375], [120.54507692526137, 24.011835282200007], [120.54511007350283, 24.011795824704702], [120.54523083857242, 24.01165333025624], [120.54535263580642, 24.011511579176975], [120.54547545732426, 24.011370575955777], [120.54559822350043, 24.01123153906391], [120.54559930014743, 24.011230328707853], [120.54572409562162, 24.011090793886254], [120.5458495290166, 24.010951744821817], [120.54594271867434, 24.010848807929893], [120.54597523663337, 24.01081290413685], [120.54610096848937, 24.010674081473553], [120.54622670007149, 24.010535259603483], [120.54635243236899, 24.010396436723717], [120.5464781624299, 24.01025761372844], [120.54660389319673, 24.01011879243224], [120.54672962369922, 24.00997996922051], [120.54685535392778, 24.009841146802014], [120.54697527488428, 24.009708737827996], [120.54698108487176, 24.00970232337382], [120.54710675573843, 24.00956345631822], [120.54723211165688, 24.009424348042142], [120.54735684773178, 24.00928477100864], [120.54748065709288, 24.00914450038474], [120.54759763689974, 24.00900981854882], [120.54760322892288, 24.00900331584148], [120.54772430727493, 24.00886104687431], [120.54784383323884, 24.0087176752542], [120.54797383832452, 24.008558153789284], [120.54798824117174, 24.008540143822458], [120.54807818063466, 24.008427679912078], [120.5481385880549, 24.008350927676673], [120.5481716051224, 24.008308539059154], [120.54819298524475, 24.00828108955629], [120.54830635289797, 24.008133557624888], [120.54831375305706, 24.008123782553003], [120.5483371691177, 24.008092850075275], [120.54841858657888, 24.007985296301065], [120.54853000794682, 24.0078365178221], [120.54864093377114, 24.007687427186454], [120.54869905667029, 24.00760913209054], [120.54875168377858, 24.00753822669153], [120.5488624266643, 24.007389021575012], [120.54897316831004, 24.007239816368884], [120.54908390969868, 24.007090611076055], [120.54919465083024, 24.006941405696516], [120.5493053926876, 24.006792200233175], [120.54941613330816, 24.006642993777287], [120.54950262747863, 24.0065264565271], [120.54952687464822, 24.00649378904346], [120.54963773244486, 24.006344656800874], [120.54974907055819, 24.006195826561335], [120.54980852777965, 24.00611699497532], [120.54986127146609, 24.006047544143154], [120.54997453422394, 24.00589994556951], [120.550088866646, 24.005753044405107], [120.55020426182837, 24.005606846947853], [120.55032071581903, 24.005461358601448], [120.55033115796978, 24.00544841129572], [120.55043817366226, 24.00531655392003], [120.55055633332256, 24.00517223156352], [120.55065576098751, 24.005051289977573], [120.550674812375, 24.00502813036319], [120.55079332940716, 24.004884054459012], [120.55089958468463, 24.00475522296832], [120.55137533877777, 24.004176658390737], [120.55169860050972, 24.003783533525414], [120.55265681301405, 24.00261871050184], [120.55371340498694, 24.001331508620396], [120.55469169099472, 24.000147652294906], [120.55564575499571, 23.998986477737205], [120.55609713811886, 23.998435363900086], [120.5561183247051, 23.998409496413498], [120.55613954187783, 23.998383591991775], [120.5561806437749, 23.998333409088712], [120.55618095960891, 23.99833302354462], [120.55618159029099, 23.99833225335652], [120.55636465936021, 23.998108733948644], [120.55721766714235, 23.997069072195377], [120.55760649364736, 23.99659628633116], [120.5577405994884, 23.996435280733525], [120.55790285617984, 23.996224821776533], [120.55802770932071, 23.99606253505238], [120.55804339037569, 23.99603433808245], [120.55805550465253, 23.99601594940337], [120.5580583479801, 23.996011633416924], [120.55806011345878, 23.996008951354796], [120.55824304516327, 23.995729876668896], [120.558357879727, 23.995556553952767], [120.55846851903735, 23.9953740804056], [120.55859201159736, 23.995157549642833], [120.55868980356998, 23.994960710178855], [120.5588273820897, 23.994679892459], [120.55893829786964, 23.994412688302056], [120.55904297224313, 23.994154441333016], [120.55922386367857, 23.993682289127378], [120.55941131785178, 23.9931870682285], [120.55960682770369, 23.992675353592364], [120.55970183601383, 23.99242298355989], [120.5597208749214, 23.99237241032827], [120.55973065966234, 23.99234642017913], [120.5597468898816, 23.99230330529795], [120.5597843011482, 23.992203928474876], [120.55979025172194, 23.99218812061441], [120.5598194110716, 23.992111359529968], [120.55999225318787, 23.99165635254513], [120.56020352400446, 23.99110307649485], [120.56040199202299, 23.990587748322106], [120.56062090148869, 23.990019962019062], [120.56074046199839, 23.989709857476207], [120.56099800746304, 23.989045839572288], [120.56106627227095, 23.988862634021338], [120.56108197644767, 23.9888204890286], [120.5610986744011, 23.988775675977166], [120.56112212848524, 23.98871272952276], [120.56126866816419, 23.988333136849025], [120.56152588035337, 23.987658515487837], [120.56175268723042, 23.987070074679217], [120.56190831916584, 23.986650804903928], [120.56202921574983, 23.98633983300997], [120.56212115420901, 23.98608658557346], [120.56222813777138, 23.985809651696847], [120.56236073488584, 23.9854650963571], [120.56244162822075, 23.985252182285333], [120.56250915992611, 23.985074437565064], [120.56270761652704, 23.984552560333107], [120.56292074688177, 23.98399337982018], [120.56312337011057, 23.98346443474369], [120.56333780287522, 23.982904083414855], [120.56362308498784, 23.98215197586449], [120.56388025535476, 23.98147941915459], [120.56410656770278, 23.980882476050002], [120.56429298426819, 23.98039520893543], [120.56452734244144, 23.97978033833407], [120.56454535814206, 23.979732782719108], [120.56459563448334, 23.979600064615653], [120.56476733190945, 23.979146832992225], [120.5647802015621, 23.9791128592577], [120.56495352066571, 23.97865565813103], [120.56512517473793, 23.978208139722142], [120.56527917716843, 23.977805503317832], [120.56541791708422, 23.97743899900769], [120.56552803675393, 23.97716028250685], [120.56563471100178, 23.976877647317814], [120.56577533390737, 23.976516055443334], [120.5660313186036, 23.97585064233274], [120.56617137870239, 23.97547743567663], [120.56625943685776, 23.975224273573964], [120.56639727290292, 23.974860722776384], [120.56657845150288, 23.974397662573494], [120.5667141132315, 23.97404052612182], [120.56686121239262, 23.973665460455035], [120.56698745505531, 23.973333807086593], [120.56698760177319, 23.973333422846615], [120.5669994456024, 23.973302307420667], [120.56705758143984, 23.97315094667361], [120.56714043869206, 23.97293521525372], [120.56740857531996, 23.97222798220694], [120.56745301969988, 23.97211258937218], [120.56749006043505, 23.972016414679622], [120.5677192144969, 23.97142143523691], [120.56796602560706, 23.970772182174542], [120.56819695884879, 23.970153854941653], [120.56830488723406, 23.969880560185317], [120.56834096731829, 23.969789197040825], [120.56839632410578, 23.969649019857798], [120.56858247680834, 23.969145221829336], [120.56880476519282, 23.968571980281144], [120.56898696626764, 23.968103420598638], [120.5690581182818, 23.9679118015964], [120.56908413716745, 23.96784173031551], [120.5691801634873, 23.96758312030003], [120.56929620545765, 23.967254972836322], [120.56930859969307, 23.967219925513234], [120.56936212882323, 23.96703886829072], [120.56938672956896, 23.96695131196222], [120.56945179215612, 23.966681575462925], [120.56949207608506, 23.96646832536226], [120.56953817174012, 23.96619982501147], [120.56956616412845, 23.96595515766019], [120.56961225930004, 23.965565069441645], [120.56964111818279, 23.96534078123645], [120.56964508381151, 23.965299687601973], [120.56965608966148, 23.96501327007326], [120.5696570838471, 23.964867123123152], [120.5696592513686, 23.964548683143807], [120.56966137152914, 23.964237102690443], [120.56965893215127, 23.963777325349362], [120.5696497145117, 23.963414152215364], [120.56965038184511, 23.963298375775405], [120.56964810833755, 23.963171045131958], [120.5696493305669, 23.962802574764144], [120.56964740697336, 23.962551486543408], [120.56965519605198, 23.96167705119758], [120.56965304694049, 23.961176276291372], [120.56964847008558, 23.960474154906297], [120.56965424926874, 23.959537908883338], [120.56965403514798, 23.959469999889176], [120.56965124605735, 23.958585432062986], [120.56964203816621, 23.957565708917688], [120.56964812328918, 23.956558756426563], [120.56965602787218, 23.955450234715148], [120.56965637052551, 23.9544741204192], [120.56964795658502, 23.953314821548283], [120.56965018979491, 23.952175417160635], [120.56964530638459, 23.951231815546084], [120.56964825300886, 23.950437269783148], [120.56963498813853, 23.949457475139127], [120.56961925714118, 23.948333817799014], [120.56961195385162, 23.94748882066158], [120.56961034950119, 23.946683007432846], [120.56960976335698, 23.946647946168067], [120.56960265587514, 23.94622279265225], [120.56959821016558, 23.946123020808542], [120.56959412841057, 23.9460314081093], [120.56959870700335, 23.945337118794125], [120.56960775087764, 23.944663801136784], [120.56960764506479, 23.94465423592128], [120.5695975445988, 23.943737876946734], [120.56959939208645, 23.942685685756377], [120.56959841484768, 23.941494604153508], [120.56960113814307, 23.940178234301264], [120.56960113890042, 23.9387928497128], [120.56960113866577, 23.938552376644793], [120.5696005390322, 23.937989927826486], [120.56960022715332, 23.937697672504612], [120.56960027800353, 23.93745807811404], [120.56959750210927, 23.936706384169554], [120.56960127321533, 23.936102087688635], [120.5696190098594, 23.935454180860937], [120.56964214846508, 23.93518609623533], [120.56967855565411, 23.934829759377703], [120.56972806462073, 23.934480484121025], [120.56979344319379, 23.934103406335655], [120.56986759639898, 23.933772403433533], [120.5699420719094, 23.933468832050803], [120.57003230435748, 23.93315923960379], [120.57016858781171, 23.932737302834752], [120.57030557867299, 23.932332568158333], [120.57047039776982, 23.931838998664418], [120.57068846591213, 23.931191406444345], [120.57090641150856, 23.930550794191227], [120.57113358042821, 23.92987406314723], [120.57137116886823, 23.92917934510339], [120.57172506252854, 23.928131113865373], [120.57174079004791, 23.92808393001788], [120.57208892625702, 23.927039492849772], [120.57220448047767, 23.92672160072612], [120.57236226950138, 23.926243475734033], [120.57237452465591, 23.926207404494335], [120.572564221236, 23.92564906510548], [120.57280126991796, 23.924955382088843], [120.57297690308404, 23.92443890977047], [120.57302525924779, 23.924296707624237], [120.57317607799094, 23.923840030750775], [120.5731828603899, 23.9238194948348], [120.57319063097742, 23.923795966577842], [120.57320164690952, 23.923762612402278], [120.57321203281751, 23.923731165312283], [120.57322002266112, 23.92370697309119], [120.57322911478879, 23.92367944301566], [120.57324142348895, 23.923642171817644], [120.57324942820678, 23.92361793358545], [120.57325587027032, 23.923598428792168], [120.5732559783916, 23.923598108545157], [120.57334518260176, 23.923333781031268], [120.57334531255209, 23.923333394026468], [120.573352827477, 23.9233111255676], [120.57361229787405, 23.922549793714353], [120.57383965274803, 23.92187528483944], [120.57408540666867, 23.921143657133197], [120.57434248253884, 23.920389456729247], [120.57456426934777, 23.919731372914082], [120.57476865828772, 23.919126674475763], [120.57493071164579, 23.91862968177782], [120.57503005180703, 23.91830011669561], [120.57508427161928, 23.91810945503987], [120.57510283439942, 23.91804418057495], [120.57519113164145, 23.917709707091674], [120.57531967698603, 23.917188214497713], [120.57556528802104, 23.916182542302177], [120.57583201190369, 23.915083600573396], [120.57607362903158, 23.914102276904053], [120.57628746836357, 23.913230956745323], [120.57651584054021, 23.912286027853444], [120.57661296717059, 23.911888139774934], [120.57661911674762, 23.91186280273244], [120.57663654993374, 23.91179099385192], [120.57685446270996, 23.910900887029253], [120.57706720560992, 23.910031461196624], [120.57718389210588, 23.909576422595833], [120.5772974400986, 23.90911039263915], [120.5774579117936, 23.90844337249751], [120.57758109604052, 23.907946127480393], [120.57782312373635, 23.906954563311967], [120.57802361388065, 23.90615042601355], [120.57820171759359, 23.905417947551204], [120.57832802359238, 23.904903592065608], [120.57843560956282, 23.90445689391745], [120.57855461872776, 23.903971195934222], [120.57865727687661, 23.903546871864293], [120.57866663006867, 23.9035076777391], [120.57868565804208, 23.903427938647006], [120.57869949563998, 23.903369952813907], [120.57877962957775, 23.90303416012461], [120.57898169512455, 23.902212841253558], [120.57899782370177, 23.902147286781343], [120.57915200924383, 23.90150829800507], [120.5791610904695, 23.901471411942644], [120.57917200682836, 23.901427076120974], [120.57918811017679, 23.901361668732257], [120.57928243596892, 23.900978549189897], [120.57944126264768, 23.900343018359226], [120.56965403514798, 23.959469999889176]]}}]}