{
  "type": "FeatureCollection",
  "features": [
    {
      "type": "Feature",
      "properties": {
        "track_id": "OD-KL-QD",
        "source_track": "BB-KL-ZY-M-1",
        "point_count": 315
      },
      "geometry": {
        "type": "LineString",
        "coordinates": [
          [
            121.738453,
            25.131857
          ],
          [
            121.7378569691467,
            25.130914641806783
          ],
          [
            121.73762246705192,
            25.130354946754572
          ],
          [
            121.73750801799332,
            25.129775421909503
          ],
          [
            121.73749770763484,
            25.12920286511509
          ],
          [
            121.73753090959507,
            25.128901152518342
          ],
          [
            121.73760957186784,
            25.128630308201984
          ],
          [
            121.73778712062219,
            25.128131910832764
          ],
          [
            121.73813157082725,
            25.127647754655168
          ],
          [
            121.7384053907949,
            25.127359125237717
          ],
          [
            121.73870179612125,
            25.127104575857416
          ],
          [
            121.73902047540571,
            25.12691044542382
          ],
          [
            121.73933915469016,
            25.126716314990226
          ],
          [
            121.73997651325908,
            25.126328054123036
          ],
          [
            121.74058791663869,
            25.12592804374936
          ],
          [
            121.7410565664741,
            25.125481034929425
          ],
          [
            121.74148845933503,
            25.12489445489178
          ],
          [
            121.7417800003335,
            25.124251398237753
          ],
          [
            121.7419311894693,
            25.123643639473094
          ],
          [
            121.74202698099927,
            25.123024717667015
          ],
          [
            121.74272783534987,
            25.117005180229448
          ],
          [
            121.74267834205182,
            25.116439805007246
          ],
          [
            121.7425602773298,
            25.115961352682046
          ],
          [
            121.74235306975766,
            25.115464273956896
          ],
          [
            121.74211843361428,
            25.115041701178797
          ],
          [
            121.74174302817187,
            25.114594621020792
          ],
          [
            121.74131492535827,
            25.1141952562562
          ],
          [
            121.74066944588776,
            25.11381378483631
          ],
          [
            121.74006348944471,
            25.113468100197316
          ],
          [
            121.73440289732983,
            25.111032328008193
          ],
          [
            121.73141688382863,
            25.109742115724288
          ],
          [
            121.72873141287782,
            25.10856604879511
          ],
          [
            121.42461965633458,
            24.99164545931918
          ],
          [
            121.4252548505956,
            24.99287475298636
          ],
          [
            121.42568179380106,
            24.993659620106065
          ],
          [
            121.42576770956525,
            24.99382908692663
          ],
          [
            121.42587648070187,
            24.994033481687854
          ],
          [
            121.42604162881754,
            24.994361500973998
          ],
          [
            121.42621753354693,
            24.994697416023502
          ],
          [
            121.42640322021683,
            24.99506304178528
          ],
          [
            121.42655847777456,
            24.995366116695273
          ],
          [
            121.42667003375087,
            24.995593019218116
          ],
          [
            121.42685836323672,
            24.995945753483422
          ],
          [
            121.42703308879206,
            24.99628886632936
          ],
          [
            121.4271965973303,
            24.996610785797667
          ],
          [
            121.42735833942848,
            24.99692296868413
          ],
          [
            121.42763183464643,
            24.99745479382438
          ],
          [
            121.42780016192192,
            24.997794177334434
          ],
          [
            121.4280598597346,
            24.99833130471417
          ],
          [
            121.42806087685607,
            24.998333224798767
          ],
          [
            121.42806108633059,
            24.998333639494238
          ],
          [
            121.4285077831862,
            24.99918201743616
          ],
          [
            121.42873936067244,
            24.99963881914167
          ],
          [
            121.42891549312199,
            24.99995609570909
          ],
          [
            121.42905840555025,
            25.000181018904133
          ],
          [
            121.4292240685246,
            25.000412846092924
          ],
          [
            121.42942580294138,
            25.00067897549795
          ],
          [
            121.42998971860754,
            25.00132330645838
          ],
          [
            121.43080388856943,
            25.002246415123107
          ],
          [
            121.43124987953739,
            25.00276385691516
          ],
          [
            121.43148204042427,
            25.003022600350594
          ],
          [
            121.43173098601666,
            25.00328456290204
          ],
          [
            121.43195422979599,
            25.003494335334203
          ],
          [
            121.43220400582112,
            25.00371559546595
          ],
          [
            121.43243056389787,
            25.003886825117274
          ],
          [
            121.43262058093146,
            25.00401997136272
          ],
          [
            121.4327730041089,
            25.004120011954964
          ],
          [
            121.4330555011835,
            25.004272127648562
          ],
          [
            121.43305894544145,
            25.004273986460436
          ],
          [
            121.43306350136517,
            25.00427643789755
          ],
          [
            121.4332289407993,
            25.00436453190533
          ],
          [
            121.43347231494249,
            25.004479636735415
          ],
          [
            121.43357951181922,
            25.004525530677746
          ],
          [
            121.43370684995276,
            25.004568639295353
          ],
          [
            121.43383642597348,
            25.004611407231735
          ],
          [
            121.43384814969902,
            25.004615273223227
          ],
          [
            121.43421942154407,
            25.004737795054545
          ],
          [
            121.4346735713423,
            25.004833440558418
          ],
          [
            121.43520691224624,
            25.004907465154222
          ],
          [
            121.43554993440334,
            25.004943783708093
          ],
          [
            121.43570701568927,
            25.004950654556758
          ],
          [
            121.43570701568927,
            25.004950654556758
          ],
          [
            121.43593268049054,
            25.004984670689648
          ],
          [
            121.43616363188507,
            25.0049811046057
          ],
          [
            121.43686183159723,
            25.0049412093383
          ],
          [
            121.43751911036475,
            25.00490851831381
          ],
          [
            121.43825376083575,
            25.00486683005073
          ],
          [
            121.43891981896627,
            25.004829276886106
          ],
          [
            121.43945724440486,
            25.004794836390627
          ],
          [
            121.43983888176513,
            25.0047578663782
          ],
          [
            121.44012219088184,
            25.00472635050466
          ],
          [
            121.44032241879377,
            25.004705832654086
          ],
          [
            121.44071227290777,
            25.004653424936873
          ],
          [
            121.44140997810939,
            25.004553779221546
          ],
          [
            121.44189052366715,
            25.00448014480019
          ],
          [
            121.44215753934364,
            25.004438913977378
          ],
          [
            121.44252139995316,
            25.00439598618794
          ],
          [
            121.44298015438324,
            25.004351556125354
          ],
          [
            121.44352810776255,
            25.004311643648652
          ],
          [
            121.44383802044142,
            25.00429261767224
          ],
          [
            121.44411914957581,
            25.004275365269642
          ],
          [
            121.44434825339863,
            25.004262664497325
          ],
          [
            121.44498007651929,
            25.004227642183558
          ],
          [
            121.44621572000798,
            25.004159136091378
          ],
          [
            121.44675741477622,
            25.0041314727512
          ],
          [
            121.44734709549095,
            25.00407826680546
          ],
          [
            121.44734709549095,
            25.00407826680546
          ],
          [
            121.44825122564481,
            25.00402826421748
          ],
          [
            121.44978400846041,
            25.003941525721665
          ],
          [
            121.45083303789689,
            25.00388388278979
          ],
          [
            121.45179998035411,
            25.00382986739702
          ],
          [
            121.45267742034369,
            25.00378614846213
          ],
          [
            121.45269764689435,
            25.003785193113888
          ],
          [
            121.45273938811911,
            25.003783341685885
          ],
          [
            121.45278115955941,
            25.003781625577144
          ],
          [
            121.45282293159406,
            25.00378007196239
          ],
          [
            121.45286473404309,
            25.003778707835423
          ],
          [
            121.45290655699988,
            25.003777533226376
          ],
          [
            121.45294839069015,
            25.00377658427779
          ],
          [
            121.45299025499406,
            25.003775878985497
          ],
          [
            121.45303212025749,
            25.003775435496156
          ],
          [
            121.45307400632757,
            25.003775262777527
          ],
          [
            121.45311590346326,
            25.003775406000223
          ],
          [
            121.45315782153861,
            25.00377585610599
          ],
          [
            121.453199730999,
            25.003776658325798
          ],
          [
            121.45324208762692,
            25.003777829327216
          ],
          [
            121.45360980299195,
            25.003804280516036
          ],
          [
            121.45397401959997,
            25.00385991156908
          ],
          [
            121.4543315459304,
            25.00394425376262
          ],
          [
            121.45467963565335,
            25.004056674534535
          ],
          [
            121.45501565052204,
            25.004196306283273
          ],
          [
            121.45533703084365,
            25.00436210062442
          ],
          [
            121.45564133496747,
            25.00455279215385
          ],
          [
            121.4559261598236,
            25.004766844518475
          ],
          [
            121.45612798633144,
            25.004943909576923
          ],
          [
            121.45615729482878,
            25.004971653610944
          ],
          [
            121.45618607833704,
            25.004999417305466
          ],
          [
            121.45621459523721,
            25.00502741654488
          ],
          [
            121.4562428354889,
            25.00505561524739
          ],
          [
            121.45627082884633,
            25.005084022350044
          ],
          [
            121.45629857514272,
            25.00511259271255
          ],
          [
            121.45632610413227,
            25.005141335271944
          ],
          [
            121.45635342565525,
            25.005170231941765
          ],
          [
            121.45638054951849,
            25.005199255607497
          ],
          [
            121.45640750544288,
            25.005228406178006
          ],
          [
            121.4564342933617,
            25.005257665597227
          ],
          [
            121.45646094292907,
            25.005287015717858
          ],
          [
            121.45648746405196,
            25.00531645650956
          ],
          [
            121.45651386653726,
            25.005345960857756
          ],
          [
            121.45654018994614,
            25.00537551058467
          ],
          [
            121.45656642440494,
            25.005405114748847
          ],
          [
            121.45659260944149,
            25.005434746144445
          ],
          [
            121.45661874498902,
            25.00546438671528
          ],
          [
            121.45805546119317,
            25.00709584075181
          ],
          [
            121.46001683007891,
            25.00932295384669
          ],
          [
            121.46004782292682,
            25.0093581852584
          ],
          [
            121.46007878613781,
            25.00939343481134
          ],
          [
            121.4600943076651,
            25.0094111362013
          ],
          [
            121.46048308890514,
            25.00986125176626
          ],
          [
            121.46051348956756,
            25.009897017571713
          ],
          [
            121.46055894670205,
            25.00995060351579
          ],
          [
            121.46289046502984,
            25.012703152606115
          ],
          [
            121.46291895671781,
            25.01273675707034
          ],
          [
            121.46294748791625,
            25.012770325293065
          ],
          [
            121.46297606849888,
            25.012803848215356
          ],
          [
            121.46300471821321,
            25.01283730771936
          ],
          [
            121.46303344693295,
            25.01287069474609
          ],
          [
            121.46306228431317,
            25.012903991146818
          ],
          [
            121.46309124019372,
            25.012937178834505
          ],
          [
            121.4631203443313,
            25.01297026674455
          ],
          [
            121.4631495965566,
            25.01300320973655
          ],
          [
            121.46317903653392,
            25.01303601671503
          ],
          [
            121.46320866419553,
            25.013068669623745
          ],
          [
            121.46323849925511,
            25.013101141316632
          ],
          [
            121.46326856152784,
            25.013133431731866
          ],
          [
            121.46329886081979,
            25.013165513754196
          ],
          [
            121.46332942685378,
            25.013197387290894
          ],
          [
            121.46336026940195,
            25.013229016198647
          ],
          [
            121.46339267139166,
            25.013261687508535
          ],
          [
            121.46372728623354,
            25.013567990569907
          ],
          [
            121.46376124714264,
            25.013596242156897
          ],
          [
            121.46379580262757,
            25.01362451896594
          ],
          [
            121.46383060497156,
            25.013652569292283
          ],
          [
            121.46386562445163,
            25.0136803932285
          ],
          [
            121.46390085126183,
            25.01370801788955
          ],
          [
            121.46393628543608,
            25.01373545230334
          ],
          [
            121.4639718775039,
            25.01376271468045
          ],
          [
            121.46400764734841,
            25.013789823015067
          ],
          [
            121.46404354546526,
            25.013816786489716
          ],
          [
            121.46407958182994,
            25.013843623129528
          ],
          [
            121.46411572675332,
            25.013870342055263
          ],
          [
            121.46415197046352,
            25.013896979410006
          ],
          [
            121.4641883030528,
            25.013923535224624
          ],
          [
            121.46422470477373,
            25.013950027617074
          ],
          [
            121.46426114597115,
            25.013976474736207
          ],
          [
            121.46429763662066,
            25.01400289460721
          ],
          [
            121.46476974003865,
            25.01434434591897
          ],
          [
            121.46481340360401,
            25.01437588027052
          ],
          [
            121.46485708683707,
            25.014407369406527
          ],
          [
            121.4649008094852,
            25.014438795208864
          ],
          [
            121.46494460116949,
            25.014470130500374
          ],
          [
            121.46498847176362,
            25.01450136622197
          ],
          [
            121.4650324310392,
            25.014532466230293
          ],
          [
            121.46507637961297,
            25.014563349582573
          ],
          [
            121.46540772238494,
            25.014788098449742
          ],
          [
            121.4654527855436,
            25.014817605916935
          ],
          [
            121.46549809621294,
            25.01484705842623
          ],
          [
            121.46554352532007,
            25.01487638415616
          ],
          [
            121.46558903337016,
            25.014905619342958
          ],
          [
            121.46563461048947,
            25.014934773045617
          ],
          [
            121.46568024687234,
            25.014963872379326
          ],
          [
            121.46572593267913,
            25.01499293543121
          ],
          [
            121.46829954081261,
            25.016628195816747
          ],
          [
            121.46836048340674,
            25.016666978463448
          ],
          [
            121.4684213866472,
            25.016705824405673
          ],
          [
            121.46848223088955,
            25.016744778846224
          ],
          [
            121.46854297660515,
            25.016783868994207
          ],
          [
            121.46860361402331,
            25.016823130993206
          ],
          [
            121.46866410361535,
            25.016862592052448
          ],
          [
            121.46872447534517,
            25.016902315274816
          ],
          [
            121.468924781851,
            25.017036934657423
          ],
          [
            121.46898426622116,
            25.01707776200624
          ],
          [
            121.46904350361861,
            25.017118770673026
          ],
          [
            121.46910257330676,
            25.01715996040797
          ],
          [
            121.46916150490648,
            25.0172013040333
          ],
          [
            121.4692203081886,
            25.01724276540568
          ],
          [
            121.46927903255548,
            25.017284308256695
          ],
          [
            121.46933768784645,
            25.01732591449904
          ],
          [
            121.47171663653185,
            25.01901550923897
          ],
          [
            121.47176548756143,
            25.01905017586008
          ],
          [
            121.47178991795427,
            25.01906748657856
          ],
          [
            121.47181435826195,
            25.019084797261428
          ],
          [
            121.47183880838104,
            25.019102080824553
          ],
          [
            121.47186322864466,
            25.019119328365633
          ],
          [
            121.4722022308235,
            25.019355891339462
          ],
          [
            121.47222685825604,
            25.01937287634442
          ],
          [
            121.47225155512106,
            25.019389879180984
          ],
          [
            121.47230096854948,
            25.019423848666218
          ],
          [
            121.47237516780032,
            25.019474748442104
          ],
          [
            121.47273566383761,
            25.019721904130762
          ],
          [
            121.4727851468532,
            25.019755864201088
          ],
          [
            121.47283460027526,
            25.019789851433057
          ],
          [
            121.47285931719207,
            25.019806872158323
          ],
          [
            121.4728840540703,
            25.019823928928524
          ],
          [
            121.47318923106945,
            25.020036645460902
          ],
          [
            121.47321378071862,
            25.02005394653084
          ],
          [
            121.47323827082192,
            25.020071220701674
          ],
          [
            121.47328722153227,
            25.02010582329373
          ],
          [
            121.47338502416115,
            25.020175082911585
          ],
          [
            121.47492448882316,
            25.021265947712983
          ],
          [
            121.47497337136164,
            25.021300613148266
          ],
          [
            121.47502222430695,
            25.021335305746007
          ],
          [
            121.47504667569949,
            25.02135268807168
          ],
          [
            121.47543105149651,
            25.02162804594206
          ],
          [
            121.47547962876295,
            25.021663127477265
          ],
          [
            121.47555240063775,
            25.021715763592407
          ],
          [
            121.47778646772883,
            25.023333695057392
          ],
          [
            121.48006440381566,
            25.024983310583075
          ],
          [
            121.4801072704274,
            25.02501432827905
          ],
          [
            121.48015016661057,
            25.025045300726035
          ],
          [
            121.48019309236517,
            25.025076227923993
          ],
          [
            121.48023606740284,
            25.025107082724794
          ],
          [
            121.4802791115055,
            25.02513785603633
          ],
          [
            121.4803222245677,
            25.02516852077444
          ],
          [
            121.48036543627985,
            25.025199067814967
          ],
          [
            121.48040874657167,
            25.025229479101768
          ],
          [
            121.48045216528128,
            25.025259736546655
          ],
          [
            121.48049572206395,
            25.025289821997426
          ],
          [
            121.48053941688448,
            25.025319726425888
          ],
          [
            121.48058326948959,
            25.025349431711806
          ],
          [
            121.48062728968219,
            25.025378910738905
          ],
          [
            121.48067147742704,
            25.025408154479024
          ],
          [
            121.48071587232307,
            25.025437153775787
          ],
          [
            121.48076045441236,
            25.02546587258098
          ],
          [
            121.48080525338526,
            25.02549430177029
          ],
          [
            121.48085026913603,
            25.025522414259406
          ],
          [
            121.48090327861988,
            25.025554942721897
          ],
          [
            121.4814269903805,
            25.02584380033193
          ],
          [
            121.48197594317156,
            25.026089789841045
          ],
          [
            121.48254633502492,
            25.026291253114277
          ],
          [
            121.4830554886944,
            25.026425933395313
          ],
          [
            121.48313426570239,
            25.02644676711627
          ],
          [
            121.48318690642236,
            25.026458251345876
          ],
          [
            121.4832400911374,
            25.026469481000206
          ],
          [
            121.48329337360467,
            25.02648036724812
          ],
          [
            121.48334673414787,
            25.026490946266076
          ],
          [
            121.48340018267527,
            25.02650121802177
          ],
          [
            121.48345369947529,
            25.026511209663663
          ],
          [
            121.48350728465374,
            25.026520948275763
          ],
          [
            121.48356093824565,
            25.026530442886006
          ],
          [
            121.48361464053956,
            25.02653972064292
          ],
          [
            121.4836683915706,
            25.026548790574463
          ],
          [
            121.48372219144467,
            25.026557679764675
          ],
          [
            121.4837760402677,
            25.026566415297573
          ],
          [
            121.48382991825764,
            25.02657500626565
          ],
          [
            121.48388382552046,
            25.02658347975297
          ],
          [
            121.48393776212683,
            25.026591853815543
          ],
          [
            121.48399172814747,
            25.026600146509384
          ],
          [
            121.48404571374445,
            25.026608375922798
          ],
          [
            121.48409970911527,
            25.026616569172127
          ],
          [
            121.48738661211866,
            25.027113724294725
          ],
          [
            121.48743737568032,
            25.027121421346678
          ],
          [
            121.48748813935501,
            25.02712914546526
          ],
          [
            121.48751917275199,
            25.027133900824232
          ],
          [
            121.48751917274487,
            25.02713389901863
          ],
          [
            121.48798309931179,
            25.027207696666434
          ],
          [
            121.4885668116858,
            25.027323632550416
          ],
          [
            121.48889662137987,
            25.027409678699982
          ],
          [
            121.48926402109747,
            25.027537048560855
          ],
          [
            121.48966060321334,
            25.027689401533046
          ],
          [
            121.4900878562377,
            25.027899630994472
          ],
          [
            121.49040493286363,
            25.028077242972863
          ],
          [
            121.4906359234436,
            25.028222871890172
          ],
          [
            121.4910290958713,
            25.028505716926162
          ],
          [
            121.49147507737189,
            25.02887152545668
          ]
        ]
      }
    }
  ]
}