{
  "type": "FeatureCollection",
  "features": [
    {
      "type": "Feature",
      "properties": {
        "track_id": "OD-QD-北湖",
        "source_track": "BB-KL-ZY-M-1",
        "point_count": 171
      },
      "geometry": {
        "type": "LineString",
        "coordinates": [
          [
            121.49552369722673,
            25.032468206562573
          ],
          [
            121.49568342714723,
            25.032592225922535
          ],
          [
            121.49592868963039,
            25.032752099297415
          ],
          [
            121.49612020483197,
            25.032855301589105
          ],
          [
            121.49632276114124,
            25.032946648942506
          ],
          [
            121.49652301976816,
            25.033021004637824
          ],
          [
            121.49681012257345,
            25.033102471934317
          ],
          [
            121.49702145842467,
            25.03314413429636
          ],
          [
            121.49727670030772,
            25.03317590810766
          ],
          [
            121.4980546116304,
            25.03322789621967
          ],
          [
            121.49909796026473,
            25.0332652275098
          ],
          [
            121.49995903683089,
            25.033301128012347
          ],
          [
            121.5007776374432,
            25.033362625045434
          ],
          [
            121.50298597855698,
            25.033556413185536
          ],
          [
            121.50331965650223,
            25.033593902159108
          ],
          [
            121.50374430010143,
            25.033647119618717
          ],
          [
            121.50393348010277,
            25.033681326784762
          ],
          [
            121.50416833646575,
            25.033740792907032
          ],
          [
            121.50441312764973,
            25.033823400107888
          ],
          [
            121.50456842328813,
            25.03388793856436
          ],
          [
            121.50472456266488,
            25.033962478044742
          ],
          [
            121.50494216398482,
            25.034086390045697
          ],
          [
            121.50514277150519,
            25.03422248424195
          ],
          [
            121.50532219646291,
            25.034366631040285
          ],
          [
            121.50550247602334,
            25.034537859048108
          ],
          [
            121.50561231196043,
            25.034658778104642
          ],
          [
            121.50571506766626,
            25.034785698683027
          ],
          [
            121.50581186610982,
            25.03492182014999
          ],
          [
            121.5058945072744,
            25.03505386389615
          ],
          [
            121.5060043370201,
            25.03526244563645
          ],
          [
            121.50606172032144,
            25.035392300194022
          ],
          [
            121.50613623088418,
            25.035602717432283
          ],
          [
            121.50647242820071,
            25.036818372648792
          ],
          [
            121.50805547617676,
            25.042334548940197
          ],
          [
            121.50881942476927,
            25.04499635891467
          ],
          [
            121.50895863980479,
            25.04553316220074
          ],
          [
            121.50912761222828,
            25.046292045679657
          ],
          [
            121.50920514789,
            25.046557458747614
          ],
          [
            121.50929148107062,
            25.04677674504939
          ],
          [
            121.50936096273944,
            25.046920667460636
          ],
          [
            121.50943936732567,
            25.047060613958507
          ],
          [
            121.50961808904232,
            25.047323738699973
          ],
          [
            121.50971928587707,
            25.047448746602257
          ],
          [
            121.50988520851712,
            25.047626591297654
          ],
          [
            121.51013130205436,
            25.04784389225048
          ],
          [
            121.51029619265611,
            25.047966071882623
          ],
          [
            121.5104342389979,
            25.048055445195818
          ],
          [
            121.51062165368161,
            25.048162534245122
          ],
          [
            121.5107677929946,
            25.04823411213613
          ],
          [
            121.510963331525,
            25.048316489105634
          ],
          [
            121.51101133743238,
            25.048333568533867
          ],
          [
            121.51112511132506,
            25.04837404638232
          ],
          [
            121.51145247476045,
            25.048462342900205
          ],
          [
            121.51178631917318,
            25.048516987625145
          ],
          [
            121.51209382313567,
            25.048538814106855
          ],
          [
            121.5123849099292,
            25.04853286297485
          ],
          [
            121.51267511858644,
            25.048504028094406
          ],
          [
            121.51366724413718,
            25.048333712034182
          ],
          [
            121.51366724413718,
            25.048333712034182
          ],
          [
            121.5272162178154,
            25.0454691065286
          ],
          [
            121.53163036130755,
            25.045379991522548
          ],
          [
            121.53630234317556,
            25.04452715190262
          ],
          [
            121.54154112843167,
            25.04429786105115
          ],
          [
            121.54610629977573,
            25.04479688441678
          ],
          [
            121.54739481763065,
            25.04476446683333
          ],
          [
            121.54879498692463,
            25.044630895572958
          ],
          [
            121.55343757425737,
            25.04395913740518
          ],
          [
            121.5567793788367,
            25.04459292450565
          ],
          [
            121.56000629084808,
            25.04578185806164
          ],
          [
            121.56273037502638,
            25.04696615689626
          ],
          [
            121.5653012691119,
            25.047907583259907
          ],
          [
            121.56772606746853,
            25.048560447622418
          ],
          [
            121.57011256830351,
            25.04900513833691
          ],
          [
            121.57449054034302,
            25.049224307777298
          ],
          [
            121.57906,
            25.04927
          ],
          [
            121.57906,
            25.04927
          ],
          [
            121.580804476621,
            25.049342241732163
          ],
          [
            121.58152332036686,
            25.04938549665669
          ],
          [
            121.5823600866245,
            25.049481999856003
          ],
          [
            121.58305549131482,
            25.04958833766432
          ],
          [
            121.58596995299314,
            25.05003396613131
          ],
          [
            121.58772570771505,
            25.050247929865602
          ],
          [
            121.58837509625539,
            25.050340991006138
          ],
          [
            121.59235785781463,
            25.050963703039077
          ],
          [
            121.59586565002508,
            25.051500879568035
          ],
          [
            121.59633037738116,
            25.051564881065556
          ],
          [
            121.59704225814744,
            25.051674624941366
          ],
          [
            121.59849170920299,
            25.05190663447853
          ],
          [
            121.59970675007864,
            25.052124321790487
          ],
          [
            121.60054608025722,
            25.052256954572663
          ],
          [
            121.60096511937367,
            25.052311834587087
          ],
          [
            121.60172136930323,
            25.05237989453265
          ],
          [
            121.60282214310845,
            25.05250474360782
          ],
          [
            121.6042552476512,
            25.05270469637659
          ],
          [
            121.60805548003184,
            25.053289272716604
          ],
          [
            121.60805548003184,
            25.053289272716604
          ],
          [
            121.61717953512488,
            25.05451786459121
          ],
          [
            121.62312100319849,
            25.05447244005732
          ],
          [
            121.6263692339686,
            25.053454109890374
          ],
          [
            121.62947126060735,
            25.053425365838283
          ],
          [
            121.63213618328423,
            25.054242879491
          ],
          [
            121.63404914052828,
            25.05479545528868
          ],
          [
            121.63600720896133,
            25.055497105581075
          ],
          [
            121.63732531503743,
            25.056580465861686
          ],
          [
            121.63843728453205,
            25.057929785488692
          ],
          [
            121.64011005431234,
            25.05967835077474
          ],
          [
            121.64136034869172,
            25.0603637538885
          ],
          [
            121.64289374543117,
            25.06104248902193
          ],
          [
            121.64662405227367,
            25.06249207315618
          ],
          [
            121.64763760748471,
            25.062633240518117
          ],
          [
            121.64877314533626,
            25.06286011839194
          ],
          [
            121.64987514886562,
            25.06297980681928
          ],
          [
            121.65172795920276,
            25.063627044134353
          ],
          [
            121.65606743697825,
            25.065257956527866
          ],
          [
            121.65841846283452,
            25.06613576180477
          ],
          [
            121.65935600424893,
            25.066573585145207
          ],
          [
            121.66015932254123,
            25.067102843424735
          ],
          [
            121.66062510167527,
            25.067453552652363
          ],
          [
            121.66142388402669,
            25.068092574631386
          ],
          [
            121.66279767762771,
            25.06931287524445
          ],
          [
            121.66473677845028,
            25.070990857392918
          ],
          [
            121.66528381009496,
            25.071917374000726
          ],
          [
            121.66542110959583,
            25.07237393998045
          ],
          [
            121.665476859538,
            25.07295123327551
          ],
          [
            121.66562364260042,
            25.075000754062387
          ],
          [
            121.66583196190626,
            25.075825651000162
          ],
          [
            121.66629293709028,
            25.076633190175478
          ],
          [
            121.66686421607582,
            25.077286688352014
          ],
          [
            121.66756531974526,
            25.07803139630805
          ],
          [
            121.66758,
            25.07799
          ],
          [
            121.67419876739078,
            25.082003567156104
          ],
          [
            121.6751149704896,
            25.08230511849854
          ],
          [
            121.6762413450271,
            25.082386244047427
          ],
          [
            121.67734751499691,
            25.082378574536826
          ],
          [
            121.67885990696902,
            25.08220001560727
          ],
          [
            121.68012754179037,
            25.081703322202543
          ],
          [
            121.6809501103739,
            25.081358115773998
          ],
          [
            121.6817682205851,
            25.08118281166204
          ],
          [
            121.68807567613473,
            25.079029350987604
          ],
          [
            121.69004983744796,
            25.07819336777839
          ],
          [
            121.69105144959221,
            25.077873550993267
          ],
          [
            121.69193872350397,
            25.077687242735998
          ],
          [
            121.6931392308338,
            25.077720998965894
          ],
          [
            121.69445477230485,
            25.078102870816586
          ],
          [
            121.69596955352876,
            25.078637468455316
          ],
          [
            121.69845778607649,
            25.07919254790731
          ],
          [
            121.70002138737783,
            25.079471436016927
          ],
          [
            121.70181826719384,
            25.080234177077763
          ],
          [
            121.70315304674358,
            25.08161678094301
          ],
          [
            121.70439890487967,
            25.083121518872264
          ],
          [
            121.70511945457964,
            25.084033859430058
          ],
          [
            121.70552353708311,
            25.085194391107727
          ],
          [
            121.7057122762582,
            25.08649289909142
          ],
          [
            121.70606187852995,
            25.087825996938363
          ],
          [
            121.7066449838805,
            25.088564741757246
          ],
          [
            121.7074877756074,
            25.089320385892066
          ],
          [
            121.71130204619557,
            25.09133391884873
          ],
          [
            121.71471745731566,
            25.093439693644804
          ],
          [
            121.71912834906541,
            25.09685929505268
          ],
          [
            121.72008279235934,
            25.097686965400076
          ],
          [
            121.72122086499674,
            25.098410703115483
          ],
          [
            121.72379540795123,
            25.100253120581126
          ],
          [
            121.72418599769371,
            25.100596361466337
          ],
          [
            121.7246426476016,
            25.10115894854944
          ],
          [
            121.72515958641195,
            25.102822513387338
          ],
          [
            121.72608984077735,
            25.105902725110965
          ],
          [
            121.72649398361774,
            25.106742585174473
          ],
          [
            121.72675429371483,
            25.107067589992397
          ],
          [
            121.72710778569984,
            25.107413689236367
          ],
          [
            121.72786136061029,
            25.10801096328258
          ],
          [
            121.72873141287782,
            25.10856604879511
          ]
        ]
      }
    }
  ]
}