{
  "type": "FeatureCollection",
  "features": [
    {
      "type": "Feature",
      "properties": {
        "track_id": "OD-SH-SHL",
        "source_track": "BB-ZY-SL-1",
        "point_count": 1043
      },
      "geometry": {
        "type": "LineString",
        "coordinates": [
          [
            120.28990827860743,
            23.06839864293825
          ],
          [
            120.28973819285216,
            23.068265928764347
          ],
          [
            120.2884125829473,
            23.067187944453124
          ],
          [
            120.2879028224041,
            23.066726090084142
          ],
          [
            120.28760524599895,
            23.066505080924657
          ],
          [
            120.28686842972536,
            23.065857249920555
          ],
          [
            120.28582664479566,
            23.06501880054006
          ],
          [
            120.28468231329343,
            23.064094877558727
          ],
          [
            120.28413394365137,
            23.063631476664355
          ],
          [
            120.28345092130456,
            23.063078063906385
          ],
          [
            120.28305554349093,
            23.06274121453478
          ],
          [
            120.28304734019532,
            23.062734021815846
          ],
          [
            120.28262405601588,
            23.062385373307773
          ],
          [
            120.2821930566512,
            23.06203434442573
          ],
          [
            120.28152671642938,
            23.06148828396772
          ],
          [
            120.28123962455281,
            23.061271657908982
          ],
          [
            120.28058623795623,
            23.060737706868203
          ],
          [
            120.27908520688597,
            23.059516340924276
          ],
          [
            120.27838675290775,
            23.058943486625417
          ],
          [
            120.2778937658583,
            23.058539147214294
          ],
          [
            120.27677905682765,
            23.057612353664926
          ],
          [
            120.2755298374945,
            23.056618690781686
          ],
          [
            120.27472368452673,
            23.05595294219119
          ],
          [
            120.27411778522747,
            23.055475509544884
          ],
          [
            120.27171431116497,
            23.053493790117123
          ],
          [
            120.26974136412369,
            23.051901380316014
          ],
          [
            120.26689376616532,
            23.049571375358703
          ],
          [
            120.2666705108475,
            23.049389480393863
          ],
          [
            120.26540367489962,
            23.048357994914156
          ],
          [
            120.26537383643634,
            23.048333699706532
          ],
          [
            120.26537337789084,
            23.048333326436566
          ],
          [
            120.26537006315557,
            23.048330627272733
          ],
          [
            120.26518274807125,
            23.048178406898977
          ],
          [
            120.26502012985765,
            23.04804625505103
          ],
          [
            120.26409951425508,
            23.04728826734571
          ],
          [
            120.2634155340825,
            23.046727173302255
          ],
          [
            120.26326686208974,
            23.04661709477654
          ],
          [
            120.26269363332923,
            23.046141895611523
          ],
          [
            120.26230414723487,
            23.04582575555705
          ],
          [
            120.26174241512194,
            23.045383438528496
          ],
          [
            120.26072542730776,
            23.04455858212052
          ],
          [
            120.26064174999212,
            23.044490713071074
          ],
          [
            120.2604564868788,
            23.04434044826158
          ],
          [
            120.25957241818048,
            23.043620450315846
          ],
          [
            120.25871167992867,
            23.042918324657016
          ],
          [
            120.25825436177178,
            23.04254969965753
          ],
          [
            120.25805913516379,
            23.042386902096364
          ],
          [
            120.25805716923749,
            23.04238526383335
          ],
          [
            120.25805552772646,
            23.042383896190902
          ],
          [
            120.25790664870452,
            23.042259843937874
          ],
          [
            120.25761201641957,
            23.0420228418276
          ],
          [
            120.2571947298649,
            23.041685012177492
          ],
          [
            120.25699783614844,
            23.04152224163375
          ],
          [
            120.25697312421757,
            23.04150258337787
          ],
          [
            120.25613532039205,
            23.04086420089606
          ],
          [
            120.25499358174989,
            23.039959597835846
          ],
          [
            120.25463428669885,
            23.039678638484876
          ],
          [
            120.25375260559252,
            23.039031616329844
          ],
          [
            120.25328616547326,
            23.038641275488843
          ],
          [
            120.25317874462911,
            23.038529244863014
          ],
          [
            120.25279334363482,
            23.03812730504464
          ],
          [
            120.25192791658841,
            23.03744327556376
          ],
          [
            120.25140776637151,
            23.037043870933722
          ],
          [
            120.25080629059364,
            23.036540225488814
          ],
          [
            120.25020661868697,
            23.036072511942393
          ],
          [
            120.24966174912562,
            23.035616339302457
          ],
          [
            120.24917587958137,
            23.035197594924114
          ],
          [
            120.2488027372343,
            23.034896520863715
          ],
          [
            120.24856763282452,
            23.034692125616324
          ],
          [
            120.24829306396006,
            23.0344815365631
          ],
          [
            120.24743979273124,
            23.033830074804694
          ],
          [
            120.24686896434645,
            23.033455162623845
          ],
          [
            120.24644911440036,
            23.033191886788195
          ],
          [
            120.24622690888857,
            23.033058211447756
          ],
          [
            120.24563707702947,
            23.032689644694784
          ],
          [
            120.24467047269924,
            23.032122515917393
          ],
          [
            120.243501598943,
            23.031436482416364
          ],
          [
            120.24128792295922,
            23.03014939982316
          ],
          [
            120.24040012830012,
            23.02964070716017
          ],
          [
            120.24028815035474,
            23.029575449579657
          ],
          [
            120.24027898385994,
            23.029570107580003
          ],
          [
            120.23953964797057,
            23.029137866016885
          ],
          [
            120.23879437300059,
            23.02871331328403
          ],
          [
            120.23846923366324,
            23.028518594887956
          ],
          [
            120.23779999326582,
            23.028142721095094
          ],
          [
            120.23584202463171,
            23.02699425695305
          ],
          [
            120.23557704809677,
            23.026837904291643
          ],
          [
            120.23424935321216,
            23.026059591160646
          ],
          [
            120.23305553106876,
            23.025364018055303
          ],
          [
            120.23273764410864,
            23.02518225988692
          ],
          [
            120.23126139047426,
            23.024326139607357
          ],
          [
            120.23042770454903,
            23.023830955599735
          ],
          [
            120.22970182459879,
            23.023430557685636
          ],
          [
            120.2295360654177,
            23.023333538285357
          ],
          [
            120.22953548783157,
            23.02333320045533
          ],
          [
            120.22917547706363,
            23.023122484577804
          ],
          [
            120.22851483789785,
            23.022727558005748
          ],
          [
            120.22771330001358,
            23.022257069688553
          ],
          [
            120.22714113282805,
            23.021926667831714
          ],
          [
            120.22671145184367,
            23.02167871994828
          ],
          [
            120.22617688810335,
            23.021324642592095
          ],
          [
            120.2258238919827,
            23.021051675423323
          ],
          [
            120.22552210192157,
            23.02080649094606
          ],
          [
            120.22528189362856,
            23.020594396674205
          ],
          [
            120.22492287303888,
            23.020208107782274
          ],
          [
            120.22460562708027,
            23.01982479952271
          ],
          [
            120.22437567695954,
            23.019514147794297
          ],
          [
            120.22421175014566,
            23.019286179664704
          ],
          [
            120.22341631453749,
            23.018179991094886
          ],
          [
            120.2232580529919,
            23.017955690706053
          ],
          [
            120.22316964358866,
            23.017830390836554
          ],
          [
            120.22308807695688,
            23.01771478945936
          ],
          [
            120.22167199233046,
            23.015735410197074
          ],
          [
            120.22066748959995,
            23.01431946791795
          ],
          [
            120.21995580806266,
            23.01332351206152
          ],
          [
            120.21943839390327,
            23.01259777525412
          ],
          [
            120.21870623413213,
            23.011582597115716
          ],
          [
            120.21693111569778,
            23.009104270485864
          ],
          [
            120.21634542857899,
            23.00827196205617
          ],
          [
            120.21596077747054,
            23.007749524716697
          ],
          [
            120.21540769041009,
            23.00695709431525
          ],
          [
            120.2151993067706,
            23.006659040611957
          ],
          [
            120.21500842903332,
            23.00632791656914
          ],
          [
            120.21476245786393,
            23.00584282618695
          ],
          [
            120.21460870837073,
            23.005418536735903
          ],
          [
            120.21453960263088,
            23.005188771603276
          ],
          [
            120.2144400555559,
            23.004816313807964
          ],
          [
            120.21427963892214,
            23.003975689846545
          ],
          [
            120.21425241068826,
            23.003842301513437
          ],
          [
            120.21407619889598,
            23.002773063257926
          ],
          [
            120.21385369619286,
            23.00163830704245
          ],
          [
            120.21360594503952,
            23.000499826568515
          ],
          [
            120.21349894203556,
            22.99995085141048
          ],
          [
            120.21321961913699,
            22.998523247985027
          ],
          [
            120.21318215228469,
            22.99833359502476
          ],
          [
            120.21318205562123,
            22.998333106916863
          ],
          [
            120.21318170119906,
            22.998331315381918
          ],
          [
            120.21290140852487,
            22.99681892428775
          ],
          [
            120.21287066896556,
            22.99665306110254
          ],
          [
            120.21285586621373,
            22.996287822036926
          ],
          [
            120.21269778256467,
            22.995474422683188
          ],
          [
            120.21260555497979,
            22.99502518319843
          ],
          [
            120.21248949710464,
            22.994609938369706
          ],
          [
            120.21245305812212,
            22.994401479604534
          ],
          [
            120.21236358491383,
            22.993928628073935
          ],
          [
            120.21217018302009,
            22.993063811820228
          ],
          [
            120.21213089481718,
            22.99284745186176
          ],
          [
            120.21206858448933,
            22.992519050514208
          ],
          [
            120.21197018366793,
            22.99196913075531
          ],
          [
            120.21193647623002,
            22.99167375940705
          ],
          [
            120.21192967734896,
            22.991532843527825
          ],
          [
            120.21192018630279,
            22.99133615579348
          ],
          [
            120.21193231120051,
            22.99091106945085
          ],
          [
            120.21198284294762,
            22.99050157774177
          ],
          [
            120.21203118230527,
            22.990262951720876
          ],
          [
            120.21213371861303,
            22.989849729022588
          ],
          [
            120.21226275098246,
            22.989421152149387
          ],
          [
            120.212459592814,
            22.9887809510263
          ],
          [
            120.21251874235489,
            22.988593124351024
          ],
          [
            120.21305087402999,
            22.98690330673837
          ],
          [
            120.21306791154528,
            22.986849202289864
          ],
          [
            120.21308428133158,
            22.98679721931853
          ],
          [
            120.21331908382341,
            22.986051573185385
          ],
          [
            120.2135527280704,
            22.985309596102837
          ],
          [
            120.21380453823194,
            22.984509920169476
          ],
          [
            120.21387381658805,
            22.984289369895336
          ],
          [
            120.21390223611134,
            22.984198895927637
          ],
          [
            120.21393888870985,
            22.984082212115776
          ],
          [
            120.21459053057598,
            22.98200764879098
          ],
          [
            120.21461387682575,
            22.981933327044313
          ],
          [
            120.21466611646564,
            22.981767014612544
          ],
          [
            120.21466786318436,
            22.98176145346293
          ],
          [
            120.21469330139546,
            22.981680544628755
          ],
          [
            120.2149718082615,
            22.980794697163674
          ],
          [
            120.21527108474245,
            22.97984554745047
          ],
          [
            120.21567579392617,
            22.978556802837698
          ],
          [
            120.21603617814422,
            22.977407842263688
          ],
          [
            120.21635949681931,
            22.97638036987692
          ],
          [
            120.21663836620219,
            22.97546811687456
          ],
          [
            120.21694550598242,
            22.974515749933722
          ],
          [
            120.21731690350649,
            22.973333764955143
          ],
          [
            120.21759890032484,
            22.972428373558742
          ],
          [
            120.2176798561963,
            22.972020357036037
          ],
          [
            120.21774289687772,
            22.971569088687254
          ],
          [
            120.21776593521108,
            22.971241912510788
          ],
          [
            120.21777744728145,
            22.970816779644572
          ],
          [
            120.21768459503018,
            22.96961101713534
          ],
          [
            120.21758503676176,
            22.968011089949528
          ],
          [
            120.21749327688453,
            22.96661584568892
          ],
          [
            120.21740709974202,
            22.965290345381334
          ],
          [
            120.21732322130117,
            22.964085485956236
          ],
          [
            120.21729883091852,
            22.963353822814703
          ],
          [
            120.21729436492586,
            22.9624485360677
          ],
          [
            120.21731299067399,
            22.962188590137927
          ],
          [
            120.21732805591947,
            22.961974752835165
          ],
          [
            120.2173450392576,
            22.961772433967692
          ],
          [
            120.21735853331008,
            22.961633680347205
          ],
          [
            120.21737246847657,
            22.961488083111842
          ],
          [
            120.21739110650162,
            22.961307453878323
          ],
          [
            120.21742745605852,
            22.961046508115587
          ],
          [
            120.21746130132327,
            22.9607984351567
          ],
          [
            120.21749344460375,
            22.960575314136086
          ],
          [
            120.21750756073341,
            22.96048024619636
          ],
          [
            120.21751588335107,
            22.960424188093516
          ],
          [
            120.21753016608662,
            22.960314054095598
          ],
          [
            120.2175571785933,
            22.96012318976526
          ],
          [
            120.21759081838093,
            22.95988904750753
          ],
          [
            120.21762885514413,
            22.959624187242888
          ],
          [
            120.21766883593762,
            22.959326647245824
          ],
          [
            120.2177121268799,
            22.959030505170066
          ],
          [
            120.21775769677024,
            22.958712951977066
          ],
          [
            120.21779703731085,
            22.95841591262885
          ],
          [
            120.21780951882421,
            22.958334038710447
          ],
          [
            120.21784394751943,
            22.958108200773214
          ],
          [
            120.21789089386311,
            22.957773643196916
          ],
          [
            120.2181105192079,
            22.95623028874421
          ],
          [
            120.21814350692931,
            22.95600098589398
          ],
          [
            120.21818132328534,
            22.9557238359401
          ],
          [
            120.21821181213107,
            22.955519540710704
          ],
          [
            120.21824405884868,
            22.955292872783673
          ],
          [
            120.21828549405595,
            22.955039871104677
          ],
          [
            120.21831643056343,
            22.954796129610262
          ],
          [
            120.2183535620874,
            22.954558613343202
          ],
          [
            120.21837365508952,
            22.954410105058198
          ],
          [
            120.21839705451941,
            22.954234456537016
          ],
          [
            120.21842134399878,
            22.954066641576333
          ],
          [
            120.21843630306577,
            22.953944081542456
          ],
          [
            120.21847142615958,
            22.9536976063883
          ],
          [
            120.2185118837552,
            22.95344758424488
          ],
          [
            120.21856418454217,
            22.953137826035622
          ],
          [
            120.21859315384019,
            22.952959006386383
          ],
          [
            120.21860123016874,
            22.952922226422146
          ],
          [
            120.218617996649,
            22.952845862025214
          ],
          [
            120.2186528779409,
            22.952686708553387
          ],
          [
            120.21868290227559,
            22.952559299400814
          ],
          [
            120.21875198939219,
            22.952340726760703
          ],
          [
            120.21880470254817,
            22.952149172187717
          ],
          [
            120.21885633598109,
            22.95197564649232
          ],
          [
            120.21891002436678,
            22.951811020223676
          ],
          [
            120.21896267047322,
            22.951645846083967
          ],
          [
            120.21901079047417,
            22.951516624167052
          ],
          [
            120.21903655573199,
            22.951451270283023
          ],
          [
            120.21906054040403,
            22.951392383188363
          ],
          [
            120.21915790971569,
            22.95116577087246
          ],
          [
            120.2192396255503,
            22.950981510770333
          ],
          [
            120.21932985626435,
            22.950796611639056
          ],
          [
            120.21944820212686,
            22.95056376312159
          ],
          [
            120.21960443388096,
            22.95028639772791
          ],
          [
            120.21973066016652,
            22.950096084783862
          ],
          [
            120.21986451552189,
            22.949880346765152
          ],
          [
            120.21998537825785,
            22.94969512283116
          ],
          [
            120.22016271296765,
            22.94945165521052
          ],
          [
            120.22036048634776,
            22.949216867407685
          ],
          [
            120.22060799370598,
            22.948917626719375
          ],
          [
            120.2207676366426,
            22.948694602527805
          ],
          [
            120.22101696780332,
            22.948414547556
          ],
          [
            120.22107718227781,
            22.94833539177218
          ],
          [
            120.22144115723837,
            22.947884759194313
          ],
          [
            120.22171359746395,
            22.94755589705518
          ],
          [
            120.22192238082508,
            22.947305536153866
          ],
          [
            120.22220507376873,
            22.946965331755912
          ],
          [
            120.22242356822491,
            22.94670481901401
          ],
          [
            120.2226815067753,
            22.946393184981314
          ],
          [
            120.22290127463377,
            22.946127226218344
          ],
          [
            120.22304295246104,
            22.94595487126778
          ],
          [
            120.22320741844582,
            22.945754010981382
          ],
          [
            120.22323813603673,
            22.94571729639678
          ],
          [
            120.223248960662,
            22.945704360321397
          ],
          [
            120.22326369163973,
            22.94568675126636
          ],
          [
            120.2234211885274,
            22.94549850795763
          ],
          [
            120.22362772193263,
            22.945247298299375
          ],
          [
            120.22392878196348,
            22.944887734739588
          ],
          [
            120.22421253958684,
            22.944545247900404
          ],
          [
            120.2244767776007,
            22.944230315647538
          ],
          [
            120.2246928414701,
            22.94397250480971
          ],
          [
            120.22504921905174,
            22.94354113538204
          ],
          [
            120.22545956980244,
            22.943042223284422
          ],
          [
            120.22569779195696,
            22.942759238991357
          ],
          [
            120.22586474629568,
            22.94256726454737
          ],
          [
            120.22604478888871,
            22.942348692005275
          ],
          [
            120.22627017582505,
            22.942082965955326
          ],
          [
            120.22644615665186,
            22.941865340249617
          ],
          [
            120.22669023494461,
            22.94156579615679
          ],
          [
            120.22703646301034,
            22.941145345026293
          ],
          [
            120.22731161838787,
            22.94080982853037
          ],
          [
            120.22750523550509,
            22.9405762488167
          ],
          [
            120.22765369433026,
            22.940379167806768
          ],
          [
            120.227831312782,
            22.94013383370978
          ],
          [
            120.22803494667876,
            22.939830177766215
          ],
          [
            120.22819608372642,
            22.93958408487575
          ],
          [
            120.22829481276915,
            22.93941227988481
          ],
          [
            120.22833130694688,
            22.939354298120275
          ],
          [
            120.22836296597345,
            22.939293240619914
          ],
          [
            120.22839654798786,
            22.93923763046683
          ],
          [
            120.22846912334822,
            22.939094546176708
          ],
          [
            120.2284896248472,
            22.93905922204177
          ],
          [
            120.22851205124586,
            22.939020580522925
          ],
          [
            120.22865351975659,
            22.93875540723627
          ],
          [
            120.2288216661434,
            22.938453433386165
          ],
          [
            120.2290007526727,
            22.938123810424795
          ],
          [
            120.2291606104662,
            22.93782280547424
          ],
          [
            120.22944788521279,
            22.937286277401956
          ],
          [
            120.22971255800238,
            22.936796394894856
          ],
          [
            120.22998100416734,
            22.936291645638736
          ],
          [
            120.23022222541364,
            22.935838074543106
          ],
          [
            120.2303434078019,
            22.935612914341093
          ],
          [
            120.23055422955665,
            22.935221203193937
          ],
          [
            120.23056387772057,
            22.9352032770762
          ],
          [
            120.23060478487056,
            22.935127267362425
          ],
          [
            120.23062708538946,
            22.935085830931527
          ],
          [
            120.23239968887232,
            22.931872428764972
          ],
          [
            120.233032297289,
            22.930696860188874
          ],
          [
            120.23323921373786,
            22.930314953647606
          ],
          [
            120.23343539672959,
            22.929922524392783
          ],
          [
            120.23380641135894,
            22.929243385692544
          ],
          [
            120.23396467169391,
            22.9289845838197
          ],
          [
            120.23426089269631,
            22.928566530470672
          ],
          [
            120.2345069768067,
            22.928282574253892
          ],
          [
            120.23471555787384,
            22.928071143047784
          ],
          [
            120.2349436348287,
            22.9278548162755
          ],
          [
            120.23523548966101,
            22.927615256295827
          ],
          [
            120.23551655684489,
            22.92738980415287
          ],
          [
            120.23571289594115,
            22.927233979618777
          ],
          [
            120.23590646726335,
            22.927080683526583
          ],
          [
            120.23642403782317,
            22.926662545828886
          ],
          [
            120.23719448832041,
            22.92604974967008
          ],
          [
            120.23786792898274,
            22.92551600355674
          ],
          [
            120.23868039533032,
            22.92486601888714
          ],
          [
            120.23926095187073,
            22.92440814496824
          ],
          [
            120.23946222334104,
            22.924245822036596
          ],
          [
            120.23992835594854,
            22.92386906537875
          ],
          [
            120.24046004111887,
            22.92344105107841
          ],
          [
            120.24059336495094,
            22.92333372345317
          ],
          [
            120.24059440486943,
            22.923332899447733
          ],
          [
            120.24059781056141,
            22.92333019942998
          ],
          [
            120.24150562208926,
            22.922608620106097
          ],
          [
            120.24210186602473,
            22.92213281916541
          ],
          [
            120.24223849675585,
            22.922023240464718
          ],
          [
            120.24230120049775,
            22.921972952071716
          ],
          [
            120.24235782703207,
            22.92192753719359
          ],
          [
            120.24295690836857,
            22.92144706059819
          ],
          [
            120.2430306180768,
            22.921385852585107
          ],
          [
            120.24306839499499,
            22.921354483580586
          ],
          [
            120.24311470529467,
            22.921316027642206
          ],
          [
            120.24369851352198,
            22.920831229266888
          ],
          [
            120.24417485340403,
            22.920348409552485
          ],
          [
            120.24464752426239,
            22.919862101422858
          ],
          [
            120.24521673137559,
            22.919252989097178
          ],
          [
            120.24569969833512,
            22.918748632562217
          ],
          [
            120.24619728206181,
            22.9182182634656
          ],
          [
            120.24684056517818,
            22.9175364974376
          ],
          [
            120.24746455892925,
            22.916890150616286
          ],
          [
            120.24768037811583,
            22.91666572109548
          ],
          [
            120.2477882559141,
            22.916559307121958
          ],
          [
            120.24785590983707,
            22.916481345763106
          ],
          [
            120.24799794073067,
            22.916333047446752
          ],
          [
            120.24837073731781,
            22.915930441170484
          ],
          [
            120.24868582926723,
            22.9155834341191
          ],
          [
            120.24891361339007,
            22.915252662720707
          ],
          [
            120.24911242044226,
            22.914974674184624
          ],
          [
            120.24924520208788,
            22.9147945334803
          ],
          [
            120.24940510196411,
            22.914533134403552
          ],
          [
            120.24955425529544,
            22.914244023689424
          ],
          [
            120.24973284277705,
            22.91388881645386
          ],
          [
            120.24978172811387,
            22.913783211417762
          ],
          [
            120.24984116958451,
            22.913648035953898
          ],
          [
            120.24994057542172,
            22.91342197054577
          ],
          [
            120.2500929271628,
            22.9129885232954
          ],
          [
            120.25022729747461,
            22.91254339608849
          ],
          [
            120.25024717131829,
            22.912477557906723
          ],
          [
            120.25030365192535,
            22.912277380835473
          ],
          [
            120.25032289432104,
            22.91220918275357
          ],
          [
            120.2503709738936,
            22.91203877771255
          ],
          [
            120.25043928068166,
            22.911795470799863
          ],
          [
            120.25046574625554,
            22.911701201998003
          ],
          [
            120.25048644205106,
            22.91162748149552
          ],
          [
            120.25111365548301,
            22.909407385260188
          ],
          [
            120.25139223094536,
            22.908399414077085
          ],
          [
            120.25140755221304,
            22.908294536118277
          ],
          [
            120.25150262686952,
            22.907944761003755
          ],
          [
            120.25153982790066,
            22.907811090038642
          ],
          [
            120.25157705912059,
            22.90767172740435
          ],
          [
            120.25166891315295,
            22.907331373638915
          ],
          [
            120.25190946959569,
            22.906329144114824
          ],
          [
            120.25248931254879,
            22.904358541296318
          ],
          [
            120.25281120010024,
            22.903264602820844
          ],
          [
            120.253041947507,
            22.902442029578115
          ],
          [
            120.25308112460299,
            22.902293312052095
          ],
          [
            120.25319844520374,
            22.901855988235614
          ],
          [
            120.25340232306654,
            22.901176262161357
          ],
          [
            120.2534528150377,
            22.90100793957626
          ],
          [
            120.25348342629924,
            22.900905888243756
          ],
          [
            120.25354375823137,
            22.90063651388856
          ],
          [
            120.2535999327285,
            22.900355382370236
          ],
          [
            120.2536242184971,
            22.900195841409307
          ],
          [
            120.25367083840013,
            22.89985200814339
          ],
          [
            120.25369696927146,
            22.899552228735566
          ],
          [
            120.25371636475501,
            22.89929253394785
          ],
          [
            120.2537263397679,
            22.89899146677743
          ],
          [
            120.25373692154268,
            22.898634529178793
          ],
          [
            120.25373673170087,
            22.89841265977904
          ],
          [
            120.25373792857395,
            22.898333561647707
          ],
          [
            120.25374018383248,
            22.89818446548376
          ],
          [
            120.25374264018397,
            22.89803905372669
          ],
          [
            120.25374722243032,
            22.897677313584936
          ],
          [
            120.25375810306562,
            22.896818253816004
          ],
          [
            120.25377648034242,
            22.895289027851433
          ],
          [
            120.25378722188591,
            22.89439518779414
          ],
          [
            120.25378739620191,
            22.894380779835032
          ],
          [
            120.25378742484904,
            22.894378393256126
          ],
          [
            120.25379146027451,
            22.894042401236703
          ],
          [
            120.25381421686825,
            22.892885303902297
          ],
          [
            120.25377776841623,
            22.891283246348436
          ],
          [
            120.25372919469382,
            22.88856898248433
          ],
          [
            120.2538090514201,
            22.8867456775519
          ],
          [
            120.2538728874377,
            22.8849653589717
          ],
          [
            120.25392935018044,
            22.88329904491176
          ],
          [
            120.25394745797156,
            22.881582206559685
          ],
          [
            120.2539405153108,
            22.881010194489413
          ],
          [
            120.25395936458474,
            22.880256637490476
          ],
          [
            120.25397532428346,
            22.87972366661999
          ],
          [
            120.25398692986259,
            22.879567781367847
          ],
          [
            120.25404626519818,
            22.878917132788622
          ],
          [
            120.2541599739524,
            22.878291547150045
          ],
          [
            120.25417177544776,
            22.878226619466467
          ],
          [
            120.25430254080756,
            22.87772175909917
          ],
          [
            120.25435954758755,
            22.87746794984622
          ],
          [
            120.25449444481178,
            22.877026758162877
          ],
          [
            120.25576362671923,
            22.87373361015265
          ],
          [
            120.25590964825466,
            22.87333349675854
          ],
          [
            120.2559100499097,
            22.873332396032197
          ],
          [
            120.25591107679288,
            22.8733295833679
          ],
          [
            120.25600849915098,
            22.873085598432052
          ],
          [
            120.25794961266926,
            22.867843487898863
          ],
          [
            120.25805548990101,
            22.867560517939538
          ],
          [
            120.2580555393352,
            22.8675603872299
          ],
          [
            120.25805637195029,
            22.867558159711955
          ],
          [
            120.2581632405475,
            22.86727253484467
          ],
          [
            120.2584125777119,
            22.86660188386441
          ],
          [
            120.25869248634088,
            22.865877920524035
          ],
          [
            120.25879650960829,
            22.865621944779747
          ],
          [
            120.25887202621483,
            22.865449875399527
          ],
          [
            120.25898792869674,
            22.86519980560426
          ],
          [
            120.25914434193571,
            22.86487306604285
          ],
          [
            120.25935054566452,
            22.864484672108254
          ],
          [
            120.25953174411953,
            22.864159638617835
          ],
          [
            120.25967959935093,
            22.863908384039465
          ],
          [
            120.25985846318395,
            22.86361289021592
          ],
          [
            120.26012158662148,
            22.863220381061236
          ],
          [
            120.26034027702855,
            22.862895798981256
          ],
          [
            120.26068847220932,
            22.86240133134585
          ],
          [
            120.26102727149643,
            22.86191761412993
          ],
          [
            120.2611089860804,
            22.861800943782633
          ],
          [
            120.26143953244052,
            22.861329898412528
          ],
          [
            120.26167152330271,
            22.86099418197846
          ],
          [
            120.26196158915457,
            22.860585639102716
          ],
          [
            120.26234908375785,
            22.860031100871012
          ],
          [
            120.26275664119912,
            22.859450626295978
          ],
          [
            120.26312668851202,
            22.85891931071215
          ],
          [
            120.26346238541427,
            22.85843972462795
          ],
          [
            120.26382590087556,
            22.857917929334224
          ],
          [
            120.26402299275544,
            22.857633809755004
          ],
          [
            120.26425448057657,
            22.857300104188894
          ],
          [
            120.26443602912491,
            22.857042897656324
          ],
          [
            120.26449562644962,
            22.85695845912528
          ],
          [
            120.26450325578229,
            22.856947652512655
          ],
          [
            120.26473400425809,
            22.856607123012918
          ],
          [
            120.26563242845701,
            22.855410831982695
          ],
          [
            120.26646291113535,
            22.854232937345373
          ],
          [
            120.2665648231358,
            22.85408839297145
          ],
          [
            120.26723780462,
            22.853100009661482
          ],
          [
            120.26752251193331,
            22.852619747663734
          ],
          [
            120.2675423188728,
            22.85258633788186
          ],
          [
            120.26762072849547,
            22.852454071192852
          ],
          [
            120.26768202524451,
            22.85235066992535
          ],
          [
            120.26810907945057,
            22.851668276997096
          ],
          [
            120.26826932815386,
            22.85138224832068
          ],
          [
            120.26874546049251,
            22.85041647155002
          ],
          [
            120.26913670285609,
            22.849604513576363
          ],
          [
            120.26959132246513,
            22.848664822272692
          ],
          [
            120.26975219834581,
            22.848333790864114
          ],
          [
            120.26975277958867,
            22.848332597003097
          ],
          [
            120.26975416869656,
            22.848329737127948
          ],
          [
            120.27021641840811,
            22.84737855411642
          ],
          [
            120.27047158578456,
            22.846855620160575
          ],
          [
            120.27067506470749,
            22.84643861571765
          ],
          [
            120.27104936630441,
            22.84565553865297
          ],
          [
            120.27105458547784,
            22.84564481456811
          ],
          [
            120.27110160824434,
            22.845548194175567
          ],
          [
            120.27140026961675,
            22.844934517839004
          ],
          [
            120.2717639500283,
            22.844177680376163
          ],
          [
            120.27230621821774,
            22.843048599613915
          ],
          [
            120.27265414118428,
            22.842399573955
          ],
          [
            120.27311411765058,
            22.841665461544697
          ],
          [
            120.27371525363034,
            22.840715315010005
          ],
          [
            120.27431456540414,
            22.83975720090971
          ],
          [
            120.27464916686168,
            22.839226214669072
          ],
          [
            120.2751985635553,
            22.83835381909393
          ],
          [
            120.27575374190184,
            22.837467503810352
          ],
          [
            120.27582272672615,
            22.83735737373565
          ],
          [
            120.27598564557309,
            22.837097277255275
          ],
          [
            120.27724132017129,
            22.83511031695215
          ],
          [
            120.27728156213476,
            22.83504663824289
          ],
          [
            120.27815872760567,
            22.833642466387793
          ],
          [
            120.27816714211785,
            22.833628996816184
          ],
          [
            120.27858327627406,
            22.83296968088588
          ],
          [
            120.27874486787108,
            22.832710398783075
          ],
          [
            120.27881562393684,
            22.832598218134915
          ],
          [
            120.2791229320208,
            22.832110991894908
          ],
          [
            120.27955212715759,
            22.831429272648126
          ],
          [
            120.27998005029093,
            22.83074443988045
          ],
          [
            120.28043741324304,
            22.830019722257546
          ],
          [
            120.2808688212439,
            22.829338167940307
          ],
          [
            120.28153460380148,
            22.828279325983466
          ],
          [
            120.28200651750342,
            22.827523922987815
          ],
          [
            120.28238670797343,
            22.826930183544924
          ],
          [
            120.28282497068292,
            22.82625205680253
          ],
          [
            120.28305542914391,
            22.825894418618596
          ],
          [
            120.28305549593615,
            22.825894314166078
          ],
          [
            120.28305594182287,
            22.825893626247147
          ],
          [
            120.28390067110152,
            22.824582697150788
          ],
          [
            120.28424200513639,
            22.82405961466517
          ],
          [
            120.2844262911431,
            22.823777200812167
          ],
          [
            120.28460800833629,
            22.82349872329591
          ],
          [
            120.28469404189377,
            22.823366878589034
          ],
          [
            120.28471576951279,
            22.82333339191355
          ],
          [
            120.28471654535879,
            22.823332196153675
          ],
          [
            120.28471840738354,
            22.823329327413568
          ],
          [
            120.28573599896401,
            22.821760979326328
          ],
          [
            120.28646047782442,
            22.82063144133559
          ],
          [
            120.28748423348345,
            22.819051970162274
          ],
          [
            120.28837457560603,
            22.817675399923626
          ],
          [
            120.28938764565565,
            22.81612021612834
          ],
          [
            120.28980121319523,
            22.815480033753452
          ],
          [
            120.28988770890481,
            22.81534614075584
          ],
          [
            120.29011312366812,
            22.8149972074135
          ],
          [
            120.29062433462606,
            22.814205164234963
          ],
          [
            120.29117290290925,
            22.813361631106872
          ],
          [
            120.29179686428672,
            22.812397370256754
          ],
          [
            120.29238781135659,
            22.811484444607057
          ],
          [
            120.29268283826316,
            22.81102532663049
          ],
          [
            120.29274127385769,
            22.81093438903149
          ],
          [
            120.2927905033391,
            22.810857778038915
          ],
          [
            120.29284937969112,
            22.81076615513229
          ],
          [
            120.29373206275476,
            22.80941139906239
          ],
          [
            120.29414353417103,
            22.808776057666616
          ],
          [
            120.29498674325934,
            22.807472850980215
          ],
          [
            120.2956907578421,
            22.806386499984917
          ],
          [
            120.29611498671576,
            22.80572873509295
          ],
          [
            120.29623416399329,
            22.80554570861619
          ],
          [
            120.29696465538922,
            22.80442384926917
          ],
          [
            120.29709735235785,
            22.804220055588907
          ],
          [
            120.29767022786443,
            22.80333557546238
          ],
          [
            120.29824793618475,
            22.802447217643415
          ],
          [
            120.29864865605953,
            22.80183083589693
          ],
          [
            120.29900178997043,
            22.801209390851646
          ],
          [
            120.29927941394095,
            22.8006102254566
          ],
          [
            120.29945564361115,
            22.80017268064381
          ],
          [
            120.29966196332443,
            22.799536461521175
          ],
          [
            120.29983015174776,
            22.798796491292155
          ],
          [
            120.29989519085792,
            22.79845206043398
          ],
          [
            120.2999310957819,
            22.798333749755027
          ],
          [
            120.29994496021865,
            22.798288064858944
          ],
          [
            120.30003141943709,
            22.79743446681737
          ],
          [
            120.30011787865551,
            22.7965808687758
          ],
          [
            120.29999254953157,
            22.796857699347633
          ],
          [
            120.2998852585535,
            22.79723154319568
          ],
          [
            120.29976305213202,
            22.79755047656727
          ],
          [
            120.29965967109291,
            22.797746518876437
          ],
          [
            120.29953586812171,
            22.79794481301634
          ],
          [
            120.30011787865551,
            22.7965808687758
          ],
          [
            120.30020414348071,
            22.795655653307563
          ],
          [
            120.30035373272364,
            22.794369336690774
          ],
          [
            120.3004800189989,
            22.793031792215622
          ],
          [
            120.30055549874933,
            22.792281949543714
          ],
          [
            120.30057988079767,
            22.792039729608263
          ],
          [
            120.3006559162502,
            22.791284284242927
          ],
          [
            120.30074427754555,
            22.790331607044322
          ],
          [
            120.3008273173555,
            22.789588967554128
          ],
          [
            120.30083957523614,
            22.789479329576942
          ],
          [
            120.30085644431168,
            22.789323148730748
          ],
          [
            120.30086017324363,
            22.789288621596043
          ],
          [
            120.30110374986107,
            22.787033318186893
          ],
          [
            120.301135474435,
            22.78669764698279
          ],
          [
            120.30116207545521,
            22.78641618691914
          ],
          [
            120.30119713296286,
            22.786045236342424
          ],
          [
            120.30121666075871,
            22.785838602742974
          ],
          [
            120.30130595791582,
            22.78502021851146
          ],
          [
            120.30132501791313,
            22.78483499505501
          ],
          [
            120.3013390991169,
            22.784698177694988
          ],
          [
            120.30135973885153,
            22.78449762282438
          ],
          [
            120.30140255238827,
            22.784128949233786
          ],
          [
            120.30144143177561,
            22.783862659845205
          ],
          [
            120.30147874289912,
            22.783632735752658
          ],
          [
            120.30153803599558,
            22.783338475183307
          ],
          [
            120.30162561486003,
            22.783010673544485
          ],
          [
            120.30174145607889,
            22.782639909145505
          ],
          [
            120.30187834689943,
            22.782229205376613
          ],
          [
            120.3021222805613,
            22.781545432723615
          ],
          [
            120.3021631901097,
            22.78143099185736
          ],
          [
            120.30240943519546,
            22.780742152696085
          ],
          [
            120.30263106080571,
            22.780113360424632
          ],
          [
            120.30287069789318,
            22.779444705371805
          ],
          [
            120.30311317024119,
            22.77875191914994
          ],
          [
            120.30335913741192,
            22.778073855711273
          ],
          [
            120.30358331327405,
            22.7774293371848
          ],
          [
            120.30366113496846,
            22.777210906112227
          ],
          [
            120.3038000452767,
            22.776821005386577
          ],
          [
            120.30388055043412,
            22.776595036367453
          ],
          [
            120.30417334282765,
            22.77577347197291
          ],
          [
            120.30419215000565,
            22.775720003877208
          ],
          [
            120.30425209693857,
            22.775549573000742
          ],
          [
            120.30445629671782,
            22.774969030131434
          ],
          [
            120.30484969566513,
            22.773871634454583
          ],
          [
            120.30504128859371,
            22.773333475565497
          ],
          [
            120.30504281090965,
            22.77332919901542
          ],
          [
            120.30515676084906,
            22.77300912770101
          ],
          [
            120.30547865741369,
            22.772103454681268
          ],
          [
            120.30579460098747,
            22.771239099405815
          ],
          [
            120.3062002113784,
            22.77007720503653
          ],
          [
            120.3063758219725,
            22.76962116960902
          ],
          [
            120.30658073023547,
            22.768976713618592
          ],
          [
            120.30681413707649,
            22.768399811117146
          ],
          [
            120.30699187409562,
            22.767858291995413
          ],
          [
            120.30723433244957,
            22.767178512422742
          ],
          [
            120.30762285737082,
            22.766141921008447
          ],
          [
            120.30796697277987,
            22.765365525170083
          ],
          [
            120.30805552745903,
            22.765179587304655
          ],
          [
            120.3080835194928,
            22.765120813250697
          ],
          [
            120.30881128298334,
            22.763721398889324
          ],
          [
            120.3094329413121,
            22.76261619025087
          ],
          [
            120.30967916963625,
            22.762227905795864
          ],
          [
            120.31029624146731,
            22.761080129818605
          ],
          [
            120.31095040198223,
            22.75986336754473
          ],
          [
            120.31142878598666,
            22.75890454175773
          ],
          [
            120.31188573801613,
            22.75806903888282
          ],
          [
            120.31225450243596,
            22.757357761929477
          ],
          [
            120.31325652284252,
            22.755499660109493
          ],
          [
            120.31468525938836,
            22.7528900675891
          ],
          [
            120.31708477550283,
            22.748429344731
          ],
          [
            120.31713760456877,
            22.748333756221328
          ],
          [
            120.3171384603075,
            22.748332208427414
          ],
          [
            120.31774863338215,
            22.747228173215966
          ],
          [
            120.31867730910199,
            22.745491838402046
          ],
          [
            120.31929796326803,
            22.74436180411785
          ],
          [
            120.31967187891367,
            22.743660029430337
          ],
          [
            120.3213718642531,
            22.740535968793203
          ],
          [
            120.32185489542034,
            22.739732624956993
          ],
          [
            120.32231089530283,
            22.739049342982256
          ],
          [
            120.32291863141927,
            22.738220978638903
          ],
          [
            120.32419692028061,
            22.736632777442747
          ],
          [
            120.32466117945326,
            22.735957149322086
          ],
          [
            120.32475752362146,
            22.735786348103005
          ],
          [
            120.32500346339052,
            22.735309384133604
          ],
          [
            120.32525577193049,
            22.73468528402552
          ],
          [
            120.32539062007953,
            22.7342220138653
          ],
          [
            120.32544938844467,
            22.733994750480036
          ],
          [
            120.32553077330036,
            22.733609231887677
          ],
          [
            120.32558972340898,
            22.733250304882816
          ],
          [
            120.32561566029922,
            22.732983327164785
          ],
          [
            120.3256346511749,
            22.732490744804764
          ],
          [
            120.32562343915714,
            22.73204894769357
          ],
          [
            120.32557998068344,
            22.731552201471775
          ],
          [
            120.32546991220427,
            22.730969816902327
          ],
          [
            120.32541363877253,
            22.730725215893948
          ],
          [
            120.32534276131587,
            22.73047831363486
          ],
          [
            120.32525198967633,
            22.730206115734138
          ],
          [
            120.32512495692416,
            22.72987336441928
          ],
          [
            120.32507719711666,
            22.729787249246748
          ],
          [
            120.32497830648701,
            22.729574133930363
          ],
          [
            120.32477221935792,
            22.729033825082578
          ],
          [
            120.32435206452702,
            22.727990389765846
          ],
          [
            120.32418113456832,
            22.72752055725828
          ],
          [
            120.32401328412817,
            22.727042900156324
          ],
          [
            120.32389459564546,
            22.726705144731675
          ],
          [
            120.32349528278759,
            22.72536002321059
          ],
          [
            120.32325779878919,
            22.724685560834327
          ],
          [
            120.32277313092789,
            22.72339282658381
          ],
          [
            120.32275258249057,
            22.7233337696936
          ],
          [
            120.32275185201934,
            22.72333166878986
          ],
          [
            120.32253415793672,
            22.722705996611342
          ],
          [
            120.32244679326418,
            22.722454899776526
          ],
          [
            120.32225658255446,
            22.721952578027107
          ],
          [
            120.32219594663981,
            22.721774702520353
          ],
          [
            120.32217706565245,
            22.72171931633959
          ],
          [
            120.32204836840556,
            22.721252016604332
          ],
          [
            120.32196740614384,
            22.720912963249873
          ],
          [
            120.32188074642323,
            22.720421253977424
          ],
          [
            120.32184243022847,
            22.720042420954826
          ],
          [
            120.32183203926252,
            22.71965770189439
          ],
          [
            120.32184954734184,
            22.71917655399857
          ],
          [
            120.32187076244259,
            22.718884791853977
          ],
          [
            120.32192544335749,
            22.71849007816894
          ],
          [
            120.32199671042747,
            22.718125962739833
          ],
          [
            120.32215965411197,
            22.717522868706403
          ],
          [
            120.32273825688297,
            22.71584189574344
          ],
          [
            120.32305330539229,
            22.714856720797524
          ],
          [
            120.32312446634715,
            22.714584802223218
          ],
          [
            120.32319037415331,
            22.714292363680684
          ],
          [
            120.32323517451529,
            22.714044434380593
          ],
          [
            120.32339829964756,
            22.712946139128157
          ],
          [
            120.32379002932961,
            22.709979860072714
          ],
          [
            120.32394383668014,
            22.708906399892534
          ],
          [
            120.32399253540629,
            22.70837367251364
          ],
          [
            120.32400906384386,
            22.708007931667833
          ],
          [
            120.32399644128718,
            22.707581258103893
          ],
          [
            120.32397606420479,
            22.70728143834576
          ],
          [
            120.32394112224995,
            22.70694585806124
          ],
          [
            120.3238571144929,
            22.70646638952847
          ],
          [
            120.32377622132627,
            22.706123429297524
          ],
          [
            120.32372486288878,
            22.70594357950965
          ],
          [
            120.3235729833193,
            22.70547574791246
          ],
          [
            120.32320752449141,
            22.704635304987775
          ],
          [
            120.32264330989626,
            22.703431404990727
          ],
          [
            120.32236989446815,
            22.70289526202798
          ],
          [
            120.32220948726388,
            22.702610831237173
          ],
          [
            120.32204574362233,
            22.702356367834888
          ],
          [
            120.32175988592043,
            22.701949459914186
          ],
          [
            120.321293543852,
            22.701331358848186
          ],
          [
            120.3195470786664,
            22.699234209952756
          ],
          [
            120.31878870655459,
            22.698333780510655
          ],
          [
            120.31878656522885,
            22.698331237400872
          ],
          [
            120.31851630459765,
            22.69801034917344
          ],
          [
            120.31821620192954,
            22.697680271128355
          ],
          [
            120.31787371045061,
            22.697320050942658
          ],
          [
            120.31697714378423,
            22.696434393253426
          ],
          [
            120.31529823682179,
            22.69482048437869
          ],
          [
            120.31419098608859,
            22.693733314487126
          ],
          [
            120.31172841064644,
            22.69135087855916
          ],
          [
            120.3111216034674,
            22.6907798452849
          ],
          [
            120.31078565974705,
            22.690480286404515
          ],
          [
            120.31003470861609,
            22.68984357718186
          ],
          [
            120.30932143494549,
            22.68922381322992
          ],
          [
            120.3090680652344,
            22.689029148337298
          ],
          [
            120.3089154282936,
            22.68891479295466
          ],
          [
            120.30871117980138,
            22.688753612913455
          ],
          [
            120.30860766347756,
            22.68867274360851
          ],
          [
            120.30827073639398,
            22.68835540397488
          ],
          [
            120.30805552011005,
            22.688169643128706
          ],
          [
            120.30805402878347,
            22.688168356139755
          ],
          [
            120.30701310814358,
            22.687269874712058
          ],
          [
            120.30570249820522,
            22.686138608174105
          ],
          [
            120.30501282456463,
            22.68558096645821
          ],
          [
            120.30386249138247,
            22.68461411780767
          ],
          [
            120.30299664718366,
            22.683811638989862
          ],
          [
            120.30238701647127,
            22.68320204560047
          ],
          [
            120.29949999034649,
            22.680152351273357
          ],
          [
            120.29893383966768,
            22.679547561711477
          ],
          [
            120.2983694499587,
            22.67893063263885
          ],
          [
            120.29767418906994,
            22.67820214587013
          ],
          [
            120.2966966514447,
            22.67715409089193
          ],
          [
            120.29519177753701,
            22.675569598563442
          ],
          [
            120.29304651924653,
            22.6733337817719
          ],
          [
            120.29058512180237,
            22.670768356322007
          ],
          [
            120.28968538601039,
            22.669787274737647
          ],
          [
            120.2893315363308,
            22.669317590367303
          ],
          [
            120.28883008931182,
            22.668627554896908
          ],
          [
            120.28853971629478,
            22.668189772255044
          ],
          [
            120.28818583418631,
            22.667695652943344
          ],
          [
            120.28631682483189,
            22.664945538913468
          ],
          [
            120.28574852780679,
            22.664085929022416
          ],
          [
            120.28523266831456,
            22.663325858155005
          ],
          [
            120.28498104848194,
            22.66293237930009
          ],
          [
            120.28453281929487,
            22.662293198455558
          ],
          [
            120.28367772432533,
            22.660996194620502
          ],
          [
            120.28305553333334,
            22.66006436497067
          ],
          [
            120.28295174520517,
            22.65990892424175
          ],
          [
            120.28271908286067,
            22.6595187488997
          ],
          [
            120.28250502034281,
            22.65910173532872
          ],
          [
            120.28234292107868,
            22.658749402150328
          ],
          [
            120.28215919477879,
            22.658246050363125
          ],
          [
            120.2819932522861,
            22.657703619462172
          ],
          [
            120.28187653194857,
            22.65716140897069
          ],
          [
            120.28178204496761,
            22.656400664820794
          ],
          [
            120.28172254721956,
            22.65567270955664
          ],
          [
            120.28162839141592,
            22.653912569922284
          ],
          [
            120.28127607351652,
            22.648333411079832
          ],
          [
            120.28116130349304,
            22.646515886145657
          ],
          [
            120.281025031677,
            22.64477926284045
          ],
          [
            120.28086686142974,
            22.64311034202101
          ],
          [
            120.28085715655996,
            22.64262860880082
          ],
          [
            120.28094083505883,
            22.64162255377889
          ],
          [
            120.28132040130389,
            22.64027916250815
          ],
          [
            120.28176222365197,
            22.638955951466546
          ],
          [
            120.28206574171011,
            22.638383976811234
          ],
          [
            120.28227827135645,
            22.63807492515888
          ],
          [
            120.28261420972197,
            22.637694636223763
          ],
          [
            120.2829390916863,
            22.637412192004653
          ],
          [
            120.28305553156498,
            22.637329084340884
          ],
          [
            120.28327076604022,
            22.637175461686297
          ],
          [
            120.28362625746269,
            22.636977996649474
          ],
          [
            120.28395810943124,
            22.636819582136265
          ],
          [
            120.28434901680731,
            22.636684273505786
          ],
          [
            120.28473970385905,
            22.636591384398805
          ],
          [
            120.28521102200322,
            22.636541274328682
          ],
          [
            120.28576741905701,
            22.636537604464493
          ],
          [
            120.28603950203355,
            22.636552282573746
          ],
          [
            120.28671446645944,
            22.636675504994717
          ],
          [
            120.2877494632693,
            22.636900371117726
          ],
          [
            120.28913368878288,
            22.637196132763616
          ],
          [
            120.2902012415254,
            22.637452115324265
          ],
          [
            120.2906564988357,
            22.63762055309599
          ],
          [
            120.2911510918009,
            22.637830768625733
          ],
          [
            120.29167972120423,
            22.63808763276802
          ],
          [
            120.2926370382888,
            22.638554416212756
          ],
          [
            120.29382316432718,
            22.639134781714734
          ],
          [
            120.29493832508717,
            22.639673220517583
          ],
          [
            120.29569642307759,
            22.6399163966596
          ],
          [
            120.29623119085397,
            22.64000685148401
          ],
          [
            120.29665035049855,
            22.640018479938842
          ],
          [
            120.29733866061245,
            22.639987234535372
          ],
          [
            120.2983066267733,
            22.63992131426054
          ],
          [
            120.29896864532057,
            22.63987526291783
          ],
          [
            120.29987754446407,
            22.63980593761422
          ],
          [
            120.30046973563199,
            22.63973279920957
          ],
          [
            120.30259894126868,
            22.639498422126422
          ],
          [
            120.286366,
            22.923863
          ],
          [
            120.28988786491126,
            22.916921560821237
          ],
          [
            120.28999110462723,
            22.9167038014382
          ],
          [
            120.2901166702061,
            22.91628040467932
          ],
          [
            120.2901585115643,
            22.915978016154636
          ],
          [
            120.29017344762754,
            22.915730549916454
          ],
          [
            120.29014684097393,
            22.915468604416503
          ],
          [
            120.29011041336997,
            22.915260934218384
          ],
          [
            120.28999827436007,
            22.91487951595262
          ],
          [
            120.28985187378372,
            22.914552034168523
          ],
          [
            120.28968828654612,
            22.914294658397015
          ],
          [
            120.2895173335934,
            22.91407346647859
          ],
          [
            120.28933655969337,
            22.913879412489486
          ],
          [
            120.28914859073112,
            22.913709881226055
          ],
          [
            120.28893115891753,
            22.913544872963424
          ],
          [
            120.28855276575631,
            22.913339239022292
          ],
          [
            120.28810939593686,
            22.91314488099627
          ],
          [
            120.28664056650732,
            22.912649169656692
          ],
          [
            120.28456210825365,
            22.911955809293026
          ],
          [
            120.28044021264219,
            22.910611687167464
          ],
          [
            120.27774835535297,
            22.90948082958652
          ],
          [
            120.27514834780678,
            22.90837353995815
          ],
          [
            120.27262,
            22.90731
          ],
          [
            120.27222712119436,
            22.907137755179484
          ],
          [
            120.27127957951205,
            22.906739526209705
          ],
          [
            120.27094181883851,
            22.906571894413865
          ],
          [
            120.27052762903725,
            22.906320147411563
          ],
          [
            120.26930643892335,
            22.905104497957186
          ],
          [
            120.26889590993503,
            22.90483455559646
          ],
          [
            120.26830816234448,
            22.90454806979374
          ],
          [
            120.26569274593506,
            22.903476886668038
          ],
          [
            120.2649371821721,
            22.903224428283032
          ],
          [
            120.26443389003548,
            22.90311738930986
          ],
          [
            120.26351153132225,
            22.903035494905495
          ],
          [
            120.2613633212817,
            22.903112792081803
          ],
          [
            120.25963659882623,
            22.903090756058354
          ],
          [
            120.25903078329462,
            22.903076161008237
          ],
          [
            120.25882147237024,
            22.90306886348015
          ],
          [
            120.25862944086111,
            22.903029731579313
          ],
          [
            120.25845806193651,
            22.90299227467954
          ],
          [
            120.25827516340067,
            22.902922983386702
          ],
          [
            120.25805336146864,
            22.902810929459648
          ],
          [
            120.25780852031491,
            22.902645818220343
          ],
          [
            120.25762127721404,
            22.902491318471192
          ],
          [
            120.25749262274346,
            22.90235725756362
          ],
          [
            120.25736972808019,
            22.902191362115637
          ],
          [
            120.25720603037237,
            22.901882887718042
          ],
          [
            120.25702383762714,
            22.901433857056546
          ],
          [
            120.25686013991927,
            22.901138160962695
          ],
          [
            120.25668622005108,
            22.900926495502123
          ],
          [
            120.25652138284336,
            22.900758101435848
          ],
          [
            120.25629181300485,
            22.900598226001343
          ],
          [
            120.25601762369872,
            22.90044032925892
          ],
          [
            120.25566806673692,
            22.90033324267109
          ],
          [
            120.25527412092386,
            22.900289442640208
          ],
          [
            120.25499436966538,
            22.900303431695605
          ],
          [
            120.25472386592551,
            22.900351495384054
          ],
          [
            120.25446953152218,
            22.900447622753617
          ],
          [
            120.25410419925362,
            22.900622840399087
          ],
          [
            120.25378042552992,
            22.900862533539108
          ],
          [
            120.25353976889917,
            22.901180066199572
          ],
          [
            120.25342835638213,
            22.901397719890817
          ],
          [
            120.25337198668146,
            22.90156043258568
          ],
          [
            120.252654,
            22.904407
          ],
          [
            120.25196515106379,
            22.906265945940394
          ],
          [
            120.25137780294054,
            22.908366714357733
          ],
          [
            120.25025920736414,
            22.9123486272709
          ],
          [
            120.25005721853202,
            22.913032206111296
          ],
          [
            120.249827122498,
            22.91364181459939
          ],
          [
            120.24950345112855,
            22.914298862337255
          ],
          [
            120.24906490475118,
            22.914991617438634
          ],
          [
            120.24867987840476,
            22.91546812830166
          ],
          [
            120.24833500520316,
            22.91586327373615
          ],
          [
            120.24748464621534,
            22.916786707860894
          ],
          [
            120.24601681648721,
            22.918367291503777
          ],
          [
            120.24502154553245,
            22.919421657348646
          ],
          [
            120.24410658087484,
            22.920409452939836
          ],
          [
            120.2438667161769,
            22.92064684111792
          ],
          [
            120.24357972188349,
            22.92091451523894
          ],
          [
            120.24338317287977,
            22.921102226290834
          ],
          [
            120.24318280997014,
            22.921255752866994
          ],
          [
            120.24269011592544,
            22.921648088635237
          ],
          [
            120.2421331768499,
            22.9220922001846
          ],
          [
            120.24046,
            22.923441
          ],
          [
            120.23992835594854,
            22.92386906537875
          ],
          [
            120.23946222334104,
            22.924245822036596
          ],
          [
            120.23926095187073,
            22.92440814496824
          ],
          [
            120.23868039533032,
            22.92486601888714
          ],
          [
            120.23786792898274,
            22.92551600355674
          ],
          [
            120.23719448832041,
            22.92604974967008
          ],
          [
            120.23642403782317,
            22.926662545828886
          ],
          [
            120.23590646726335,
            22.927080683526583
          ],
          [
            120.23571289594115,
            22.927233979618777
          ],
          [
            120.23551655684489,
            22.92738980415287
          ],
          [
            120.23523548966101,
            22.927615256295827
          ],
          [
            120.2349436348287,
            22.9278548162755
          ],
          [
            120.23471555787384,
            22.928071143047784
          ],
          [
            120.2345069768067,
            22.928282574253892
          ],
          [
            120.23426089269631,
            22.928566530470672
          ],
          [
            120.23396467169391,
            22.9289845838197
          ],
          [
            120.23380641135894,
            22.929243385692544
          ],
          [
            120.23343539672959,
            22.929922524392783
          ],
          [
            120.23323921373786,
            22.930314953647606
          ],
          [
            120.233032297289,
            22.930696860188874
          ],
          [
            120.23239968887232,
            22.931872428764972
          ],
          [
            120.23062708538946,
            22.935085830931527
          ],
          [
            120.23060478487056,
            22.935127267362425
          ],
          [
            120.23056387772057,
            22.9352032770762
          ],
          [
            120.23055422955665,
            22.935221203193937
          ],
          [
            120.2303434078019,
            22.935612914341093
          ],
          [
            120.23022222541364,
            22.935838074543106
          ],
          [
            120.22998100416734,
            22.936291645638736
          ],
          [
            120.22971255800238,
            22.936796394894856
          ],
          [
            120.22944788521279,
            22.937286277401956
          ],
          [
            120.2291606104662,
            22.93782280547424
          ],
          [
            120.2290007526727,
            22.938123810424795
          ],
          [
            120.2288216661434,
            22.938453433386165
          ],
          [
            120.22865351975659,
            22.93875540723627
          ],
          [
            120.22851205124586,
            22.939020580522925
          ],
          [
            120.2284896248472,
            22.93905922204177
          ],
          [
            120.22846912334822,
            22.939094546176708
          ],
          [
            120.22839654798786,
            22.93923763046683
          ],
          [
            120.22836296597345,
            22.939293240619914
          ],
          [
            120.22833130694688,
            22.939354298120275
          ],
          [
            120.22829481276915,
            22.93941227988481
          ],
          [
            120.22819608372642,
            22.93958408487575
          ],
          [
            120.22803494667876,
            22.939830177766215
          ],
          [
            120.227831312782,
            22.94013383370978
          ],
          [
            120.22765369433026,
            22.940379167806768
          ],
          [
            120.22750523550509,
            22.9405762488167
          ],
          [
            120.22731161838787,
            22.94080982853037
          ],
          [
            120.22703646301034,
            22.941145345026293
          ],
          [
            120.22669023494461,
            22.94156579615679
          ],
          [
            120.22644615665186,
            22.941865340249617
          ],
          [
            120.22627017582505,
            22.942082965955326
          ],
          [
            120.22604478888871,
            22.942348692005275
          ],
          [
            120.22586474629568,
            22.94256726454737
          ],
          [
            120.22569779195696,
            22.942759238991357
          ],
          [
            120.22545956980244,
            22.943042223284422
          ],
          [
            120.22504921905174,
            22.94354113538204
          ],
          [
            120.2246928414701,
            22.94397250480971
          ],
          [
            120.2244767776007,
            22.944230315647538
          ],
          [
            120.22421253958684,
            22.944545247900404
          ],
          [
            120.22392878196348,
            22.944887734739588
          ],
          [
            120.22362772193263,
            22.945247298299375
          ],
          [
            120.2234211885274,
            22.94549850795763
          ],
          [
            120.22326369163973,
            22.94568675126636
          ],
          [
            120.223248960662,
            22.945704360321397
          ],
          [
            120.22323813603673,
            22.94571729639678
          ],
          [
            120.22320741844582,
            22.945754010981382
          ],
          [
            120.22304295246104,
            22.94595487126778
          ],
          [
            120.22290127463377,
            22.946127226218344
          ],
          [
            120.2226815067753,
            22.946393184981314
          ],
          [
            120.22242356822491,
            22.94670481901401
          ],
          [
            120.22220507376873,
            22.946965331755912
          ],
          [
            120.22192238082508,
            22.947305536153866
          ],
          [
            120.22171359746395,
            22.94755589705518
          ],
          [
            120.22144115723837,
            22.947884759194313
          ],
          [
            120.22107718227781,
            22.94833539177218
          ],
          [
            120.22101696780332,
            22.948414547556
          ],
          [
            120.2207676366426,
            22.948694602527805
          ],
          [
            120.22060799370598,
            22.948917626719375
          ],
          [
            120.22036048634776,
            22.949216867407685
          ],
          [
            120.22016271296765,
            22.94945165521052
          ],
          [
            120.21998537825785,
            22.94969512283116
          ],
          [
            120.21986451552189,
            22.949880346765152
          ],
          [
            120.21973066016652,
            22.950096084783862
          ],
          [
            120.21960443388096,
            22.95028639772791
          ],
          [
            120.21944820212686,
            22.95056376312159
          ],
          [
            120.21932985626435,
            22.950796611639056
          ],
          [
            120.2192396255503,
            22.950981510770333
          ],
          [
            120.21915790971569,
            22.95116577087246
          ],
          [
            120.21906054040403,
            22.951392383188363
          ],
          [
            120.21903655573199,
            22.951451270283023
          ],
          [
            120.21901079047417,
            22.951516624167052
          ],
          [
            120.21896267047322,
            22.951645846083967
          ],
          [
            120.21891002436678,
            22.951811020223676
          ],
          [
            120.21885633598109,
            22.95197564649232
          ],
          [
            120.21880470254817,
            22.952149172187717
          ],
          [
            120.21875198939219,
            22.952340726760703
          ],
          [
            120.21868290227559,
            22.952559299400814
          ],
          [
            120.2186528779409,
            22.952686708553387
          ],
          [
            120.218617996649,
            22.952845862025214
          ],
          [
            120.21860123016874,
            22.952922226422146
          ],
          [
            120.21859315384019,
            22.952959006386383
          ],
          [
            120.21856418454217,
            22.953137826035622
          ],
          [
            120.2185118837552,
            22.95344758424488
          ],
          [
            120.21847142615958,
            22.9536976063883
          ],
          [
            120.21843630306577,
            22.953944081542456
          ],
          [
            120.21842134399878,
            22.954066641576333
          ],
          [
            120.21839705451941,
            22.954234456537016
          ],
          [
            120.21837365508952,
            22.954410105058198
          ],
          [
            120.2183535620874,
            22.954558613343202
          ],
          [
            120.21831643056343,
            22.954796129610262
          ],
          [
            120.21828549405595,
            22.955039871104677
          ],
          [
            120.21824405884868,
            22.955292872783673
          ],
          [
            120.21821181213107,
            22.955519540710704
          ],
          [
            120.21818132328534,
            22.9557238359401
          ],
          [
            120.21814350692931,
            22.95600098589398
          ],
          [
            120.2181105192079,
            22.95623028874421
          ],
          [
            120.21789089386311,
            22.957773643196916
          ],
          [
            120.21784394751943,
            22.958108200773214
          ],
          [
            120.21780951882421,
            22.958334038710447
          ],
          [
            120.21779703731085,
            22.95841591262885
          ],
          [
            120.21775769677024,
            22.958712951977066
          ],
          [
            120.2177121268799,
            22.959030505170066
          ],
          [
            120.21766883593762,
            22.959326647245824
          ],
          [
            120.21762885514413,
            22.959624187242888
          ],
          [
            120.21759081838093,
            22.95988904750753
          ],
          [
            120.2175571785933,
            22.96012318976526
          ],
          [
            120.21753016608662,
            22.960314054095598
          ],
          [
            120.21751588335107,
            22.960424188093516
          ],
          [
            120.21750756073341,
            22.96048024619636
          ],
          [
            120.21749344460375,
            22.960575314136086
          ],
          [
            120.21746130132327,
            22.9607984351567
          ],
          [
            120.21742745605852,
            22.961046508115587
          ],
          [
            120.21739110650162,
            22.961307453878323
          ],
          [
            120.21737246847657,
            22.961488083111842
          ],
          [
            120.21735853331008,
            22.961633680347205
          ],
          [
            120.2173450392576,
            22.961772433967692
          ],
          [
            120.21732805591947,
            22.961974752835165
          ],
          [
            120.21731299067399,
            22.962188590137927
          ],
          [
            120.21729436492586,
            22.9624485360677
          ],
          [
            120.21729883091852,
            22.963353822814703
          ],
          [
            120.21732322130117,
            22.964085485956236
          ],
          [
            120.21740709974202,
            22.965290345381334
          ],
          [
            120.21749327688453,
            22.96661584568892
          ]
        ]
      }
    }
  ]
}