{
  "type": "FeatureCollection",
  "features": [
    {
      "type": "Feature",
      "properties": {
        "track_id": "OD-TC-TZ",
        "source_track": "BB-TT-ZY-0",
        "point_count": 898
      },
      "geometry": {
        "type": "LineString",
        "coordinates": [
          [
            120.63378073892136,
            24.11030886343067
          ],
          [
            120.63349366406158,
            24.110150969196678
          ],
          [
            120.63324687029096,
            24.11000911147991
          ],
          [
            120.63316133533294,
            24.10996343448637
          ],
          [
            120.63307561961956,
            24.109919763327138
          ],
          [
            120.63307490240952,
            24.109919449190322
          ],
          [
            120.63305905675652,
            24.109911207096566
          ],
          [
            120.63305833773359,
            24.109910838779395
          ],
          [
            120.63305552782826,
            24.109909613073096
          ],
          [
            120.63299819007875,
            24.10988459236282
          ],
          [
            120.63286857362553,
            24.10981817009937
          ],
          [
            120.6327156775129,
            24.109753620438298
          ],
          [
            120.63254044810402,
            24.10967853207066
          ],
          [
            120.63235857830496,
            24.1096077868853
          ],
          [
            120.6321708303376,
            24.109537646747143
          ],
          [
            120.63194152203117,
            24.10946031645789
          ],
          [
            120.63180510651888,
            24.109414086355113
          ],
          [
            120.6316400449392,
            24.109366064285773
          ],
          [
            120.63152642813272,
            24.109333500597565
          ],
          [
            120.63097967193974,
            24.10918669173102
          ],
          [
            120.63094339382299,
            24.109177165767594
          ],
          [
            120.63066297010121,
            24.109105270369547
          ],
          [
            120.62978864605346,
            24.108881575090066
          ],
          [
            120.62992632230224,
            24.1088720359058
          ],
          [
            120.63051655778847,
            24.10902110083018
          ],
          [
            120.63066297010121,
            24.109105270369547
          ],
          [
            120.63047012992902,
            24.109122284936042
          ],
          [
            120.62987145526796,
            24.10896453304541
          ],
          [
            120.62978864605346,
            24.108881575090066
          ],
          [
            120.62864697631512,
            24.108610092323755
          ],
          [
            120.62820778885984,
            24.10854326657871
          ],
          [
            120.62774415729827,
            24.10850153752989
          ],
          [
            120.6273415881959,
            24.10848315593805
          ],
          [
            120.62703535807248,
            24.108480478381964
          ],
          [
            120.6266074095411,
            24.10849103328913
          ],
          [
            120.6257929611116,
            24.10855484224896
          ],
          [
            120.62529576751601,
            24.108613226476063
          ],
          [
            120.62473505574106,
            24.108692373144294
          ],
          [
            120.62413822873293,
            24.10878739727406
          ],
          [
            120.623535,
            24.108862
          ],
          [
            120.6196025792799,
            24.10925414067286
          ],
          [
            120.61598,
            24.109618
          ],
          [
            120.61524434254368,
            24.109694523724755
          ],
          [
            120.61478845158582,
            24.10975494062473
          ],
          [
            120.61378451694591,
            24.10984627886621
          ],
          [
            120.61116487145532,
            24.110142965997774
          ],
          [
            120.60805552228993,
            24.11046786597209
          ],
          [
            120.60750058426565,
            24.110525845355923
          ],
          [
            120.60568117420715,
            24.110726500158236
          ],
          [
            120.60524250762953,
            24.110774875200082
          ],
          [
            120.60488506075916,
            24.110814292466895
          ],
          [
            120.60047773353011,
            24.1112819832198
          ],
          [
            120.59957912578602,
            24.11140435635133
          ],
          [
            120.59870929126691,
            24.111566741749442
          ],
          [
            120.59813610290597,
            24.111703112714316
          ],
          [
            120.59769215665177,
            24.111819186297808
          ],
          [
            120.5974105448431,
            24.111900022466287
          ],
          [
            120.596763598566,
            24.11210917949797
          ],
          [
            120.59553645823596,
            24.112539687187684
          ],
          [
            120.59471280006885,
            24.112837970672675
          ],
          [
            120.59290607857822,
            24.113552153003514
          ],
          [
            120.59222057645071,
            24.113693231605343
          ],
          [
            120.59096115766535,
            24.11413573148217
          ],
          [
            120.59016310938335,
            24.114415117976627
          ],
          [
            120.58918420990959,
            24.11476975445083
          ],
          [
            120.58698939924518,
            24.115584117008996
          ],
          [
            120.58649848524023,
            24.11572998181906
          ],
          [
            120.58615570638648,
            24.115806223375024
          ],
          [
            120.58572052395904,
            24.11586741011132
          ],
          [
            120.58535750235883,
            24.11590070046225
          ],
          [
            120.58495766611799,
            24.115907343850495
          ],
          [
            120.58455794699356,
            24.115902076886858
          ],
          [
            120.58420938130958,
            24.115875955020044
          ],
          [
            120.5838457114045,
            24.115829726347716
          ],
          [
            120.58343221617837,
            24.1157618550241
          ],
          [
            120.58312990588615,
            24.11569048467329
          ],
          [
            120.58305556319486,
            24.115669535226623
          ],
          [
            120.5828425898008,
            24.11560952042545
          ],
          [
            120.5824865754333,
            24.115484221958248
          ],
          [
            120.58216159863719,
            24.11535596649193
          ],
          [
            120.58162613446352,
            24.11509049217825
          ],
          [
            120.58131975300688,
            24.11491663380945
          ],
          [
            120.5811071137271,
            24.11477575398949
          ],
          [
            120.5808577429574,
            24.114595351272502
          ],
          [
            120.58042222783112,
            24.114250337121195
          ],
          [
            120.58025591707253,
            24.114102684974434
          ],
          [
            120.58007764557739,
            24.11391550389377
          ],
          [
            120.57972003247745,
            24.11351685301306
          ],
          [
            120.57956123371584,
            24.113316652301293
          ],
          [
            120.57915654464709,
            24.112662276873984
          ],
          [
            120.57896458192991,
            24.112280026099516
          ],
          [
            120.57873986144236,
            24.11169971593981
          ],
          [
            120.57861400598055,
            24.11128526612945
          ],
          [
            120.57835228720569,
            24.11049782449045
          ],
          [
            120.57801950610906,
            24.109481091512375
          ],
          [
            120.57789627308159,
            24.109103711692626
          ],
          [
            120.57770614345263,
            24.108513790754383
          ],
          [
            120.57748920752896,
            24.10787008744078
          ],
          [
            120.57728065546097,
            24.107229144660167
          ],
          [
            120.57709639621669,
            24.106674489457507
          ],
          [
            120.57695811711257,
            24.10626242359499
          ],
          [
            120.5767352801307,
            24.105581765758483
          ],
          [
            120.57652266368522,
            24.1049292422542
          ],
          [
            120.57629674809701,
            24.104240909314303
          ],
          [
            120.5761044436199,
            24.10366694392738
          ],
          [
            120.57606309138836,
            24.103555016821343
          ],
          [
            120.57588256153727,
            24.103066384398982
          ],
          [
            120.57569908433734,
            24.102642157625525
          ],
          [
            120.57552921718195,
            24.10229935845223
          ],
          [
            120.57535184896024,
            24.101967516057776
          ],
          [
            120.57515185111686,
            24.101616876579804
          ],
          [
            120.5749452551895,
            24.101283807548914
          ],
          [
            120.57469146276792,
            24.100903941729975
          ],
          [
            120.57443418542047,
            24.100567074111282
          ],
          [
            120.5741533850863,
            24.100223034473785
          ],
          [
            120.57384739984738,
            24.099871771103885
          ],
          [
            120.57356524860656,
            24.099592060335922
          ],
          [
            120.57330147831365,
            24.0993254747781
          ],
          [
            120.57305306541001,
            24.099099825332054
          ],
          [
            120.5727982774674,
            24.098865903089212
          ],
          [
            120.57251253190626,
            24.098633241023382
          ],
          [
            120.5725117097482,
            24.09863260486777
          ],
          [
            120.57223941578332,
            24.098421670081994
          ],
          [
            120.5721172183071,
            24.098333799919757
          ],
          [
            120.57211662365907,
            24.098333372072602
          ],
          [
            120.57158799466237,
            24.097952801998993
          ],
          [
            120.57097359250994,
            24.097584305367185
          ],
          [
            120.57010026994945,
            24.097154519797506
          ],
          [
            120.5694642794947,
            24.096887406867097
          ],
          [
            120.56910393999428,
            24.096753351288207
          ],
          [
            120.56885000339057,
            24.096658877838202
          ],
          [
            120.56665341231742,
            24.095841655018603
          ],
          [
            120.56551381804574,
            24.095418903287097
          ],
          [
            120.56431640017462,
            24.094990691693635
          ],
          [
            120.56405838127817,
            24.094894941830518
          ],
          [
            120.56401137278871,
            24.094877497722656
          ],
          [
            120.56396296642563,
            24.094859534943904
          ],
          [
            120.5637845400449,
            24.09479332159404
          ],
          [
            120.56313669473084,
            24.09455468668794
          ],
          [
            120.5628301905591,
            24.09444252633172
          ],
          [
            120.56253719831096,
            24.09433531144906
          ],
          [
            120.5616801768705,
            24.0940192044749
          ],
          [
            120.56130712090516,
            24.093882081118736
          ],
          [
            120.56126297123544,
            24.093865853397098
          ],
          [
            120.56120998339581,
            24.09384637684028
          ],
          [
            120.55974051647014,
            24.09330623688878
          ],
          [
            120.55805838837436,
            24.092686521663484
          ],
          [
            120.55805549738527,
            24.092685456879984
          ],
          [
            120.55801165123069,
            24.092669303143886
          ],
          [
            120.55717530844639,
            24.09234136639711
          ],
          [
            120.55613479660825,
            24.091958169210663
          ],
          [
            120.55509662640715,
            24.09157941421909
          ],
          [
            120.55424596516342,
            24.091272161080745
          ],
          [
            120.55250727143714,
            24.090629538746068
          ],
          [
            120.55146983685589,
            24.090247416114856
          ],
          [
            120.5514305393833,
            24.09023294065518
          ],
          [
            120.551427966767,
            24.090231993159122
          ],
          [
            120.55137565875803,
            24.090212761713342
          ],
          [
            120.55096280020875,
            24.090060967491564
          ],
          [
            120.55087089923775,
            24.090027177251052
          ],
          [
            120.55053202083047,
            24.089902582281983
          ],
          [
            120.54961821266262,
            24.089563550666032
          ],
          [
            120.54927428736033,
            24.0894352568252
          ],
          [
            120.54880775918889,
            24.089261226526638
          ],
          [
            120.54789810689813,
            24.088926097623535
          ],
          [
            120.54691795973879,
            24.088565735240003
          ],
          [
            120.54591275266638,
            24.08819563990071
          ],
          [
            120.54586394963721,
            24.088177813822448
          ],
          [
            120.5458044850876,
            24.088156092430285
          ],
          [
            120.54574576708038,
            24.088134644111467
          ],
          [
            120.538402,
            24.081859
          ],
          [
            120.54574576708038,
            24.088134644111467
          ],
          [
            120.54497140790555,
            24.087851786567956
          ],
          [
            120.5445491854531,
            24.087697565371244
          ],
          [
            120.54421045111737,
            24.087573838186348
          ],
          [
            120.54326914112328,
            24.087228322199554
          ],
          [
            120.54272812469739,
            24.087022877394745
          ],
          [
            120.54252347182474,
            24.086934572883617
          ],
          [
            120.54234034563159,
            24.086852625938793
          ],
          [
            120.54219059293311,
            24.08678690138174
          ],
          [
            120.54198256355919,
            24.08667834871368
          ],
          [
            120.54179952511863,
            24.08655698044612
          ],
          [
            120.5416112040873,
            24.08643076275191
          ],
          [
            120.54140938175534,
            24.08627937313815
          ],
          [
            120.54122883355863,
            24.086133178427254
          ],
          [
            120.54103752475065,
            24.085943727132133
          ],
          [
            120.54093241795412,
            24.085832308124868
          ],
          [
            120.54082114372865,
            24.085688864429436
          ],
          [
            120.54065141490506,
            24.085485755650893
          ],
          [
            120.54047918075774,
            24.085251713863517
          ],
          [
            120.54028401688201,
            24.084950072947503
          ],
          [
            120.53995287593595,
            24.084438598495787
          ],
          [
            120.53959377146886,
            24.083873792553533
          ],
          [
            120.539440891691,
            24.083632864343514
          ],
          [
            120.53923656163768,
            24.08325801213549
          ],
          [
            120.53906267662738,
            24.082928849298575
          ],
          [
            120.53893995965954,
            24.08269698750056
          ],
          [
            120.53840197332002,
            24.081859017128853
          ],
          [
            120.53837341238368,
            24.081814530463152
          ],
          [
            120.53776618092267,
            24.080872695488413
          ],
          [
            120.53762116640364,
            24.080657980469415
          ],
          [
            120.53725724028193,
            24.080086206403585
          ],
          [
            120.53686197318147,
            24.079533086787503
          ],
          [
            120.53657906785051,
            24.079117354043063
          ],
          [
            120.53638738392613,
            24.07880998508436
          ],
          [
            120.5360181426413,
            24.078246775193524
          ],
          [
            120.53568667850709,
            24.077722189901426
          ],
          [
            120.53548530344379,
            24.07737618205899
          ],
          [
            120.53532288041512,
            24.07708595694102
          ],
          [
            120.53516144958162,
            24.076716847578837
          ],
          [
            120.53499697057556,
            24.076290310625055
          ],
          [
            120.53486757387941,
            24.075882570790917
          ],
          [
            120.53481022329592,
            24.075647973477903
          ],
          [
            120.53472711632804,
            24.07530801718921
          ],
          [
            120.53445392776636,
            24.0741033135029
          ],
          [
            120.53431766546201,
            24.073515612916726
          ],
          [
            120.53427541884635,
            24.07333340052359
          ],
          [
            120.53427531232468,
            24.07333294241422
          ],
          [
            120.53427514770179,
            24.07333223401661
          ],
          [
            120.53425875168662,
            24.07326128971611
          ],
          [
            120.5330603505137,
            24.068075548963613
          ],
          [
            120.53305843546413,
            24.06806642623859
          ],
          [
            120.53305554500683,
            24.068052656769577
          ],
          [
            120.53302083736307,
            24.067887308396113
          ],
          [
            120.53298986506965,
            24.067751455679392
          ],
          [
            120.53273502488712,
            24.06663085335866
          ],
          [
            120.53245271427788,
            24.065399988355562
          ],
          [
            120.5323168932712,
            24.064787098762814
          ],
          [
            120.53229725829473,
            24.064698498340135
          ],
          [
            120.53223030570038,
            24.064396375569057
          ],
          [
            120.53165710781752,
            24.061901672014745
          ],
          [
            120.53164070345073,
            24.06183027316463
          ],
          [
            120.53162515483912,
            24.061762600615822
          ],
          [
            120.53161153069085,
            24.061703305924663
          ],
          [
            120.53123505462507,
            24.06006472425264
          ],
          [
            120.53035297314136,
            24.056225380321504
          ],
          [
            120.53034837341201,
            24.056205359067086
          ],
          [
            120.53030958551032,
            24.056036527423984
          ],
          [
            120.53027343246833,
            24.055879164755698
          ],
          [
            120.53026521167733,
            24.055843376242542
          ],
          [
            120.53006192102808,
            24.054958497578767
          ],
          [
            120.52862730714008,
            24.048629994392876
          ],
          [
            120.52861779590626,
            24.048580834797207
          ],
          [
            120.52856880850163,
            24.04833362472931
          ],
          [
            120.52856872934164,
            24.048333223583942
          ],
          [
            120.52856858934678,
            24.04833251886624
          ],
          [
            120.5285374781305,
            24.04817551793445
          ],
          [
            120.52847321192773,
            24.04777370777617
          ],
          [
            120.52843555487927,
            24.047366542079047
          ],
          [
            120.52842594816893,
            24.04686732218113
          ],
          [
            120.52843776361969,
            24.046471785974074
          ],
          [
            120.52845599805771,
            24.04626534072834
          ],
          [
            120.52852018470672,
            24.045756761582247
          ],
          [
            120.52862409719941,
            24.045273761033556
          ],
          [
            120.52875994795419,
            24.044774916504565
          ],
          [
            120.52888634205492,
            24.044419497852804
          ],
          [
            120.52888811128278,
            24.044414521820123
          ],
          [
            120.52892663105041,
            24.044336072600245
          ],
          [
            120.52895350185399,
            24.044281345482837
          ],
          [
            120.52915724213813,
            24.043782097152214
          ],
          [
            120.5291648134471,
            24.043764099713268
          ],
          [
            120.52917231334928,
            24.04374627090265
          ],
          [
            120.5292399567952,
            24.04358233483937
          ],
          [
            120.52951039202436,
            24.04293553515565
          ],
          [
            120.5298348925065,
            24.04217019419951
          ],
          [
            120.53027379794732,
            24.041142143033618
          ],
          [
            120.53039589208423,
            24.040858802531353
          ],
          [
            120.53071041138887,
            24.04013492936982
          ],
          [
            120.53109954403658,
            24.039214149301923
          ],
          [
            120.53273476072437,
            24.03537777409373
          ],
          [
            120.53280947760798,
            24.035201586878394
          ],
          [
            120.53299827579175,
            24.034756268791543
          ],
          [
            120.53305555387858,
            24.034612293689857
          ],
          [
            120.53305848366088,
            24.034604928363105
          ],
          [
            120.53342649212667,
            24.033679886394403
          ],
          [
            120.53386130972281,
            24.032690137485154
          ],
          [
            120.53443207945557,
            24.031369153623967
          ],
          [
            120.53489595726948,
            24.03029798805505
          ],
          [
            120.53539187775014,
            24.029115791174796
          ],
          [
            120.53594726675772,
            24.027809320163282
          ],
          [
            120.53609029117173,
            24.0274767672837
          ],
          [
            120.5361918808452,
            24.02724055564795
          ],
          [
            120.53625954044314,
            24.027087955019443
          ],
          [
            120.5362765901045,
            24.027049500975775
          ],
          [
            120.53629228097914,
            24.02701411098942
          ],
          [
            120.53656580543155,
            24.026397193085185
          ],
          [
            120.53706407839044,
            24.025369970381888
          ],
          [
            120.53723462225547,
            24.024945848105098
          ],
          [
            120.53731639162254,
            24.024742497429738
          ],
          [
            120.537901527272,
            24.02333358776959
          ],
          [
            120.53790168889985,
            24.023333198188976
          ],
          [
            120.53790199231744,
            24.0233324686294
          ],
          [
            120.53791296812598,
            24.023304915251313
          ],
          [
            120.53793532387033,
            24.023254727096816
          ],
          [
            120.53812947099446,
            24.022762181531824
          ],
          [
            120.53817219252849,
            24.02265820456069
          ],
          [
            120.53818566912057,
            24.02262540451559
          ],
          [
            120.53820037238333,
            24.022589618546956
          ],
          [
            120.5382558553806,
            24.02245458020431
          ],
          [
            120.53853583383619,
            24.02179796743146
          ],
          [
            120.53867706993,
            24.021466905201915
          ],
          [
            120.53869129728639,
            24.021433556573772
          ],
          [
            120.53880042204284,
            24.021177761052694
          ],
          [
            120.53906771847184,
            24.02054772750653
          ],
          [
            120.5393349355528,
            24.01992238934151
          ],
          [
            120.53936155512577,
            24.01986014602346
          ],
          [
            120.539376679911,
            24.0198247819565
          ],
          [
            120.53939153805392,
            24.019790036500304
          ],
          [
            120.5395634492974,
            24.01938805773192
          ],
          [
            120.53971189868385,
            24.01904085530611
          ],
          [
            120.53982883519164,
            24.01878146793477
          ],
          [
            120.53997521432055,
            24.018468966951794
          ],
          [
            120.54013902468364,
            24.018152473865833
          ],
          [
            120.54026826742707,
            24.01792327207496
          ],
          [
            120.54042047665651,
            24.01766247216445
          ],
          [
            120.54057287566002,
            24.017422784207394
          ],
          [
            120.54072093077501,
            24.017199000929697
          ],
          [
            120.54092666200468,
            24.01691355810377
          ],
          [
            120.54109308045354,
            24.01669188813908
          ],
          [
            120.54126610948067,
            24.016471719486603
          ],
          [
            120.5415535758985,
            24.016115991127755
          ],
          [
            120.54209140163775,
            24.01546583144111
          ],
          [
            120.54285850703518,
            24.014533814061092
          ],
          [
            120.542974757905,
            24.01438785972166
          ],
          [
            120.5430932911838,
            24.01424379110389
          ],
          [
            120.54310420773622,
            24.014230522485395
          ],
          [
            120.54321182518342,
            24.01409972148777
          ],
          [
            120.54333035793152,
            24.013955652673282
          ],
          [
            120.54344889041751,
            24.013811582857485
          ],
          [
            120.54356742361792,
            24.01366751384921
          ],
          [
            120.54368595557322,
            24.01352344383672
          ],
          [
            120.54380448824615,
            24.0133793737288
          ],
          [
            120.54392301966763,
            24.01323530442253
          ],
          [
            120.54404155180673,
            24.013091235020823
          ],
          [
            120.54416008171462,
            24.01294716551493
          ],
          [
            120.54427861332626,
            24.012803095013613
          ],
          [
            120.54439714368966,
            24.01265902441103
          ],
          [
            120.5445156747675,
            24.012514954615945
          ],
          [
            120.54463420558322,
            24.012370883819585
          ],
          [
            120.54474147145442,
            24.012240503208943
          ],
          [
            120.54474965120623,
            24.01223056178673
          ],
          [
            120.5447527351475,
            24.012226813824896
          ],
          [
            120.54476057824544,
            24.01221728855913
          ],
          [
            120.5447942388831,
            24.01217641143514
          ],
          [
            120.54487133308723,
            24.01208279088843
          ],
          [
            120.5449903200397,
            24.011939038987375
          ],
          [
            120.54507692526137,
            24.011835282200007
          ],
          [
            120.54511007350283,
            24.011795824704702
          ],
          [
            120.54523083857242,
            24.01165333025624
          ],
          [
            120.54535263580642,
            24.011511579176975
          ],
          [
            120.54547545732426,
            24.011370575955777
          ],
          [
            120.54559822350043,
            24.01123153906391
          ],
          [
            120.54559930014743,
            24.011230328707853
          ],
          [
            120.54572409562162,
            24.011090793886254
          ],
          [
            120.5458495290166,
            24.010951744821817
          ],
          [
            120.54594271867434,
            24.010848807929893
          ],
          [
            120.54597523663337,
            24.01081290413685
          ],
          [
            120.54610096848937,
            24.010674081473553
          ],
          [
            120.54622670007149,
            24.010535259603483
          ],
          [
            120.54635243236899,
            24.010396436723717
          ],
          [
            120.5464781624299,
            24.01025761372844
          ],
          [
            120.54660389319673,
            24.01011879243224
          ],
          [
            120.54672962369922,
            24.00997996922051
          ],
          [
            120.54685535392778,
            24.009841146802014
          ],
          [
            120.54697527488428,
            24.009708737827996
          ],
          [
            120.54698108487176,
            24.00970232337382
          ],
          [
            120.54710675573843,
            24.00956345631822
          ],
          [
            120.54723211165688,
            24.009424348042142
          ],
          [
            120.54735684773178,
            24.00928477100864
          ],
          [
            120.54748065709288,
            24.00914450038474
          ],
          [
            120.54759763689974,
            24.00900981854882
          ],
          [
            120.54760322892288,
            24.00900331584148
          ],
          [
            120.54772430727493,
            24.00886104687431
          ],
          [
            120.54784383323884,
            24.0087176752542
          ],
          [
            120.54797383832452,
            24.008558153789284
          ],
          [
            120.54798824117174,
            24.008540143822458
          ],
          [
            120.54807818063466,
            24.008427679912078
          ],
          [
            120.5481385880549,
            24.008350927676673
          ],
          [
            120.5481716051224,
            24.008308539059154
          ],
          [
            120.54819298524475,
            24.00828108955629
          ],
          [
            120.54830635289797,
            24.008133557624888
          ],
          [
            120.54831375305706,
            24.008123782553003
          ],
          [
            120.5483371691177,
            24.008092850075275
          ],
          [
            120.54841858657888,
            24.007985296301065
          ],
          [
            120.54853000794682,
            24.0078365178221
          ],
          [
            120.54864093377114,
            24.007687427186454
          ],
          [
            120.54869905667029,
            24.00760913209054
          ],
          [
            120.54875168377858,
            24.00753822669153
          ],
          [
            120.5488624266643,
            24.007389021575012
          ],
          [
            120.54897316831004,
            24.007239816368884
          ],
          [
            120.54908390969868,
            24.007090611076055
          ],
          [
            120.54919465083024,
            24.006941405696516
          ],
          [
            120.5493053926876,
            24.006792200233175
          ],
          [
            120.54941613330816,
            24.006642993777287
          ],
          [
            120.54950262747863,
            24.0065264565271
          ],
          [
            120.54952687464822,
            24.00649378904346
          ],
          [
            120.54963773244486,
            24.006344656800874
          ],
          [
            120.54974907055819,
            24.006195826561335
          ],
          [
            120.54980852777965,
            24.00611699497532
          ],
          [
            120.54986127146609,
            24.006047544143154
          ],
          [
            120.54997453422394,
            24.00589994556951
          ],
          [
            120.550088866646,
            24.005753044405107
          ],
          [
            120.55020426182837,
            24.005606846947853
          ],
          [
            120.55032071581903,
            24.005461358601448
          ],
          [
            120.55033115796978,
            24.00544841129572
          ],
          [
            120.55043817366226,
            24.00531655392003
          ],
          [
            120.55055633332256,
            24.00517223156352
          ],
          [
            120.55065576098751,
            24.005051289977573
          ],
          [
            120.550674812375,
            24.00502813036319
          ],
          [
            120.55079332940716,
            24.004884054459012
          ],
          [
            120.55089958468463,
            24.00475522296832
          ],
          [
            120.55137533877777,
            24.004176658390737
          ],
          [
            120.55169860050972,
            24.003783533525414
          ],
          [
            120.55265681301405,
            24.00261871050184
          ],
          [
            120.55371340498694,
            24.001331508620396
          ],
          [
            120.55469169099472,
            24.000147652294906
          ],
          [
            120.55564575499571,
            23.998986477737205
          ],
          [
            120.55609713811886,
            23.998435363900086
          ],
          [
            120.5561183247051,
            23.998409496413498
          ],
          [
            120.55613954187783,
            23.998383591991775
          ],
          [
            120.5561806437749,
            23.998333409088712
          ],
          [
            120.55618095960891,
            23.99833302354462
          ],
          [
            120.55618159029099,
            23.99833225335652
          ],
          [
            120.55636465936021,
            23.998108733948644
          ],
          [
            120.55721766714235,
            23.997069072195377
          ],
          [
            120.55760649364736,
            23.99659628633116
          ],
          [
            120.5577405994884,
            23.996435280733525
          ],
          [
            120.55790285617984,
            23.996224821776533
          ],
          [
            120.55802770932071,
            23.99606253505238
          ],
          [
            120.55804339037569,
            23.99603433808245
          ],
          [
            120.55805550465253,
            23.99601594940337
          ],
          [
            120.5580583479801,
            23.996011633416924
          ],
          [
            120.55806011345878,
            23.996008951354796
          ],
          [
            120.55824304516327,
            23.995729876668896
          ],
          [
            120.558357879727,
            23.995556553952767
          ],
          [
            120.55846851903735,
            23.9953740804056
          ],
          [
            120.55859201159736,
            23.995157549642833
          ],
          [
            120.55868980356998,
            23.994960710178855
          ],
          [
            120.5588273820897,
            23.994679892459
          ],
          [
            120.55893829786964,
            23.994412688302056
          ],
          [
            120.55904297224313,
            23.994154441333016
          ],
          [
            120.55922386367857,
            23.993682289127378
          ],
          [
            120.55941131785178,
            23.9931870682285
          ],
          [
            120.55960682770369,
            23.992675353592364
          ],
          [
            120.55970183601383,
            23.99242298355989
          ],
          [
            120.5597208749214,
            23.99237241032827
          ],
          [
            120.55973065966234,
            23.99234642017913
          ],
          [
            120.5597468898816,
            23.99230330529795
          ],
          [
            120.5597843011482,
            23.992203928474876
          ],
          [
            120.55979025172194,
            23.99218812061441
          ],
          [
            120.5598194110716,
            23.992111359529968
          ],
          [
            120.55999225318787,
            23.99165635254513
          ],
          [
            120.56020352400446,
            23.99110307649485
          ],
          [
            120.56040199202299,
            23.990587748322106
          ],
          [
            120.56062090148869,
            23.990019962019062
          ],
          [
            120.56074046199839,
            23.989709857476207
          ],
          [
            120.56099800746304,
            23.989045839572288
          ],
          [
            120.56106627227095,
            23.988862634021338
          ],
          [
            120.56108197644767,
            23.9888204890286
          ],
          [
            120.5610986744011,
            23.988775675977166
          ],
          [
            120.56112212848524,
            23.98871272952276
          ],
          [
            120.56126866816419,
            23.988333136849025
          ],
          [
            120.56152588035337,
            23.987658515487837
          ],
          [
            120.56175268723042,
            23.987070074679217
          ],
          [
            120.56190831916584,
            23.986650804903928
          ],
          [
            120.56202921574983,
            23.98633983300997
          ],
          [
            120.56212115420901,
            23.98608658557346
          ],
          [
            120.56222813777138,
            23.985809651696847
          ],
          [
            120.56236073488584,
            23.9854650963571
          ],
          [
            120.56244162822075,
            23.985252182285333
          ],
          [
            120.56250915992611,
            23.985074437565064
          ],
          [
            120.56270761652704,
            23.984552560333107
          ],
          [
            120.56292074688177,
            23.98399337982018
          ],
          [
            120.56312337011057,
            23.98346443474369
          ],
          [
            120.56333780287522,
            23.982904083414855
          ],
          [
            120.56362308498784,
            23.98215197586449
          ],
          [
            120.56388025535476,
            23.98147941915459
          ],
          [
            120.56410656770278,
            23.980882476050002
          ],
          [
            120.56429298426819,
            23.98039520893543
          ],
          [
            120.56452734244144,
            23.97978033833407
          ],
          [
            120.56454535814206,
            23.979732782719108
          ],
          [
            120.56459563448334,
            23.979600064615653
          ],
          [
            120.56476733190945,
            23.979146832992225
          ],
          [
            120.5647802015621,
            23.9791128592577
          ],
          [
            120.56495352066571,
            23.97865565813103
          ],
          [
            120.56512517473793,
            23.978208139722142
          ],
          [
            120.56527917716843,
            23.977805503317832
          ],
          [
            120.56541791708422,
            23.97743899900769
          ],
          [
            120.56552803675393,
            23.97716028250685
          ],
          [
            120.56563471100178,
            23.976877647317814
          ],
          [
            120.56577533390737,
            23.976516055443334
          ],
          [
            120.5660313186036,
            23.97585064233274
          ],
          [
            120.56617137870239,
            23.97547743567663
          ],
          [
            120.56625943685776,
            23.975224273573964
          ],
          [
            120.56639727290292,
            23.974860722776384
          ],
          [
            120.56657845150288,
            23.974397662573494
          ],
          [
            120.5667141132315,
            23.97404052612182
          ],
          [
            120.56686121239262,
            23.973665460455035
          ],
          [
            120.56698745505531,
            23.973333807086593
          ],
          [
            120.56698760177319,
            23.973333422846615
          ],
          [
            120.5669994456024,
            23.973302307420667
          ],
          [
            120.56705758143984,
            23.97315094667361
          ],
          [
            120.56714043869206,
            23.97293521525372
          ],
          [
            120.56740857531996,
            23.97222798220694
          ],
          [
            120.56745301969988,
            23.97211258937218
          ],
          [
            120.56749006043505,
            23.972016414679622
          ],
          [
            120.5677192144969,
            23.97142143523691
          ],
          [
            120.56796602560706,
            23.970772182174542
          ],
          [
            120.56819695884879,
            23.970153854941653
          ],
          [
            120.56830488723406,
            23.969880560185317
          ],
          [
            120.56834096731829,
            23.969789197040825
          ],
          [
            120.56839632410578,
            23.969649019857798
          ],
          [
            120.56858247680834,
            23.969145221829336
          ],
          [
            120.56880476519282,
            23.968571980281144
          ],
          [
            120.56898696626764,
            23.968103420598638
          ],
          [
            120.5690581182818,
            23.9679118015964
          ],
          [
            120.56908413716745,
            23.96784173031551
          ],
          [
            120.5691801634873,
            23.96758312030003
          ],
          [
            120.56929620545765,
            23.967254972836322
          ],
          [
            120.56930859969307,
            23.967219925513234
          ],
          [
            120.56936212882323,
            23.96703886829072
          ],
          [
            120.56938672956896,
            23.96695131196222
          ],
          [
            120.56945179215612,
            23.966681575462925
          ],
          [
            120.56949207608506,
            23.96646832536226
          ],
          [
            120.56953817174012,
            23.96619982501147
          ],
          [
            120.56956616412845,
            23.96595515766019
          ],
          [
            120.56961225930004,
            23.965565069441645
          ],
          [
            120.56964111818279,
            23.96534078123645
          ],
          [
            120.56964508381151,
            23.965299687601973
          ],
          [
            120.56965608966148,
            23.96501327007326
          ],
          [
            120.5696570838471,
            23.964867123123152
          ],
          [
            120.5696592513686,
            23.964548683143807
          ],
          [
            120.56966137152914,
            23.964237102690443
          ],
          [
            120.56965893215127,
            23.963777325349362
          ],
          [
            120.5696497145117,
            23.963414152215364
          ],
          [
            120.56965038184511,
            23.963298375775405
          ],
          [
            120.56964810833755,
            23.963171045131958
          ],
          [
            120.5696493305669,
            23.962802574764144
          ],
          [
            120.56964740697336,
            23.962551486543408
          ],
          [
            120.56965519605198,
            23.96167705119758
          ],
          [
            120.56965304694049,
            23.961176276291372
          ],
          [
            120.56964847008558,
            23.960474154906297
          ],
          [
            120.56965424926874,
            23.959537908883338
          ],
          [
            120.56965403514798,
            23.959469999889176
          ],
          [
            120.56965124605735,
            23.958585432062986
          ],
          [
            120.56964203816621,
            23.957565708917688
          ],
          [
            120.56964812328918,
            23.956558756426563
          ],
          [
            120.56965602787218,
            23.955450234715148
          ],
          [
            120.56965637052551,
            23.9544741204192
          ],
          [
            120.56964795658502,
            23.953314821548283
          ],
          [
            120.56965018979491,
            23.952175417160635
          ],
          [
            120.56964530638459,
            23.951231815546084
          ],
          [
            120.56964825300886,
            23.950437269783148
          ],
          [
            120.56963498813853,
            23.949457475139127
          ],
          [
            120.56961925714118,
            23.948333817799014
          ],
          [
            120.56961195385162,
            23.94748882066158
          ],
          [
            120.56961034950119,
            23.946683007432846
          ],
          [
            120.56960976335698,
            23.946647946168067
          ],
          [
            120.56960265587514,
            23.94622279265225
          ],
          [
            120.56959821016558,
            23.946123020808542
          ],
          [
            120.56959412841057,
            23.9460314081093
          ],
          [
            120.56959870700335,
            23.945337118794125
          ],
          [
            120.56960775087764,
            23.944663801136784
          ],
          [
            120.56960764506479,
            23.94465423592128
          ],
          [
            120.5695975445988,
            23.943737876946734
          ],
          [
            120.56959939208645,
            23.942685685756377
          ],
          [
            120.56959841484768,
            23.941494604153508
          ],
          [
            120.56960113814307,
            23.940178234301264
          ],
          [
            120.56960113890042,
            23.9387928497128
          ],
          [
            120.56960113866577,
            23.938552376644793
          ],
          [
            120.5696005390322,
            23.937989927826486
          ],
          [
            120.56960022715332,
            23.937697672504612
          ],
          [
            120.56960027800353,
            23.93745807811404
          ],
          [
            120.56959750210927,
            23.936706384169554
          ],
          [
            120.56960127321533,
            23.936102087688635
          ],
          [
            120.5696190098594,
            23.935454180860937
          ],
          [
            120.56964214846508,
            23.93518609623533
          ],
          [
            120.56967855565411,
            23.934829759377703
          ],
          [
            120.56972806462073,
            23.934480484121025
          ],
          [
            120.56979344319379,
            23.934103406335655
          ],
          [
            120.56986759639898,
            23.933772403433533
          ],
          [
            120.5699420719094,
            23.933468832050803
          ],
          [
            120.57003230435748,
            23.93315923960379
          ],
          [
            120.57016858781171,
            23.932737302834752
          ],
          [
            120.57030557867299,
            23.932332568158333
          ],
          [
            120.57047039776982,
            23.931838998664418
          ],
          [
            120.57068846591213,
            23.931191406444345
          ],
          [
            120.57090641150856,
            23.930550794191227
          ],
          [
            120.57113358042821,
            23.92987406314723
          ],
          [
            120.57137116886823,
            23.92917934510339
          ],
          [
            120.57172506252854,
            23.928131113865373
          ],
          [
            120.57174079004791,
            23.92808393001788
          ],
          [
            120.57208892625702,
            23.927039492849772
          ],
          [
            120.57220448047767,
            23.92672160072612
          ],
          [
            120.57236226950138,
            23.926243475734033
          ],
          [
            120.57237452465591,
            23.926207404494335
          ],
          [
            120.572564221236,
            23.92564906510548
          ],
          [
            120.57280126991796,
            23.924955382088843
          ],
          [
            120.57297690308404,
            23.92443890977047
          ],
          [
            120.57302525924779,
            23.924296707624237
          ],
          [
            120.57317607799094,
            23.923840030750775
          ],
          [
            120.5731828603899,
            23.9238194948348
          ],
          [
            120.57319063097742,
            23.923795966577842
          ],
          [
            120.57320164690952,
            23.923762612402278
          ],
          [
            120.57321203281751,
            23.923731165312283
          ],
          [
            120.57322002266112,
            23.92370697309119
          ],
          [
            120.57322911478879,
            23.92367944301566
          ],
          [
            120.57324142348895,
            23.923642171817644
          ],
          [
            120.57324942820678,
            23.92361793358545
          ],
          [
            120.57325587027032,
            23.923598428792168
          ],
          [
            120.5732559783916,
            23.923598108545157
          ],
          [
            120.57334518260176,
            23.923333781031268
          ],
          [
            120.57334531255209,
            23.923333394026468
          ],
          [
            120.573352827477,
            23.9233111255676
          ],
          [
            120.57361229787405,
            23.922549793714353
          ],
          [
            120.57383965274803,
            23.92187528483944
          ],
          [
            120.57408540666867,
            23.921143657133197
          ],
          [
            120.57434248253884,
            23.920389456729247
          ],
          [
            120.57456426934777,
            23.919731372914082
          ],
          [
            120.57476865828772,
            23.919126674475763
          ],
          [
            120.57493071164579,
            23.91862968177782
          ],
          [
            120.57503005180703,
            23.91830011669561
          ],
          [
            120.57508427161928,
            23.91810945503987
          ],
          [
            120.57510283439942,
            23.91804418057495
          ],
          [
            120.57519113164145,
            23.917709707091674
          ],
          [
            120.57531967698603,
            23.917188214497713
          ],
          [
            120.57556528802104,
            23.916182542302177
          ],
          [
            120.57583201190369,
            23.915083600573396
          ],
          [
            120.57607362903158,
            23.914102276904053
          ],
          [
            120.57628746836357,
            23.913230956745323
          ],
          [
            120.57651584054021,
            23.912286027853444
          ],
          [
            120.57661296717059,
            23.911888139774934
          ],
          [
            120.57661911674762,
            23.91186280273244
          ],
          [
            120.57663654993374,
            23.91179099385192
          ],
          [
            120.57685446270996,
            23.910900887029253
          ],
          [
            120.57706720560992,
            23.910031461196624
          ],
          [
            120.57718389210588,
            23.909576422595833
          ],
          [
            120.5772974400986,
            23.90911039263915
          ],
          [
            120.5774579117936,
            23.90844337249751
          ],
          [
            120.57758109604052,
            23.907946127480393
          ],
          [
            120.57782312373635,
            23.906954563311967
          ],
          [
            120.57802361388065,
            23.90615042601355
          ],
          [
            120.57820171759359,
            23.905417947551204
          ],
          [
            120.57832802359238,
            23.904903592065608
          ],
          [
            120.57843560956282,
            23.90445689391745
          ],
          [
            120.57855461872776,
            23.903971195934222
          ],
          [
            120.57865727687661,
            23.903546871864293
          ],
          [
            120.57866663006867,
            23.9035076777391
          ],
          [
            120.57868565804208,
            23.903427938647006
          ],
          [
            120.57869949563998,
            23.903369952813907
          ],
          [
            120.57877962957775,
            23.90303416012461
          ],
          [
            120.57898169512455,
            23.902212841253558
          ],
          [
            120.57899782370177,
            23.902147286781343
          ],
          [
            120.57915200924383,
            23.90150829800507
          ],
          [
            120.5791610904695,
            23.901471411942644
          ],
          [
            120.57917200682836,
            23.901427076120974
          ],
          [
            120.57918811017679,
            23.901361668732257
          ],
          [
            120.57928243596892,
            23.900978549189897
          ],
          [
            120.57944126264768,
            23.900343018359226
          ],
          [
            120.57989639074532,
            23.89833350622135
          ],
          [
            120.57989648239824,
            23.898333103754457
          ],
          [
            120.57989667368629,
            23.898332260015486
          ],
          [
            120.5800802985964,
            23.89764562468443
          ],
          [
            120.58012452970597,
            23.897480232244142
          ],
          [
            120.5803824098511,
            23.8966561862725
          ],
          [
            120.58047983697698,
            23.896257476523015
          ],
          [
            120.58061680987896,
            23.89568208428728
          ],
          [
            120.58086153781052,
            23.894727121842607
          ],
          [
            120.58103028585722,
            23.893965468532883
          ],
          [
            120.58119535910689,
            23.89316320902578
          ],
          [
            120.58139721946192,
            23.892339990632802
          ],
          [
            120.58147016973032,
            23.892034876806377
          ],
          [
            120.58153326505357,
            23.891734271665
          ],
          [
            120.58160763804341,
            23.891416508513064
          ],
          [
            120.58172986329264,
            23.890939998778137
          ],
          [
            120.58183283726463,
            23.890514355992785
          ],
          [
            120.5819389001564,
            23.890095696823792
          ],
          [
            120.58207379642312,
            23.88952030968634
          ],
          [
            120.5821802965164,
            23.889091905877684
          ],
          [
            120.58232319807118,
            23.888501202571987
          ],
          [
            120.58233297877676,
            23.888461506337723
          ],
          [
            120.58242309536341,
            23.888095736416126
          ],
          [
            120.58252455024765,
            23.887690033304125
          ],
          [
            120.58260583524084,
            23.88735219203975
          ],
          [
            120.58273922516874,
            23.886796352550114
          ],
          [
            120.58284739454062,
            23.886360440020237
          ],
          [
            120.5829289193142,
            23.88599811282384
          ],
          [
            120.58293823271289,
            23.885961627078643
          ],
          [
            120.58302546816493,
            23.8856198620268
          ],
          [
            120.58305553108309,
            23.885496056238214
          ],
          [
            120.58305816917114,
            23.885485192709396
          ],
          [
            120.58305970067491,
            23.885478886105634
          ],
          [
            120.5834326857923,
            23.883933021952185
          ],
          [
            120.58355692741229,
            23.88344246652665
          ],
          [
            120.58364529441027,
            23.883078361307863
          ],
          [
            120.58372696501488,
            23.882738438915993
          ],
          [
            120.58380950447905,
            23.882400279573996
          ],
          [
            120.58392393916643,
            23.8819358179016
          ],
          [
            120.58407347277729,
            23.88130565205213
          ],
          [
            120.58417645289825,
            23.880882054917613
          ],
          [
            120.58429094328031,
            23.880417747407595
          ],
          [
            120.58439496920934,
            23.879985999195842
          ],
          [
            120.5844382775954,
            23.879810033419194
          ],
          [
            120.58443843776175,
            23.879809384626355
          ],
          [
            120.58445375365261,
            23.87974715452856
          ],
          [
            120.5845667256423,
            23.879288142072195
          ],
          [
            120.58473773023776,
            23.878576350936257
          ],
          [
            120.58482961976003,
            23.87821401590542
          ],
          [
            120.58496948746259,
            23.87762714564852
          ],
          [
            120.58514753602,
            23.87690020318254
          ],
          [
            120.5851645678977,
            23.87683018509509
          ],
          [
            120.58516963128828,
            23.87680937024827
          ],
          [
            120.5851763950691,
            23.876781567490134
          ],
          [
            120.58525427794329,
            23.87646139130248
          ],
          [
            120.58535771542056,
            23.87603969137054
          ],
          [
            120.58545827036217,
            23.875625359827247
          ],
          [
            120.58555629951077,
            23.87522078234852
          ],
          [
            120.58563873233939,
            23.874882187884694
          ],
          [
            120.58573727112892,
            23.87447785540949
          ],
          [
            120.58582536255032,
            23.874119564486573
          ],
          [
            120.58591277096717,
            23.873756358666707
          ],
          [
            120.58599391278962,
            23.873424817965258
          ],
          [
            120.58601063860458,
            23.873355956510103
          ],
          [
            120.58601626646283,
            23.873333550325313
          ],
          [
            120.58601637286681,
            23.87333312893066
          ],
          [
            120.58604684912075,
            23.873211815570038
          ],
          [
            120.58615571085811,
            23.872768909967345
          ],
          [
            120.58619716651943,
            23.872597840650748
          ],
          [
            120.5862114699174,
            23.872538817591423
          ],
          [
            120.58622228501216,
            23.872494189122463
          ],
          [
            120.58629005278966,
            23.87221454761956
          ],
          [
            120.58646935901182,
            23.871485628855716
          ],
          [
            120.58663031908135,
            23.870819640889255
          ],
          [
            120.58680533270172,
            23.870152229411175
          ],
          [
            120.58690119007895,
            23.869804324397798
          ],
          [
            120.58701815301112,
            23.86941752143647
          ],
          [
            120.58715094648088,
            23.8690172444399
          ],
          [
            120.58735935455327,
            23.868449462783307
          ],
          [
            120.58744132590184,
            23.868240590008522
          ],
          [
            120.58748280591881,
            23.868134890785544
          ],
          [
            120.5875817192009,
            23.867882846863345
          ],
          [
            120.58789693525229,
            23.867124248451876
          ],
          [
            120.5882302909068,
            23.86632166144383
          ],
          [
            120.58848295230327,
            23.865698330757326
          ],
          [
            120.58866362437001,
            23.865265881313814
          ],
          [
            120.58869234939131,
            23.865197127368567
          ],
          [
            120.58871602290186,
            23.865140464075775
          ],
          [
            120.58873445298757,
            23.865096350531164
          ],
          [
            120.58880366685607,
            23.864930681864198
          ],
          [
            120.58898223404185,
            23.86449126545644
          ],
          [
            120.58921675369048,
            23.86392427374674
          ],
          [
            120.58951078130731,
            23.863213265820868
          ],
          [
            120.58968187218846,
            23.862826451124803
          ],
          [
            120.59015407805175,
            23.861724968870895
          ],
          [
            120.59041360305788,
            23.861119584565117
          ],
          [
            120.59099030909567,
            23.859528257577686
          ],
          [
            120.59144865488841,
            23.858424856642824
          ],
          [
            120.59341180944105,
            23.85369884714747
          ],
          [
            120.5934815118497,
            23.853529699091307
          ],
          [
            120.59367361162248,
            23.85307244871156
          ],
          [
            120.59416503600289,
            23.85188854711788
          ],
          [
            120.59444775241055,
            23.85121901275667
          ],
          [
            120.59494415620186,
            23.850008704346806
          ],
          [
            120.59525004181471,
            23.849321830035223
          ],
          [
            120.59560873876565,
            23.848458079102112
          ],
          [
            120.5956593970926,
            23.84833382655711
          ],
          [
            120.59565955438345,
            23.84833344050286
          ],
          [
            120.59569329753603,
            23.84825067431156
          ],
          [
            120.59588635536876,
            23.847795006095144
          ],
          [
            120.5960839935981,
            23.847315854569764
          ],
          [
            120.59625353792579,
            23.84690164048777
          ],
          [
            120.5964454999898,
            23.84642539010294
          ],
          [
            120.59659119180344,
            23.846070094497325
          ],
          [
            120.59675768387633,
            23.845671052344372
          ],
          [
            120.59692054449705,
            23.845283791342904
          ],
          [
            120.59697457812986,
            23.845159278937885
          ],
          [
            120.59698952686205,
            23.845124833058815
          ],
          [
            120.59699694832946,
            23.84510773142854
          ],
          [
            120.59708065771416,
            23.844914836808357
          ],
          [
            120.59725344398298,
            23.84446950574491
          ],
          [
            120.59739758743962,
            23.844089636525847
          ],
          [
            120.59754399534607,
            23.84376491689171
          ],
          [
            120.59768745807521,
            23.843420595151052
          ],
          [
            120.59783116838045,
            23.8430689599139
          ],
          [
            120.59796564229077,
            23.84274533736705
          ],
          [
            120.59808298722488,
            23.842462808922505
          ],
          [
            120.59820255878452,
            23.842171131053824
          ],
          [
            120.59830613436684,
            23.84191899539908
          ],
          [
            120.59840071170859,
            23.84168466157289
          ],
          [
            120.59850123850777,
            23.841447165657613
          ],
          [
            120.59860788913188,
            23.841184293437312
          ],
          [
            120.5987462978978,
            23.840853853948555
          ],
          [
            120.59887290743039,
            23.840548287281273
          ],
          [
            120.59900793163536,
            23.840223084913003
          ],
          [
            120.5991586749886,
            23.839858094556735
          ],
          [
            120.59930348477383,
            23.839500961522344
          ],
          [
            120.59947976906584,
            23.839075212797486
          ],
          [
            120.59961530050235,
            23.838736946166083
          ],
          [
            120.59970105452257,
            23.838538259077346
          ],
          [
            120.59970853979699,
            23.838520915465974
          ],
          [
            120.5997554425845,
            23.838412243018865
          ],
          [
            120.599757582845,
            23.83840703577831
          ],
          [
            120.59975815450154,
            23.838405645798662
          ],
          [
            120.59988371748668,
            23.83810014315737
          ],
          [
            120.60002782441232,
            23.837756428217762
          ],
          [
            120.60015051991272,
            23.83744798776654
          ],
          [
            120.60027229448406,
            23.83714869271916
          ],
          [
            120.60038157263405,
            23.8368877320166
          ],
          [
            120.60052617808923,
            23.83653420894348
          ],
          [
            120.60065715639352,
            23.83621928002832
          ],
          [
            120.60078580246339,
            23.835912443609743
          ],
          [
            120.60091852988025,
            23.835590728687738
          ],
          [
            120.60106057924496,
            23.835237190277933
          ],
          [
            120.60119676869994,
            23.834908963742915
          ],
          [
            120.60135003799947,
            23.834535634023272
          ],
          [
            120.6014980912977,
            23.834176375950463
          ],
          [
            120.60167671521371,
            23.833754054348162
          ],
          [
            120.60180250976265,
            23.83344720143592
          ],
          [
            120.60193239570613,
            23.833124690760716
          ],
          [
            120.60206224420405,
            23.832808448226046
          ],
          [
            120.60217651491675,
            23.832523470174454
          ],
          [
            120.6023285493932,
            23.83216371577716
          ],
          [
            120.60247029199988,
            23.831812007150877
          ],
          [
            120.6026613886986,
            23.831353171660304
          ],
          [
            120.60269571763946,
            23.831270749197657
          ],
          [
            120.6028010269146,
            23.831017910137838
          ],
          [
            120.6029246675652,
            23.830733252649164
          ],
          [
            120.60303960274233,
            23.830474155376898
          ],
          [
            120.6031691190163,
            23.830203392236463
          ],
          [
            120.60333221718497,
            23.82988368448863
          ],
          [
            120.60347095187095,
            23.829634670074643
          ],
          [
            120.60364147149436,
            23.82934977312535
          ],
          [
            120.60384198606272,
            23.82904232298626
          ],
          [
            120.60402433467334,
            23.8287724000143
          ],
          [
            120.60421741894478,
            23.82850959173028
          ],
          [
            120.60443607127642,
            23.82820826516655
          ],
          [
            120.60463885301235,
            23.82794212217526
          ],
          [
            120.60479586043844,
            23.82771882456866
          ],
          [
            120.60492694811808,
            23.827543200051814
          ],
          [
            120.60509589189168,
            23.827319715993816
          ],
          [
            120.60541078637179,
            23.826909195257336
          ],
          [
            120.60590264052804,
            23.826248747980248
          ],
          [
            120.60626726860362,
            23.825756686646624
          ],
          [
            120.60665667049808,
            23.82523225403404
          ],
          [
            120.60712215238249,
            23.824613957002597
          ],
          [
            120.60758769421255,
            23.823974576215846
          ],
          [
            120.60804529838954,
            23.823333342533346
          ],
          [
            120.60804555364295,
            23.823332997346903
          ],
          [
            120.60805550558015,
            23.823319535067814
          ],
          [
            120.60805804530497,
            23.82331609942398
          ],
          [
            120.60873473178461,
            23.822400705145114
          ],
          [
            120.60930399846796,
            23.821635088395197
          ],
          [
            120.6094600096275,
            23.821424598943747
          ],
          [
            120.60971873825198,
            23.82107743384896
          ],
          [
            120.60997439551225,
            23.82072856294801
          ],
          [
            120.61022657518345,
            23.820386824351154
          ],
          [
            120.61046957435077,
            23.8200582815275
          ],
          [
            120.6108476081388,
            23.819545563667592
          ],
          [
            120.61113022760237,
            23.819168833661426
          ],
          [
            120.611464297923,
            23.818717438341682
          ],
          [
            120.6116174518966,
            23.81850955614902
          ],
          [
            120.61173614358859,
            23.818345417860648
          ],
          [
            120.61183330599607,
            23.81821558310811
          ],
          [
            120.61186613318173,
            23.81817261777337
          ],
          [
            120.6119670079488,
            23.818040594457145
          ],
          [
            120.61207776891331,
            23.817910934618737
          ],
          [
            120.6121657196086,
            23.817806455210274
          ],
          [
            120.61226806201552,
            23.817692961512673
          ],
          [
            120.61239891077727,
            23.817550979504986
          ],
          [
            120.61247504115425,
            23.81747022360502
          ],
          [
            120.61256772869243,
            23.81737572369115
          ],
          [
            120.61266116879956,
            23.81728687907476
          ],
          [
            120.61273403681757,
            23.817219546455814
          ],
          [
            120.61280929343911,
            23.81714932218232
          ],
          [
            120.6128533535007,
            23.817108216040204
          ],
          [
            120.61298943558413,
            23.816991624486004
          ],
          [
            120.61307884337411,
            23.81691662639361
          ],
          [
            120.61322129354777,
            23.816803796104637
          ],
          [
            120.61333031637625,
            23.816720716753366
          ],
          [
            120.6135291654012,
            23.816591496075265
          ],
          [
            120.61368648957256,
            23.816478527441
          ],
          [
            120.6146058688025,
            23.815826529779567
          ],
          [
            120.61540500694424,
            23.815293071430457
          ],
          [
            120.61585832159541,
            23.81499038299507
          ],
          [
            120.61608232148727,
            23.814840810944293
          ],
          [
            120.61608370908753,
            23.81483987621686
          ],
          [
            120.61695929820078,
            23.814255204886436
          ],
          [
            120.61786541754506,
            23.813620926522162
          ],
          [
            120.6188466235953,
            23.812948152411625
          ],
          [
            120.62104223642267,
            23.81136094814179
          ],
          [
            120.62150719674561,
            23.811036000239433
          ],
          [
            120.62200518448637,
            23.810687970388766
          ],
          [
            120.62317521114038,
            23.809879841559113
          ],
          [
            120.62333973273212,
            23.809764724107875
          ],
          [
            120.62403567841051,
            23.80927775872006
          ],
          [
            120.62459248307971,
            23.80889472800878
          ],
          [
            120.62527630394544,
            23.808417984172134
          ],
          [
            120.62600626947444,
            23.80791194487423
          ]
        ]
      }
    }
  ]
}