{"type": "FeatureCollection", "features": [{"type": "Feature", "properties": {"track_id": "OD-南港-KL", "source_track": "BB-CZ-KL-0", "point_count": 108}, "geometry": {"type": "LineString", "coordinates": [[121.607112, 25.053144], [121.60805548003184, 25.053289272716604], [121.60805548003184, 25.053289272716604], [121.61717953512488, 25.05451786459121], [121.62312100319849, 25.05447244005732], [121.6263692339686, 25.053454109890374], [121.62947126060735, 25.053425365838283], [121.63213618328423, 25.054242879491], [121.63404914052828, 25.05479545528868], [121.63600720896133, 25.055497105581075], [121.63732531503743, 25.056580465861686], [121.63843728453205, 25.057929785488692], [121.64011005431234, 25.05967835077474], [121.64136034869172, 25.0603637538885], [121.64289374543117, 25.06104248902193], [121.64662405227367, 25.06249207315618], [121.64763760748471, 25.062633240518117], [121.64877314533626, 25.06286011839194], [121.64987514886562, 25.06297980681928], [121.65172795920276, 25.063627044134353], [121.65606743697825, 25.065257956527866], [121.65841846283452, 25.06613576180477], [121.65935600424893, 25.066573585145207], [121.66015932254123, 25.067102843424735], [121.66062510167527, 25.067453552652363], [121.66142388402669, 25.068092574631386], [121.66279767762771, 25.06931287524445], [121.66473677845028, 25.070990857392918], [121.66528381009496, 25.071917374000726], [121.66542110959583, 25.07237393998045], [121.665476859538, 25.07295123327551], [121.66562364260042, 25.075000754062387], [121.66583196190626, 25.075825651000162], [121.66629293709028, 25.076633190175478], [121.66686421607582, 25.077286688352014], [121.66756531974526, 25.07803139630805], [121.66758, 25.07799], [121.67419876739078, 25.082003567156104], [121.6751149704896, 25.08230511849854], [121.6762413450271, 25.082386244047427], [121.67734751499691, 25.082378574536826], [121.67885990696902, 25.08220001560727], [121.68012754179037, 25.081703322202543], [121.6809501103739, 25.081358115773998], [121.6817682205851, 25.08118281166204], [121.68807567613473, 25.079029350987604], [121.69004983744796, 25.07819336777839], [121.69105144959221, 25.077873550993267], [121.69193872350397, 25.077687242735998], [121.6931392308338, 25.077720998965894], [121.69445477230485, 25.078102870816586], [121.69596955352876, 25.078637468455316], [121.69845778607649, 25.07919254790731], [121.70002138737783, 25.079471436016927], [121.70181826719384, 25.080234177077763], [121.70315304674358, 25.08161678094301], [121.70439890487967, 25.083121518872264], [121.70511945457964, 25.084033859430058], [121.70552353708311, 25.085194391107727], [121.7057122762582, 25.08649289909142], [121.70606187852995, 25.087825996938363], [121.7066449838805, 25.088564741757246], [121.7074877756074, 25.089320385892066], [121.71130204619557, 25.09133391884873], [121.71471745731566, 25.093439693644804], [121.71912834906541, 25.09685929505268], [121.72008279235934, 25.097686965400076], [121.72122086499674, 25.098410703115483], [121.72379540795123, 25.100253120581126], [121.72418599769371, 25.100596361466337], [121.7246426476016, 25.10115894854944], [121.72515958641195, 25.102822513387338], [121.72608984077735, 25.105902725110965], [121.72649398361774, 25.106742585174473], [121.72675429371483, 25.107067589992397], [121.72710778569984, 25.107413689236367], [121.72786136061029, 25.10801096328258], [121.72873141287782, 25.10856604879511], [121.73141688382863, 25.109742115724288], [121.73440289732983, 25.111032328008193], [121.74006348944471, 25.113468100197316], [121.74066944588776, 25.11381378483631], [121.74131492535827, 25.1141952562562], [121.74174302817187, 25.114594621020792], [121.74211843361428, 25.115041701178797], [121.74235306975766, 25.115464273956896], [121.7425602773298, 25.115961352682046], [121.74267834205182, 25.116439805007246], [121.74272783534987, 25.117005180229448], [121.74202698099927, 25.123024717667015], [121.7419311894693, 25.123643639473094], [121.7417800003335, 25.124251398237753], [121.74148845933503, 25.12489445489178], [121.7410565664741, 25.125481034929425], [121.74058791663869, 25.12592804374936], [121.73997651325908, 25.126328054123036], [121.73933915469016, 25.126716314990226], [121.73902047540571, 25.12691044542382], [121.73870179612125, 25.127104575857416], [121.7384053907949, 25.127359125237717], [121.73813157082725, 25.127647754655168], [121.73778712062219, 25.128131910832764], [121.73760957186784, 25.128630308201984], [121.73753090959507, 25.128901152518342], [121.73749770763484, 25.12920286511509], [121.73750801799332, 25.129775421909503], [121.73762246705192, 25.130354946754572], [121.7378569691467, 25.130914641806783], [121.738453, 25.131857]]}}]}