{
  "type": "FeatureCollection",
  "features": [
    {
      "type": "Feature",
      "properties": {
        "track_id": "OD-大甲-TC",
        "source_track": "SP-C-CH-M-0",
        "point_count": 1003
      },
      "geometry": {
        "type": "LineString",
        "coordinates": [
          [
            120.61605634517296,
            24.332632637219355
          ],
          [
            120.6159928754392,
            24.332589158863847
          ],
          [
            120.61579970786082,
            24.332472274677254
          ],
          [
            120.61482244272042,
            24.331889758714247
          ],
          [
            120.61441166357827,
            24.331647730270284
          ],
          [
            120.61414090878255,
            24.331476521301465
          ],
          [
            120.61395024283945,
            24.33136053681927
          ],
          [
            120.61385983835484,
            24.33129657979755
          ],
          [
            120.61375872386573,
            24.331235455869326
          ],
          [
            120.61357029482767,
            24.3311073469804
          ],
          [
            120.61349105235736,
            24.331053471104678
          ],
          [
            120.6134682108733,
            24.331037491106144
          ],
          [
            120.61338225225325,
            24.330977353577996
          ],
          [
            120.61324021183646,
            24.33087293729492
          ],
          [
            120.61309068137658,
            24.330756590662848
          ],
          [
            120.6125874225438,
            24.330360594729846
          ],
          [
            120.61251640524323,
            24.33029435509894
          ],
          [
            120.61243940523887,
            24.330230523554942
          ],
          [
            120.6120889134947,
            24.329903419405348
          ],
          [
            120.6118210091009,
            24.329639790447143
          ],
          [
            120.61148596967784,
            24.329271264837256
          ],
          [
            120.61127548504551,
            24.329033288957465
          ],
          [
            120.61106212056491,
            24.32876798349877
          ],
          [
            120.61097186551491,
            24.328646470368838
          ],
          [
            120.61088555114783,
            24.328538202070607
          ],
          [
            120.61081473871282,
            24.328428732881306
          ],
          [
            120.61061885105204,
            24.32816017058846
          ],
          [
            120.61052045332654,
            24.32802071182696
          ],
          [
            120.6103218213094,
            24.327701341051217
          ],
          [
            120.61023538008435,
            24.327551170033136
          ],
          [
            120.61016115764642,
            24.327430015409632
          ],
          [
            120.61015511690799,
            24.327418866171026
          ],
          [
            120.6100663850074,
            24.327260020378954
          ],
          [
            120.61003530796361,
            24.32720698153883
          ],
          [
            120.60986796264957,
            24.32687774052114
          ],
          [
            120.60978757220576,
            24.32671034652783
          ],
          [
            120.60962127861931,
            24.326343772800712
          ],
          [
            120.60955337686208,
            24.32617782835761
          ],
          [
            120.60950268134378,
            24.326038379661284
          ],
          [
            120.60943674764417,
            24.32586762051696
          ],
          [
            120.60938605040165,
            24.3257281717741
          ],
          [
            120.60908467229966,
            24.32477044807409
          ],
          [
            120.60903621886922,
            24.32460583197751
          ],
          [
            120.60897187241514,
            24.324405690740182
          ],
          [
            120.60887938704285,
            24.324100690278996
          ],
          [
            120.60884739721428,
            24.32399519273448
          ],
          [
            120.60864026524372,
            24.323333347393525
          ],
          [
            120.60864014816211,
            24.32333296967716
          ],
          [
            120.60861037543853,
            24.323237838633148
          ],
          [
            120.60837067741944,
            24.32245895194057
          ],
          [
            120.60805843038028,
            24.321424952937218
          ],
          [
            120.60805552174934,
            24.3214153186469
          ],
          [
            120.60805154211802,
            24.32140214220093
          ],
          [
            120.60788454324897,
            24.32085543310609
          ],
          [
            120.60772505995166,
            24.320355437900716
          ],
          [
            120.60755285868765,
            24.319788457355394
          ],
          [
            120.60742378418696,
            24.319374392299213
          ],
          [
            120.60729853759057,
            24.31896348093903
          ],
          [
            120.60714947454551,
            24.318461242098206
          ],
          [
            120.60676923020148,
            24.317236644858284
          ],
          [
            120.6066672730826,
            24.316898264081114
          ],
          [
            120.60651637538804,
            24.31640844376953
          ],
          [
            120.60629883700929,
            24.315682790167
          ],
          [
            120.6060423125518,
            24.314836906984308
          ],
          [
            120.60581597204992,
            24.31410647866483
          ],
          [
            120.60577445405447,
            24.313963243957264
          ],
          [
            120.60573133248073,
            24.313824357082197
          ],
          [
            120.60568981467888,
            24.31368111873698
          ],
          [
            120.60556067547435,
            24.313250425601105
          ],
          [
            120.60555068038742,
            24.31321779297477
          ],
          [
            120.60516898869652,
            24.312052621271587
          ],
          [
            120.60479210003534,
            24.311102697715736
          ],
          [
            120.60474012424994,
            24.310971696045446
          ],
          [
            120.60472390648259,
            24.310927376190175
          ],
          [
            120.60444834101189,
            24.310174287241484
          ],
          [
            120.60367969818532,
            24.307663635905588
          ],
          [
            120.60335690977125,
            24.3067656340803
          ],
          [
            120.6032269373092,
            24.306307867388572
          ],
          [
            120.60287347557181,
            24.305422688664557
          ],
          [
            120.60272853995731,
            24.30424046864861
          ],
          [
            120.60257294927146,
            24.303974507014658
          ],
          [
            120.60246594559311,
            24.303632651105456
          ],
          [
            120.60234872377976,
            24.30326751357773
          ],
          [
            120.60224580735549,
            24.30296011417657
          ],
          [
            120.60207741532068,
            24.302433785815808
          ],
          [
            120.60182932183066,
            24.30168022835314
          ],
          [
            120.60144262508662,
            24.300525688008342
          ],
          [
            120.6010542325535,
            24.299362617242735
          ],
          [
            120.60062908117213,
            24.29833636552536
          ],
          [
            120.60043015701802,
            24.29795425370797
          ],
          [
            120.59867709697264,
            24.294229392438183
          ],
          [
            120.59727893296167,
            24.292445331741632
          ],
          [
            120.59699708132578,
            24.29205315266915
          ],
          [
            120.59622156410367,
            24.29111335512591
          ],
          [
            120.59498693898561,
            24.28965481567764
          ],
          [
            120.59253270150987,
            24.28676874795911
          ],
          [
            120.59117815,
            24.28516167
          ],
          [
            120.5898236,
            24.2835546
          ],
          [
            120.58846905,
            24.28194753
          ],
          [
            120.58660457828077,
            24.2797470331695
          ],
          [
            120.58563675306664,
            24.278654897502726
          ],
          [
            120.58481128879512,
            24.27756276183595
          ],
          [
            120.58367891769902,
            24.275943825394513
          ],
          [
            120.58311273214966,
            24.27528035068137
          ],
          [
            120.5825287514838,
            24.274876422797995
          ],
          [
            120.58208138034277,
            24.274614731396543
          ],
          [
            120.58153877175143,
            24.27436750950868
          ],
          [
            120.58029482548682,
            24.274205864989067
          ],
          [
            120.57799740785774,
            24.27415749741226
          ],
          [
            120.57660266896552,
            24.274111609989383
          ],
          [
            120.57614339314242,
            24.274081431503333
          ],
          [
            120.57544602369643,
            24.273993374706766
          ],
          [
            120.57441636169231,
            24.273683417697086
          ],
          [
            120.57392637856643,
            24.273373460687402
          ],
          [
            120.57357468260066,
            24.273149778340763
          ],
          [
            120.57323885954389,
            24.272839277913775
          ],
          [
            120.57277356123514,
            24.272319564854648
          ],
          [
            120.5721762956864,
            24.271135441034264
          ],
          [
            120.57106112913013,
            24.268680372685736
          ],
          [
            120.56937242531944,
            24.26482552777884
          ],
          [
            120.56798698364855,
            24.26153429054638
          ],
          [
            120.56772120210698,
            24.261023508711737
          ],
          [
            120.56765114581839,
            24.260846817798225
          ],
          [
            120.56761844958056,
            24.260746333917396
          ],
          [
            120.56756720544251,
            24.260632788170195
          ],
          [
            120.56752176299926,
            24.26051958756111
          ],
          [
            120.56740488343927,
            24.260246814760713
          ],
          [
            120.56732082201944,
            24.260062963505696
          ],
          [
            120.56716646185603,
            24.259708157453826
          ],
          [
            120.56703051904904,
            24.25938479603962
          ],
          [
            120.56701953747657,
            24.25935877903052
          ],
          [
            120.56701120795493,
            24.25933484084564
          ],
          [
            120.56699846310295,
            24.259307782274767
          ],
          [
            120.56699038504946,
            24.259291017521416
          ],
          [
            120.56688814793253,
            24.259055596035843
          ],
          [
            120.56682680731379,
            24.258921465630085
          ],
          [
            120.56676458546548,
            24.258780627678927
          ],
          [
            120.56665869085299,
            24.25853318149421
          ],
          [
            120.56660012149455,
            24.258388177016545
          ],
          [
            120.5661182334636,
            24.25728714179634
          ],
          [
            120.56605739974633,
            24.25714225885384
          ],
          [
            120.56570097586398,
            24.256320010525396
          ],
          [
            120.56563219784408,
            24.256167493190368
          ],
          [
            120.56553362611135,
            24.25594166832196
          ],
          [
            120.5654717804865,
            24.255796439138464
          ],
          [
            120.56532613214752,
            24.255445146672905
          ],
          [
            120.56531565944321,
            24.25542491503255
          ],
          [
            120.56528423029187,
            24.255354726876522
          ],
          [
            120.56527362995365,
            24.25532974917187
          ],
          [
            120.56521771776939,
            24.25520353768107
          ],
          [
            120.56516736073667,
            24.255094499150093
          ],
          [
            120.56509087928323,
            24.254920995768327
          ],
          [
            120.56503944714457,
            24.25479108424994
          ],
          [
            120.56500070263257,
            24.254703089588155
          ],
          [
            120.56489209475741,
            24.25443072125649
          ],
          [
            120.56460257931708,
            24.253770468553963
          ],
          [
            120.56456629348054,
            24.253684207178246
          ],
          [
            120.56451316122063,
            24.25356568533636
          ],
          [
            120.56447687747014,
            24.25347942394429
          ],
          [
            120.56430107433766,
            24.25308408321532
          ],
          [
            120.56410684843338,
            24.252632196185246
          ],
          [
            120.56395325547685,
            24.25228801979703
          ],
          [
            120.56347037640609,
            24.251165937878365
          ],
          [
            120.56343333118869,
            24.251079853720448
          ],
          [
            120.56315926785469,
            24.250442995373948
          ],
          [
            120.56249646479647,
            24.248922915062877
          ],
          [
            120.56236704522716,
            24.248617703913176
          ],
          [
            120.5622415462727,
            24.24833359412079
          ],
          [
            120.56224138407075,
            24.24833322346067
          ],
          [
            120.5622042840636,
            24.248249234488902
          ],
          [
            120.56213397999528,
            24.24808410648068
          ],
          [
            120.56169584432162,
            24.247087483209675
          ],
          [
            120.56155523848982,
            24.246746431471202
          ],
          [
            120.56150042018525,
            24.24661809083878
          ],
          [
            120.5613420770602,
            24.24626069384552
          ],
          [
            120.5610202043233,
            24.24551591315089
          ],
          [
            120.56079783798698,
            24.245008852113852
          ],
          [
            120.56062916012014,
            24.244606986842356
          ],
          [
            120.56056700996947,
            24.2444715837876
          ],
          [
            120.56051408320843,
            24.244344701933453
          ],
          [
            120.56049252248643,
            24.244292829714087
          ],
          [
            120.56045316220548,
            24.244198132465378
          ],
          [
            120.56041081145636,
            24.244096242102614
          ],
          [
            120.56026438689433,
            24.243766558017132
          ],
          [
            120.56005033989939,
            24.243276568651712
          ],
          [
            120.55990353998229,
            24.24293515971911
          ],
          [
            120.55974904067037,
            24.24258077790715
          ],
          [
            120.55969086684654,
            24.242447340786963
          ],
          [
            120.55967530293974,
            24.242413998189036
          ],
          [
            120.5596120249301,
            24.242278434359257
          ],
          [
            120.55952870541685,
            24.242107615204123
          ],
          [
            120.55947142658188,
            24.241974338596787
          ],
          [
            120.55920541599335,
            24.241374168780478
          ],
          [
            120.55912919795745,
            24.241194593668272
          ],
          [
            120.5590598565659,
            24.241041524446043
          ],
          [
            120.55901982326859,
            24.240947548995038
          ],
          [
            120.55897268089932,
            24.24082487826814
          ],
          [
            120.5589326497071,
            24.24073090099334
          ],
          [
            120.55889871533374,
            24.24063535947742
          ],
          [
            120.55883564960729,
            24.240486120429907
          ],
          [
            120.5587724773391,
            24.240325556729445
          ],
          [
            120.55864016352623,
            24.24000457626431
          ],
          [
            120.55856872804598,
            24.23983662436433
          ],
          [
            120.55805841249546,
            24.238689500201982
          ],
          [
            120.55805553005445,
            24.238683017955378
          ],
          [
            120.5578097411345,
            24.23813050401306
          ],
          [
            120.55667440261982,
            24.235571921185812
          ],
          [
            120.5558232335588,
            24.23351556417027
          ],
          [
            120.5556950369267,
            24.233230613816254
          ],
          [
            120.555641242541,
            24.23310560752096
          ],
          [
            120.55556626202115,
            24.23294278859547
          ],
          [
            120.55537585471389,
            24.23249349063648
          ],
          [
            120.55517032327005,
            24.232027039854106
          ],
          [
            120.55512420190419,
            24.231908340058382
          ],
          [
            120.55493929370468,
            24.231465312974866
          ],
          [
            120.55488861797335,
            24.231349974875137
          ],
          [
            120.55483459734923,
            24.231220252612786
          ],
          [
            120.55471812230853,
            24.230955087788573
          ],
          [
            120.55448586665503,
            24.230415187217215
          ],
          [
            120.55430956486569,
            24.230018404604778
          ],
          [
            120.55404320242226,
            24.229400799960597
          ],
          [
            120.55368863696911,
            24.228594852387307
          ],
          [
            120.55365755107421,
            24.228524191418543
          ],
          [
            120.55365151305944,
            24.228510465698733
          ],
          [
            120.55344872674415,
            24.228032893049857
          ],
          [
            120.55339378975914,
            24.227900218653033
          ],
          [
            120.55333411882128,
            24.227763055512412
          ],
          [
            120.5532791840359,
            24.227630381078733
          ],
          [
            120.55305349983507,
            24.227119764519806
          ],
          [
            120.55276317811764,
            24.226457129379895
          ],
          [
            120.5524920044917,
            24.225805529362717
          ],
          [
            120.552419686657,
            24.2256409920909
          ],
          [
            120.5523383238801,
            24.22544906271008
          ],
          [
            120.55193029694257,
            24.224512968551313
          ],
          [
            120.55160945076292,
            24.223768915931196
          ],
          [
            120.55149996234881,
            24.223519862637257
          ],
          [
            120.5514157642163,
            24.223333699422124
          ],
          [
            120.55141557076024,
            24.223333274483114
          ],
          [
            120.55138033815875,
            24.223255370287333
          ],
          [
            120.55132711151306,
            24.22312916861844
          ],
          [
            120.55126133233759,
            24.222984817504596
          ],
          [
            120.55114737716531,
            24.222711081394976
          ],
          [
            120.55113573132287,
            24.222676931401384
          ],
          [
            120.55108642892404,
            24.22258013825412
          ],
          [
            120.55104275634268,
            24.222472667587294
          ],
          [
            120.55098508986684,
            24.22233919508854
          ],
          [
            120.55094141744968,
            24.22223172439171
          ],
          [
            120.55071625112954,
            24.221711227886363
          ],
          [
            120.55047949172443,
            24.221158419474108
          ],
          [
            120.55019296337905,
            24.22051200674965
          ],
          [
            120.55001188978562,
            24.22009773891413
          ],
          [
            120.54984050693903,
            24.219690825738645
          ],
          [
            120.54967123107079,
            24.219279156627202
          ],
          [
            120.54950281022302,
            24.21883295341269
          ],
          [
            120.5494579777724,
            24.218703283422588
          ],
          [
            120.54941175608268,
            24.21856330164903
          ],
          [
            120.54927009672163,
            24.218123755959365
          ],
          [
            120.54910478220378,
            24.217561127165165
          ],
          [
            120.54895178967988,
            24.217054892714724
          ],
          [
            120.54887804067654,
            24.216816868538242
          ],
          [
            120.5488446726249,
            24.216697998647383
          ],
          [
            120.54881016177006,
            24.216586630379936
          ],
          [
            120.54874342596587,
            24.216348890556688
          ],
          [
            120.54869708094223,
            24.21619630169765
          ],
          [
            120.5486916330317,
            24.216177188932445
          ],
          [
            120.54864324954082,
            24.216007459423516
          ],
          [
            120.54862546072331,
            24.21594505600724
          ],
          [
            120.54859655444608,
            24.21583582072416
          ],
          [
            120.54854867906285,
            24.215680101391396
          ],
          [
            120.54851977094452,
            24.21557086428015
          ],
          [
            120.5483794486995,
            24.21510957405007
          ],
          [
            120.54805819224518,
            24.214031945295886
          ],
          [
            120.5480135466852,
            24.21389091131793
          ],
          [
            120.5478508372266,
            24.213339091172532
          ],
          [
            120.54776783386134,
            24.21304927125766
          ],
          [
            120.54747031683931,
            24.21205708569985
          ],
          [
            120.54733184942569,
            24.21157781023476
          ],
          [
            120.54729431693535,
            24.21145695200466
          ],
          [
            120.54726138725538,
            24.211328481432624
          ],
          [
            120.54722385686962,
            24.211207623189136
          ],
          [
            120.54699259025823,
            24.210427267501903
          ],
          [
            120.54692962040933,
            24.210194850716377
          ],
          [
            120.54683353259007,
            24.209879697068732
          ],
          [
            120.54665770053792,
            24.20928551685377
          ],
          [
            120.54660552136606,
            24.20909987950673
          ],
          [
            120.54648348816677,
            24.208697555086903
          ],
          [
            120.54631867579961,
            24.2081382651425
          ],
          [
            120.54607666761332,
            24.20732794969984
          ],
          [
            120.54597660483844,
            24.206998893164968
          ],
          [
            120.54582047458305,
            24.20646210021884
          ],
          [
            120.54565870119144,
            24.205916880516043
          ],
          [
            120.54562812626382,
            24.20580757820898
          ],
          [
            120.54558691557847,
            24.205679394928698
          ],
          [
            120.54555447129857,
            24.205568990891038
          ],
          [
            120.54545663102799,
            24.20523605445614
          ],
          [
            120.54543201614231,
            24.205152291669332
          ],
          [
            120.54522356131184,
            24.20442043514503
          ],
          [
            120.54505920348463,
            24.20387532438597
          ],
          [
            120.54500848432099,
            24.203711689388562
          ],
          [
            120.54493316391887,
            24.203446242268893
          ],
          [
            120.54485221872774,
            24.203186383599217
          ],
          [
            120.5448096591374,
            24.203041530053312
          ],
          [
            120.54477943288387,
            24.20294531002306
          ],
          [
            120.5446898152365,
            24.202637346938182
          ],
          [
            120.54465027748195,
            24.202524268721742
          ],
          [
            120.54460321947292,
            24.20236115917576
          ],
          [
            120.54456368187603,
            24.202248080935178
          ],
          [
            120.54451060471372,
            24.20207685963686
          ],
          [
            120.54444194348255,
            24.201907610643566
          ],
          [
            120.544414693407,
            24.20182778914269
          ],
          [
            120.54437146785082,
            24.201685553727856
          ],
          [
            120.5443096600988,
            24.20150254307051
          ],
          [
            120.54424979688443,
            24.20133360381109
          ],
          [
            120.54409459265396,
            24.20083314132519
          ],
          [
            120.5440610014133,
            24.200698553433952
          ],
          [
            120.5440248258116,
            24.20057874574264
          ],
          [
            120.54399123470635,
            24.20044415783362
          ],
          [
            120.5438339135911,
            24.199907873684374
          ],
          [
            120.54355665918584,
            24.198980408751016
          ],
          [
            120.54341372083131,
            24.198509505745058
          ],
          [
            120.54336517498572,
            24.19833491525717
          ],
          [
            120.5433648382929,
            24.198333819915018
          ],
          [
            120.54336470010804,
            24.19833337165498
          ],
          [
            120.54331534400873,
            24.19817294365528
          ],
          [
            120.54317934938611,
            24.19769258782264
          ],
          [
            120.54312568508237,
            24.197523067122912
          ],
          [
            120.54308195886858,
            24.197370184424166
          ],
          [
            120.54302829679033,
            24.19720066369283
          ],
          [
            120.54298457275858,
            24.197047782774778
          ],
          [
            120.54293880194915,
            24.19687871726621
          ],
          [
            120.54290616476005,
            24.196737228248164
          ],
          [
            120.54286039415804,
            24.196568162712378
          ],
          [
            120.54282775910387,
            24.196426671874356
          ],
          [
            120.54276911298929,
            24.19624554265411
          ],
          [
            120.54273647613043,
            24.19610405539903
          ],
          [
            120.54270049279039,
            24.196003895368857
          ],
          [
            120.54266946975,
            24.195858729043998
          ],
          [
            120.54263348652803,
            24.195758568996602
          ],
          [
            120.5426024655933,
            24.195613400855546
          ],
          [
            120.54253246952796,
            24.195386757614795
          ],
          [
            120.54235881229896,
            24.19478869036272
          ],
          [
            120.54232630661839,
            24.19465645466968
          ],
          [
            120.54228626199625,
            24.194518950387582
          ],
          [
            120.54225375646064,
            24.194386712870717
          ],
          [
            120.54213537634888,
            24.194020262918002
          ],
          [
            120.54206113362751,
            24.193778152371877
          ],
          [
            120.54200522454052,
            24.19362339798977
          ],
          [
            120.54196141066357,
            24.193476491962056
          ],
          [
            120.54190527983481,
            24.19329928497202
          ],
          [
            120.54173412880758,
            24.192758950559647
          ],
          [
            120.54168681129694,
            24.192609566240545
          ],
          [
            120.54163658365623,
            24.192458409758995
          ],
          [
            120.54159164417518,
            24.19230939282199
          ],
          [
            120.54150265371273,
            24.192029437950723
          ],
          [
            120.54145771846672,
            24.191880420982308
          ],
          [
            120.54137267673444,
            24.1916266064849
          ],
          [
            120.54130634310197,
            24.191435613530597
          ],
          [
            120.54125478444908,
            24.191279259333307
          ],
          [
            120.54122193164571,
            24.191185726716505
          ],
          [
            120.54117659610239,
            24.191070082029075
          ],
          [
            120.54111427968657,
            24.190940537281538
          ],
          [
            120.54106894234856,
            24.190824894361036
          ],
          [
            120.54100648603193,
            24.19068774659463
          ],
          [
            120.54094142119008,
            24.190538009714956
          ],
          [
            120.54089532157806,
            24.19044786279111
          ],
          [
            120.54082386214286,
            24.19031702810603
          ],
          [
            120.5407777607286,
            24.190226879334702
          ],
          [
            120.54070264624809,
            24.19009921726198
          ],
          [
            120.54063662843355,
            24.189977187868713
          ],
          [
            120.54056151423008,
            24.18984952753239
          ],
          [
            120.54049549470659,
            24.189727498072
          ],
          [
            120.54041780244873,
            24.189601332344765
          ],
          [
            120.54034268867845,
            24.189473671900917
          ],
          [
            120.54012080176287,
            24.18911524021933
          ],
          [
            120.54005326506085,
            24.18900149295158
          ],
          [
            120.539981167896,
            24.18888536083342
          ],
          [
            120.53984609508868,
            24.18865786795073
          ],
          [
            120.53976489514233,
            24.188529762671145
          ],
          [
            120.53953993904139,
            24.1881837829205
          ],
          [
            120.53945634935077,
            24.188049777826745
          ],
          [
            120.53938447348801,
            24.187940840529127
          ],
          [
            120.5392086005349,
            24.18765669582176
          ],
          [
            120.53896689326325,
            24.18727225633925
          ],
          [
            120.53865278866435,
            24.186760412613758
          ],
          [
            120.53859741508636,
            24.186652478363822
          ],
          [
            120.53840848146105,
            24.18627990853326
          ],
          [
            120.53817501889088,
            24.185776981378677
          ],
          [
            120.53812567927788,
            24.18565879004533
          ],
          [
            120.53807646739334,
            24.185524285190752
          ],
          [
            120.53802712797122,
            24.185406092018646
          ],
          [
            120.53797791825124,
            24.185271587136803
          ],
          [
            120.5379292398036,
            24.185127337769405
          ],
          [
            120.53789662660313,
            24.18502193539713
          ],
          [
            120.53784795030556,
            24.184877686007834
          ],
          [
            120.53781533723848,
            24.184772281810876
          ],
          [
            120.53770990550284,
            24.184415151261415
          ],
          [
            120.53767427858905,
            24.184289602855998
          ],
          [
            120.5375961733651,
            24.183953063924317
          ],
          [
            120.53757761349202,
            24.183857645207905
          ],
          [
            120.53754775704881,
            24.18372432751813
          ],
          [
            120.53752919724185,
            24.183628908794017
          ],
          [
            120.53750167699388,
            24.18347225959388
          ],
          [
            120.53748298511834,
            24.183354520365437
          ],
          [
            120.53742832650278,
            24.18297905909386
          ],
          [
            120.53739280157026,
            24.182591731929048
          ],
          [
            120.53738570762148,
            24.18247474117222
          ],
          [
            120.53737422348038,
            24.182335487421206
          ],
          [
            120.5373671315205,
            24.182218498471865
          ],
          [
            120.53736572866988,
            24.182115668263798
          ],
          [
            120.53736313559207,
            24.181615186330394
          ],
          [
            120.5373655829001,
            24.181464370550636
          ],
          [
            120.53738848004663,
            24.181000916882862
          ],
          [
            120.5374295455111,
            24.18057419658883
          ],
          [
            120.53751259642465,
            24.17996335619898
          ],
          [
            120.53763530053705,
            24.179155995078304
          ],
          [
            120.53770519294514,
            24.178643888257824
          ],
          [
            120.53785959534832,
            24.177550302425303
          ],
          [
            120.53790123455899,
            24.177278876257915
          ],
          [
            120.53806847529547,
            24.17614592917938
          ],
          [
            120.53818240685042,
            24.175296363474825
          ],
          [
            120.53821955700865,
            24.175056016397612
          ],
          [
            120.53823789094928,
            24.174922425670093
          ],
          [
            120.53825646396294,
            24.17480225301656
          ],
          [
            120.53834572080474,
            24.174167903988653
          ],
          [
            120.53846565601943,
            24.17333365863403
          ],
          [
            120.53846571658265,
            24.173333238057626
          ],
          [
            120.53854014957903,
            24.172815495474754
          ],
          [
            120.53864621847528,
            24.172057536914636
          ],
          [
            120.53870730627447,
            24.17164613376811
          ],
          [
            120.53891972948605,
            24.170161020792847
          ],
          [
            120.53903865902225,
            24.16934865093755
          ],
          [
            120.53908811228192,
            24.1690022657603
          ],
          [
            120.53910953662786,
            24.16885220136564
          ],
          [
            120.53914151455925,
            24.168628212614493
          ],
          [
            120.5392658599322,
            24.167779599348712
          ],
          [
            120.53937360886223,
            24.167018833069754
          ],
          [
            120.53946399146527,
            24.166418585637945
          ],
          [
            120.53949443143529,
            24.166277863759163
          ],
          [
            120.5395186559495,
            24.166117829541488
          ],
          [
            120.53954909381436,
            24.165977107638348
          ],
          [
            120.53967094605177,
            24.165454544588517
          ],
          [
            120.53984110458798,
            24.16477795191492
          ],
          [
            120.53999562522384,
            24.164193247025583
          ],
          [
            120.5400706322617,
            24.163899275092398
          ],
          [
            120.54030323009177,
            24.162949381164665
          ],
          [
            120.54054848799765,
            24.162005460642334
          ],
          [
            120.54082546751697,
            24.160856675946857
          ],
          [
            120.54098019318785,
            24.16023562053434
          ],
          [
            120.54117480560231,
            24.15946590175903
          ],
          [
            120.54127866674855,
            24.1590636997043
          ],
          [
            120.54141084760931,
            24.15850802491672
          ],
          [
            120.54143766158079,
            24.158385075466377
          ],
          [
            120.54145626666032,
            24.15821243352698
          ],
          [
            120.54148307855358,
            24.158089484056386
          ],
          [
            120.54149585961726,
            24.15796045910594
          ],
          [
            120.54152267338392,
            24.15783750962892
          ],
          [
            120.5415390274863,
            24.157728068902756
          ],
          [
            120.54155092975898,
            24.1576720911289
          ],
          [
            120.54156728578828,
            24.15756264859677
          ],
          [
            120.54160379115731,
            24.157390963317667
          ],
          [
            120.54165188396838,
            24.15710751509316
          ],
          [
            120.54169218791779,
            24.156920280267727
          ],
          [
            120.54171103836718,
            24.156803372633444
          ],
          [
            120.54172621276174,
            24.15673489741735
          ],
          [
            120.54174506315006,
            24.156617989775167
          ],
          [
            120.54177240940226,
            24.15649458133648
          ],
          [
            120.54185822259159,
            24.156054838850693
          ],
          [
            120.54199749134655,
            24.155491787828623
          ],
          [
            120.54207673419921,
            24.1550717433961
          ],
          [
            120.54256657354516,
            24.1523974422651
          ],
          [
            120.54262398538235,
            24.15195681031511
          ],
          [
            120.54285339183829,
            24.150994334120288
          ],
          [
            120.54294625054317,
            24.150541911239294
          ],
          [
            120.54334578069816,
            24.148457182817204
          ],
          [
            120.54336496009343,
            24.148357105347664
          ],
          [
            120.54336942558358,
            24.14833380618762
          ],
          [
            120.54336950377149,
            24.14833340191289
          ],
          [
            120.543897826085,
            24.145576538969
          ],
          [
            120.54406125042574,
            24.14499112685171
          ],
          [
            120.54425361348336,
            24.14451007209903
          ],
          [
            120.54443996881622,
            24.14410124731017
          ],
          [
            120.54484740873266,
            24.14341773563106
          ],
          [
            120.54708569773888,
            24.140171453423918
          ],
          [
            120.54759175395901,
            24.139469853618365
          ],
          [
            120.54902035,
            24.13741787
          ],
          [
            120.55044894,
            24.13536589
          ],
          [
            120.55052533325089,
            24.135256152797393
          ],
          [
            120.551129735876,
            24.1343879650779
          ],
          [
            120.55117841962615,
            24.134318033204398
          ],
          [
            120.55199068271789,
            24.13315124277547
          ],
          [
            120.5520718375092,
            24.13303466511562
          ],
          [
            120.55357165,
            24.13088011
          ],
          [
            120.55507147,
            24.12872556
          ],
          [
            120.55516100836103,
            24.128596921618403
          ],
          [
            120.55624777194734,
            24.12703564362412
          ],
          [
            120.55686656429084,
            24.12618273350351
          ],
          [
            120.55734721801753,
            24.125584986082167
          ],
          [
            120.55775521854878,
            24.125159490800225
          ],
          [
            120.55805553404225,
            24.12487148002914
          ],
          [
            120.5580584044364,
            24.124868725383877
          ],
          [
            120.55826600183815,
            24.12466963500603
          ],
          [
            120.55876674993696,
            24.124253326008365
          ],
          [
            120.5594621978178,
            24.12374223710256
          ],
          [
            120.55995769627413,
            24.12342328942853
          ],
          [
            120.5601095564328,
            24.123333427085065
          ],
          [
            120.56011027014976,
            24.123333004765563
          ],
          [
            120.56056717429392,
            24.123062624233818
          ],
          [
            120.56058635873052,
            24.123053310669402
          ],
          [
            120.56070053208602,
            24.12299788252466
          ],
          [
            120.56124513571045,
            24.122733490215914
          ],
          [
            120.56192565828606,
            24.122446299572232
          ],
          [
            120.56259158554968,
            24.12221197731266
          ],
          [
            120.56310617213002,
            24.122055744980706
          ],
          [
            120.56585066101509,
            24.121322417661236
          ],
          [
            120.56609629828597,
            24.121263706675045
          ],
          [
            120.56617890952718,
            24.121243961363646
          ],
          [
            120.56633875711273,
            24.121205755560485
          ],
          [
            120.56700800116666,
            24.12100887664008
          ],
          [
            120.57013559112698,
            24.12021846103429
          ],
          [
            120.5703564146217,
            24.120136638319803
          ],
          [
            120.57079925854674,
            24.120001818504036
          ],
          [
            120.5716576208063,
            24.11976958857385
          ],
          [
            120.5726468014482,
            24.119510882645955
          ],
          [
            120.57399674786117,
            24.11915407435737
          ],
          [
            120.57471049587501,
            24.118957035791464
          ],
          [
            120.57491447326657,
            24.118899612788546
          ],
          [
            120.57503396520724,
            24.118860997058086
          ],
          [
            120.57522244858173,
            24.11879799765517
          ],
          [
            120.57542309680392,
            24.118721119674237
          ],
          [
            120.57575209464491,
            24.118590853018063
          ],
          [
            120.57606258641268,
            24.118418762211512
          ],
          [
            120.57623744212154,
            24.118323726037488
          ],
          [
            120.57635198380285,
            24.118249866484216
          ],
          [
            120.57662649508731,
            24.11807819151494
          ],
          [
            120.57678786604816,
            24.117976244224597
          ],
          [
            120.57686226866358,
            24.117916085790014
          ],
          [
            120.57698008018208,
            24.117825521783015
          ],
          [
            120.57708577758848,
            24.117738643321424
          ],
          [
            120.57723882622787,
            24.1176040229253
          ],
          [
            120.57747263561969,
            24.11738279204554
          ],
          [
            120.57767788640851,
            24.117164469218757
          ],
          [
            120.57785890897546,
            24.116955360300743
          ],
          [
            120.57819077991888,
            24.116508401936763
          ],
          [
            120.57833577118241,
            24.11626922022799
          ],
          [
            120.57846580229855,
            24.116025942197858
          ],
          [
            120.57856573518237,
            24.11581881068099
          ],
          [
            120.57867509282599,
            24.115557915547196
          ],
          [
            120.57876501190651,
            24.115313687166392
          ],
          [
            120.57884786241958,
            24.11503720049045
          ],
          [
            120.57894123180961,
            24.114628092471385
          ],
          [
            120.57898040884538,
            24.11435662053739
          ],
          [
            120.57900653545798,
            24.114124384033758
          ],
          [
            120.57901758307327,
            24.113940318398114
          ],
          [
            120.57901920631534,
            24.113575611618668
          ],
          [
            120.5789982110614,
            24.11327627986138
          ],
          [
            120.57896655676163,
            24.113021276267656
          ],
          [
            120.57892447277393,
            24.112756753065618
          ],
          [
            120.57887195909738,
            24.11253824133844
          ],
          [
            120.57881596885824,
            24.11236098140014
          ],
          [
            120.57871479612155,
            24.11203204870261
          ],
          [
            120.57858672212676,
            24.111631715138863
          ],
          [
            120.57836446420211,
            24.11093070628816
          ],
          [
            120.5779269004517,
            24.109602584774805
          ],
          [
            120.57675360734797,
            24.106085431864898
          ],
          [
            120.5759866460015,
            24.103742035161993
          ],
          [
            120.57577067083926,
            24.103161191077533
          ],
          [
            120.57565891994,
            24.102883845174645
          ],
          [
            120.57552855392028,
            24.102596750061043
          ],
          [
            120.5754069856226,
            24.10233430447881
          ],
          [
            120.57521545053888,
            24.101993653644286
          ],
          [
            120.57497828812411,
            24.101567339932537
          ],
          [
            120.57475452105967,
            24.101213599399387
          ],
          [
            120.5743639311603,
            24.100706251229266
          ],
          [
            120.57398797891997,
            24.100243831746887
          ],
          [
            120.57343443456888,
            24.099602715846796
          ],
          [
            120.57302468504142,
            24.09921357979905
          ],
          [
            120.57263298341553,
            24.098877956266918
          ],
          [
            120.57223284508424,
            24.098536677137957
          ],
          [
            120.57191425873542,
            24.098304582934237
          ],
          [
            120.57159895470184,
            24.09809073712743
          ],
          [
            120.57114216110924,
            24.09781939362319
          ],
          [
            120.57070542016665,
            24.0975561536914
          ],
          [
            120.57045421899423,
            24.09741550083943
          ],
          [
            120.57021932821687,
            24.09729966296522
          ],
          [
            120.57002374173747,
            24.097203578843164
          ],
          [
            120.56920529993872,
            24.09686796316689
          ],
          [
            120.56709038295904,
            24.096095316106712
          ],
          [
            120.56612675159701,
            24.09572727181878
          ],
          [
            120.56565608501845,
            24.095519505741425
          ],
          [
            120.56516296471689,
            24.095317596018006
          ],
          [
            120.56420504198292,
            24.094974313500067
          ],
          [
            120.56328755501511,
            24.09462839448082
          ],
          [
            120.55951650676926,
            24.09319486881316
          ],
          [
            120.55747019,
            24.09244482
          ],
          [
            120.55542387,
            24.09169477
          ],
          [
            120.55337756,
            24.09094473
          ],
          [
            120.5524897692477,
            24.090613376120373
          ],
          [
            120.55184627113834,
            24.090367340350316
          ],
          [
            120.55142411114117,
            24.09020961235624
          ],
          [
            120.551031462895,
            24.09006385831347
          ],
          [
            120.54911000800965,
            24.089379064104914
          ],
          [
            120.54815758439547,
            24.089032210313455
          ],
          [
            120.54722579835266,
            24.088690589905916
          ],
          [
            120.5449586470759,
            24.087858719643933
          ],
          [
            120.54435105065889,
            24.087637269874133
          ],
          [
            120.5425134505747,
            24.086892478096935
          ],
          [
            120.54220655060988,
            24.08674711636522
          ],
          [
            120.54192420941001,
            24.086586807700968
          ],
          [
            120.54156409878578,
            24.086340553968526
          ],
          [
            120.5413554338827,
            24.086180245360932
          ],
          [
            120.54112411729196,
            24.085965781584918
          ],
          [
            120.54101382876313,
            24.085853647453362
          ],
          [
            120.54091642767679,
            24.085739552422694
          ],
          [
            120.54061491272404,
            24.08532898501354
          ],
          [
            120.53990555624678,
            24.084347183869603
          ],
          [
            120.53972009908537,
            24.08408696494303
          ],
          [
            120.53953464192395,
            24.083795291610386
          ],
          [
            120.53934143053115,
            24.08347545759591
          ],
          [
            120.53914821913835,
            24.083070672692
          ],
          [
            120.538402,
            24.081859
          ],
          [
            120.54574576708038,
            24.088134644111467
          ],
          [
            120.5458044850876,
            24.088156092430285
          ],
          [
            120.54586394963721,
            24.088177813822448
          ],
          [
            120.54591275266638,
            24.08819563990071
          ],
          [
            120.54691795973879,
            24.088565735240003
          ],
          [
            120.54789810689813,
            24.088926097623535
          ],
          [
            120.54880775918889,
            24.089261226526638
          ],
          [
            120.54927428736033,
            24.0894352568252
          ],
          [
            120.54961821266262,
            24.089563550666032
          ],
          [
            120.55053202083047,
            24.089902582281983
          ],
          [
            120.55087089923775,
            24.090027177251052
          ],
          [
            120.55096280020875,
            24.090060967491564
          ],
          [
            120.55137565875803,
            24.090212761713342
          ],
          [
            120.551427966767,
            24.090231993159122
          ],
          [
            120.5514305393833,
            24.09023294065518
          ],
          [
            120.55146983685589,
            24.090247416114856
          ],
          [
            120.55250727143714,
            24.090629538746068
          ],
          [
            120.55424596516342,
            24.091272161080745
          ],
          [
            120.55509662640715,
            24.09157941421909
          ],
          [
            120.55613479660825,
            24.091958169210663
          ],
          [
            120.55717530844639,
            24.09234136639711
          ],
          [
            120.55801165123069,
            24.092669303143886
          ],
          [
            120.55805549738527,
            24.092685456879984
          ],
          [
            120.55805838837436,
            24.092686521663484
          ],
          [
            120.55974051647014,
            24.09330623688878
          ],
          [
            120.56120998339581,
            24.09384637684028
          ],
          [
            120.56126297123544,
            24.093865853397098
          ],
          [
            120.56130712090516,
            24.093882081118736
          ],
          [
            120.5616801768705,
            24.0940192044749
          ],
          [
            120.56253719831096,
            24.09433531144906
          ],
          [
            120.5628301905591,
            24.09444252633172
          ],
          [
            120.56313669473084,
            24.09455468668794
          ],
          [
            120.5637845400449,
            24.09479332159404
          ],
          [
            120.56396296642563,
            24.094859534943904
          ],
          [
            120.56401137278871,
            24.094877497722656
          ],
          [
            120.56405838127817,
            24.094894941830518
          ],
          [
            120.56431640017462,
            24.094990691693635
          ],
          [
            120.56551381804574,
            24.095418903287097
          ],
          [
            120.56665341231742,
            24.095841655018603
          ],
          [
            120.56885000339057,
            24.096658877838202
          ],
          [
            120.56910393999428,
            24.096753351288207
          ],
          [
            120.5694642794947,
            24.096887406867097
          ],
          [
            120.57010026994945,
            24.097154519797506
          ],
          [
            120.57097359250994,
            24.097584305367185
          ],
          [
            120.57158799466237,
            24.097952801998993
          ],
          [
            120.57211662365907,
            24.098333372072602
          ],
          [
            120.5721172183071,
            24.098333799919757
          ],
          [
            120.57223941578332,
            24.098421670081994
          ],
          [
            120.5725117097482,
            24.09863260486777
          ],
          [
            120.57251253190626,
            24.098633241023382
          ],
          [
            120.5727982774674,
            24.098865903089212
          ],
          [
            120.57305306541001,
            24.099099825332054
          ],
          [
            120.57330147831365,
            24.0993254747781
          ],
          [
            120.57356524860656,
            24.099592060335922
          ],
          [
            120.57384739984738,
            24.099871771103885
          ],
          [
            120.5741533850863,
            24.100223034473785
          ],
          [
            120.57443418542047,
            24.100567074111282
          ],
          [
            120.57469146276792,
            24.100903941729975
          ],
          [
            120.5749452551895,
            24.101283807548914
          ],
          [
            120.57515185111686,
            24.101616876579804
          ],
          [
            120.57535184896024,
            24.101967516057776
          ],
          [
            120.57552921718195,
            24.10229935845223
          ],
          [
            120.57569908433734,
            24.102642157625525
          ],
          [
            120.57588256153727,
            24.103066384398982
          ],
          [
            120.57606309138836,
            24.103555016821343
          ],
          [
            120.5761044436199,
            24.10366694392738
          ],
          [
            120.57629674809701,
            24.104240909314303
          ],
          [
            120.57652266368522,
            24.1049292422542
          ],
          [
            120.5767352801307,
            24.105581765758483
          ],
          [
            120.57695811711257,
            24.10626242359499
          ],
          [
            120.57709639621669,
            24.106674489457507
          ],
          [
            120.57728065546097,
            24.107229144660167
          ],
          [
            120.57748920752896,
            24.10787008744078
          ],
          [
            120.57770614345263,
            24.108513790754383
          ],
          [
            120.57789627308159,
            24.109103711692626
          ],
          [
            120.57801950610906,
            24.109481091512375
          ],
          [
            120.57835228720569,
            24.11049782449045
          ],
          [
            120.57861400598055,
            24.11128526612945
          ],
          [
            120.57873986144236,
            24.11169971593981
          ],
          [
            120.57896458192991,
            24.112280026099516
          ],
          [
            120.57915654464709,
            24.112662276873984
          ],
          [
            120.57956123371584,
            24.113316652301293
          ],
          [
            120.57972003247745,
            24.11351685301306
          ],
          [
            120.58007764557739,
            24.11391550389377
          ],
          [
            120.58025591707253,
            24.114102684974434
          ],
          [
            120.58042222783112,
            24.114250337121195
          ],
          [
            120.5808577429574,
            24.114595351272502
          ],
          [
            120.5811071137271,
            24.11477575398949
          ],
          [
            120.58131975300688,
            24.11491663380945
          ],
          [
            120.58162613446352,
            24.11509049217825
          ],
          [
            120.58216159863719,
            24.11535596649193
          ],
          [
            120.5824865754333,
            24.115484221958248
          ],
          [
            120.5828425898008,
            24.11560952042545
          ],
          [
            120.58305556319486,
            24.115669535226623
          ],
          [
            120.58312990588615,
            24.11569048467329
          ],
          [
            120.58343221617837,
            24.1157618550241
          ],
          [
            120.5838457114045,
            24.115829726347716
          ],
          [
            120.58420938130958,
            24.115875955020044
          ],
          [
            120.58455794699356,
            24.115902076886858
          ],
          [
            120.58495766611799,
            24.115907343850495
          ],
          [
            120.58535750235883,
            24.11590070046225
          ],
          [
            120.58572052395904,
            24.11586741011132
          ],
          [
            120.58615570638648,
            24.115806223375024
          ],
          [
            120.58649848524023,
            24.11572998181906
          ],
          [
            120.58698939924518,
            24.115584117008996
          ],
          [
            120.58918420990959,
            24.11476975445083
          ],
          [
            120.59016310938335,
            24.114415117976627
          ],
          [
            120.59096115766535,
            24.11413573148217
          ],
          [
            120.59222057645071,
            24.113693231605343
          ],
          [
            120.59290607857822,
            24.113552153003514
          ],
          [
            120.59471280006885,
            24.112837970672675
          ],
          [
            120.59553645823596,
            24.112539687187684
          ],
          [
            120.596763598566,
            24.11210917949797
          ],
          [
            120.5974105448431,
            24.111900022466287
          ],
          [
            120.59769215665177,
            24.111819186297808
          ],
          [
            120.59813610290597,
            24.111703112714316
          ],
          [
            120.59870929126691,
            24.111566741749442
          ],
          [
            120.59957912578602,
            24.11140435635133
          ],
          [
            120.60047773353011,
            24.1112819832198
          ],
          [
            120.60488506075916,
            24.110814292466895
          ],
          [
            120.60524250762953,
            24.110774875200082
          ],
          [
            120.60568117420715,
            24.110726500158236
          ],
          [
            120.60750058426565,
            24.110525845355923
          ],
          [
            120.60805552228993,
            24.11046786597209
          ],
          [
            120.61116487145532,
            24.110142965997774
          ],
          [
            120.61378451694591,
            24.10984627886621
          ],
          [
            120.61478845158582,
            24.10975494062473
          ],
          [
            120.61524434254368,
            24.109694523724755
          ],
          [
            120.61598,
            24.109618
          ],
          [
            120.6196025792799,
            24.10925414067286
          ],
          [
            120.623535,
            24.108862
          ],
          [
            120.62413822873293,
            24.10878739727406
          ],
          [
            120.62473505574106,
            24.108692373144294
          ],
          [
            120.62529576751601,
            24.108613226476063
          ],
          [
            120.6257929611116,
            24.10855484224896
          ],
          [
            120.6266074095411,
            24.10849103328913
          ],
          [
            120.62703535807248,
            24.108480478381964
          ],
          [
            120.6273415881959,
            24.10848315593805
          ],
          [
            120.62774415729827,
            24.10850153752989
          ],
          [
            120.62820778885984,
            24.10854326657871
          ],
          [
            120.62864697631512,
            24.108610092323755
          ],
          [
            120.62978864605346,
            24.108881575090066
          ],
          [
            120.62987145526796,
            24.10896453304541
          ],
          [
            120.63047012992902,
            24.109122284936042
          ],
          [
            120.63066297010121,
            24.109105270369547
          ],
          [
            120.63051655778847,
            24.10902110083018
          ],
          [
            120.62992632230224,
            24.1088720359058
          ],
          [
            120.62978864605346,
            24.108881575090066
          ],
          [
            120.63066297010121,
            24.109105270369547
          ],
          [
            120.63094339382299,
            24.109177165767594
          ],
          [
            120.63097967193974,
            24.10918669173102
          ],
          [
            120.63152642813272,
            24.109333500597565
          ],
          [
            120.6316400449392,
            24.109366064285773
          ],
          [
            120.63180510651888,
            24.109414086355113
          ],
          [
            120.63194152203117,
            24.10946031645789
          ],
          [
            120.6321708303376,
            24.109537646747143
          ],
          [
            120.63235857830496,
            24.1096077868853
          ],
          [
            120.63254044810402,
            24.10967853207066
          ],
          [
            120.6327156775129,
            24.109753620438298
          ],
          [
            120.63286857362553,
            24.10981817009937
          ],
          [
            120.63299819007875,
            24.10988459236282
          ],
          [
            120.63305552782826,
            24.109909613073096
          ],
          [
            120.63305833773359,
            24.109910838779395
          ],
          [
            120.63305905675652,
            24.109911207096566
          ],
          [
            120.63307490240952,
            24.109919449190322
          ],
          [
            120.63307561961956,
            24.109919763327138
          ],
          [
            120.63316133533294,
            24.10996343448637
          ],
          [
            120.63324687029096,
            24.11000911147991
          ],
          [
            120.63349366406158,
            24.110150969196678
          ],
          [
            120.63378073892136,
            24.11030886343067
          ],
          [
            120.63403388322217,
            24.11046369619262
          ],
          [
            120.63436624682699,
            24.110668951859083
          ],
          [
            120.63464767237471,
            24.11083971219129
          ],
          [
            120.63470049234013,
            24.11087213275578
          ],
          [
            120.63471719621474,
            24.110882384853795
          ],
          [
            120.63473389616743,
            24.110892633328913
          ],
          [
            120.63498453909796,
            24.11104646712695
          ],
          [
            120.63520914044932,
            24.11118685688991
          ],
          [
            120.63541787223623,
            24.11131361210454
          ],
          [
            120.63575185354256,
            24.111518872248077
          ],
          [
            120.63594011871105,
            24.11163534412773
          ],
          [
            120.63623155411207,
            24.111815427420527
          ],
          [
            120.63647526846333,
            24.111965390384224
          ],
          [
            120.63673996443823,
            24.11212852606455
          ],
          [
            120.6369991383258,
            24.112288917702834
          ],
          [
            120.63726129049564,
            24.11244760040317
          ],
          [
            120.63751154828128,
            24.112600625558358
          ],
          [
            120.63762024111358,
            24.112668112116783
          ],
          [
            120.63785639673844,
            24.112809350696
          ],
          [
            120.63789112687674,
            24.112830122800712
          ],
          [
            120.63816264720897,
            24.113003903331396
          ],
          [
            120.63853757656817,
            24.113220970841194
          ],
          [
            120.63893646650207,
            24.1134529472985
          ],
          [
            120.63929922775498,
            24.113648936841354
          ],
          [
            120.63970004634649,
            24.113871850429376
          ],
          [
            120.64012856209467,
            24.114106873330247
          ],
          [
            120.64053849760093,
            24.11434856914161
          ],
          [
            120.64105346885681,
            24.114669972325565
          ],
          [
            120.64188571179491,
            24.115181805817294
          ],
          [
            120.64191229044312,
            24.115198151596747
          ],
          [
            120.64194256363587,
            24.115216768778676
          ],
          [
            120.64196359558454,
            24.11522970291252
          ],
          [
            120.6420487447648,
            24.11528207025299
          ],
          [
            120.64210637645489,
            24.115317513535057
          ],
          [
            120.64212512807005,
            24.115329046371574
          ],
          [
            120.64214721087176,
            24.11534262582967
          ],
          [
            120.6421776098359,
            24.115361320912086
          ],
          [
            120.64820279606413,
            24.11906655590619
          ],
          [
            120.64873411186419,
            24.11939327120847
          ],
          [
            120.6488050531739,
            24.119436894255884
          ],
          [
            120.6488937377418,
            24.119491425746105
          ],
          [
            120.64945390048538,
            24.119835875244377
          ],
          [
            120.65024188636826,
            24.120320407136923
          ],
          [
            120.65028699826934,
            24.12034814737227
          ],
          [
            120.6504151212137,
            24.12042692893006
          ],
          [
            120.6504466638481,
            24.12044632386384
          ],
          [
            120.65363004984431,
            24.12240370335792
          ],
          [
            120.65373012982006,
            24.122465237562988
          ],
          [
            120.65382982291214,
            24.1225265342578
          ],
          [
            120.65514180830556,
            24.123333200228597
          ],
          [
            120.6551423838709,
            24.12333355367168
          ],
          [
            120.65733638697692,
            24.124682475532087
          ],
          [
            120.65749205045218,
            24.124776545439286
          ],
          [
            120.65755374109649,
            24.12481382678807
          ],
          [
            120.65760940867241,
            24.12484746662842
          ],
          [
            120.65769792443282,
            24.124900959703382
          ],
          [
            120.65797228445356,
            24.125060257457147
          ],
          [
            120.65805553146434,
            24.125106970147048
          ],
          [
            120.65805825652922,
            24.12510849859169
          ],
          [
            120.65806461632117,
            24.12511206677116
          ],
          [
            120.65830202212142,
            24.12524050926868
          ],
          [
            120.65854263155555,
            24.125363829905993
          ],
          [
            120.65878631097239,
            24.125481965164237
          ],
          [
            120.65897969948703,
            24.125571169769092
          ],
          [
            120.6592723000621,
            24.125700268530128
          ],
          [
            120.65931779412603,
            24.12571963678369
          ],
          [
            120.65935446140425,
            24.125735247197703
          ],
          [
            120.65941088925035,
            24.125759270046018
          ],
          [
            120.65949455029586,
            24.12579488945312
          ],
          [
            120.65954477132343,
            24.12581626907569
          ],
          [
            120.65956681377966,
            24.12582565452861
          ],
          [
            120.6597828201032,
            24.125916174445347
          ],
          [
            120.65987147712292,
            24.125953328925448
          ],
          [
            120.65998679010377,
            24.126001650571514
          ],
          [
            120.66001486115582,
            24.126013415063525
          ],
          [
            120.66008209058683,
            24.126041588110013
          ],
          [
            120.66017757785622,
            24.12608160185127
          ],
          [
            120.66255611108085,
            24.127078325945977
          ],
          [
            120.66264429603707,
            24.127115277331058
          ],
          [
            120.662735706456,
            24.127153582963327
          ],
          [
            120.66578287321616,
            24.128430414990685
          ],
          [
            120.66712572395886,
            24.12899307381444
          ],
          [
            120.66715752896424,
            24.129006399988818
          ],
          [
            120.6671807385048,
            24.129016124588954
          ],
          [
            120.66722944159945,
            24.1290365304463
          ],
          [
            120.66836538504145,
            24.129512479335332
          ],
          [
            120.66843543683257,
            24.129541828664987
          ],
          [
            120.66852493624702,
            24.129579328508854
          ],
          [
            120.66860484164174,
            24.129612807491018
          ],
          [
            120.67273351063304,
            24.13134256861358
          ],
          [
            120.67282393054215,
            24.13138044896091
          ],
          [
            120.67290918869696,
            24.131416169219534
          ],
          [
            120.6760478521412,
            24.132731037579795
          ],
          [
            120.67606705499205,
            24.132739081910827
          ],
          [
            120.67615599671436,
            24.1327763413592
          ],
          [
            120.67624526086455,
            24.132813735073643
          ],
          [
            120.67626975146248,
            24.13282399374561
          ],
          [
            120.67814331442372,
            24.133608826613823
          ],
          [
            120.6782151693527,
            24.133638926520106
          ],
          [
            120.67830522100311,
            24.133676647557323
          ],
          [
            120.68025553607411,
            24.134493592766653
          ],
          [
            120.6803336076988,
            24.134526294309293
          ],
          [
            120.6804130376938,
            24.134559565696957
          ],
          [
            120.68189274865219,
            24.13517935854875
          ],
          [
            120.68195430276005,
            24.135205140895973
          ],
          [
            120.68201654098014,
            24.135231209969877
          ],
          [
            120.68219469093049,
            24.13530582721257
          ],
          [
            120.68237912763081,
            24.135383079442352
          ],
          [
            120.68246712456556,
            24.135418740494003
          ],
          [
            120.68257876867283,
            24.135463983818934
          ],
          [
            120.68262663892028,
            24.135483382609127
          ],
          [
            120.6828633503987,
            24.13557445664493
          ],
          [
            120.6828998496215,
            24.135587915717277
          ],
          [
            120.6829763004246,
            24.135616108721372
          ],
          [
            120.68298887904481,
            24.135620748823246
          ],
          [
            120.68305553895615,
            24.135644583771487
          ],
          [
            120.68305814007944,
            24.135645513773778
          ],
          [
            120.68324099343702,
            24.13571089172919
          ],
          [
            120.68530592758262,
            24.136437220605504
          ],
          [
            120.6855071156966,
            24.136510561395905
          ],
          [
            120.68555738818905,
            24.13652888611802
          ],
          [
            120.68579410371468,
            24.136619955639087
          ],
          [
            120.68597989622303,
            24.136694860510634
          ],
          [
            120.68616486817932,
            24.136771453760364
          ],
          [
            120.6875622426692,
            24.137356655238822
          ],
          [
            120.68783017333506,
            24.137470313661368
          ],
          [
            120.68802967386452,
            24.137558372717685
          ],
          [
            120.68822241682994,
            24.137648163986974
          ],
          [
            120.688232653792,
            24.137652934316847
          ],
          [
            120.68842786389382,
            24.137748751120643
          ],
          [
            120.68862158444773,
            24.13784708020843
          ],
          [
            120.68970072689817,
            24.138401976796857
          ],
          [
            120.6897242568603,
            24.138414076962835
          ],
          [
            120.68981908824681,
            24.138462838403377
          ],
          [
            120.68983742952864,
            24.138472269776603
          ],
          [
            120.68984261455704,
            24.138474830191864
          ],
          [
            120.69009733955335,
            24.13860065644614
          ],
          [
            120.69030032267538,
            24.13869521350983
          ],
          [
            120.69049982682617,
            24.138783269360847
          ],
          [
            120.6907006638066,
            24.138868741653518
          ],
          [
            120.69232544030393,
            24.13954923320346
          ],
          [
            120.6924405537836,
            24.139597443378754
          ],
          [
            120.69254969296351,
            24.139643151148178
          ],
          [
            120.69331177228719,
            24.13996231761301
          ],
          [
            120.69366481631576,
            24.140113231080868
          ],
          [
            120.69387428551768,
            24.14020828040102
          ],
          [
            120.69408061866231,
            24.140308933974325
          ],
          [
            120.69426711583445,
            24.140407933103262
          ],
          [
            120.69444962174448,
            24.140513011588965
          ],
          [
            120.69449370607701,
            24.140540464092382
          ],
          [
            120.69454687846766,
            24.140573576290187
          ],
          [
            120.69460411446917,
            24.140609219392466
          ],
          [
            120.69462789862067,
            24.14062403172428
          ],
          [
            120.69478946238945,
            24.14073261282697
          ],
          [
            120.69480172050432,
            24.14074085221463
          ],
          [
            120.69482885831526,
            24.140760501909362
          ],
          [
            120.6949708614554,
            24.140863322736813
          ],
          [
            120.69513510145606,
            24.140991283950655
          ],
          [
            120.69529423426927,
            24.141124572932235
          ],
          [
            120.69544804974073,
            24.141263017720846
          ],
          [
            120.69545208649562,
            24.141266921025263
          ],
          [
            120.69547622063114,
            24.141290261219176
          ],
          [
            120.69552220156997,
            24.141334726654488
          ],
          [
            120.69553138244792,
            24.14134360454007
          ],
          [
            120.6955555166122,
            24.141366944721504
          ],
          [
            120.6955963534776,
            24.14140643735812
          ],
          [
            120.69573895305196,
            24.14155465088981
          ],
          [
            120.69587566196653,
            24.141707464732487
          ],
          [
            120.69600630750492,
            24.141864681718385
          ],
          [
            120.69613072089214,
            24.142026101075757
          ],
          [
            120.69624874124338,
            24.14219151301901
          ],
          [
            120.69636021358323,
            24.14236070416228
          ],
          [
            120.69644755800549,
            24.142504704187385
          ],
          [
            120.69646500064903,
            24.14253345934865
          ],
          [
            120.69648951722981,
            24.142577531472895
          ],
          [
            120.69652586984638,
            24.142642876737163
          ],
          [
            120.696562963229,
            24.14270955438752
          ],
          [
            120.6965664460009,
            24.142716414568067
          ],
          [
            120.69659462751875,
            24.142771907026585
          ],
          [
            120.69663211738029,
            24.142845727643618
          ],
          [
            120.69665397392059,
            24.142888763305333
          ],
          [
            120.69673791714345,
            24.14307085292795
          ],
          [
            120.69677630015389,
            24.143163221515188
          ],
          [
            120.69681468518671,
            24.143255590096125
          ],
          [
            120.69688418018553,
            24.143442738057654
          ],
          [
            120.69694630822613,
            24.143632052843866
          ],
          [
            120.69700099310002,
            24.143823292326218
          ],
          [
            120.69704816254581,
            24.144016208965432
          ],
          [
            120.69707766180083,
            24.14415658139292
          ],
          [
            120.69710382806466,
            24.144297514240524
          ],
          [
            120.69712731311033,
            24.144438840857653
          ],
          [
            120.69714877844264,
            24.144580441564962
          ],
          [
            120.6971513377829,
            24.144599225829047
          ],
          [
            120.6971614880914,
            24.14467372704747
          ],
          [
            120.69717273725767,
            24.144756271959658
          ],
          [
            120.69759499580603,
            24.147854879635997
          ],
          [
            120.6976076848264,
            24.147947995254512
          ],
          [
            120.69762005080518,
            24.148038731908283
          ],
          [
            120.69766021903934,
            24.148333483314445
          ],
          [
            120.69766026350887,
            24.14833382109906
          ],
          [
            120.69797732313295,
            24.15065595326667
          ],
          [
            120.69798338856931,
            24.15070036422467
          ],
          [
            120.69798914827206,
            24.150742556977097
          ],
          [
            120.69829549852744,
            24.15298616579785
          ],
          [
            120.69860289610605,
            24.15523737456765
          ],
          [
            120.69861086391587,
            24.1552957232683
          ],
          [
            120.69862045121785,
            24.15536593426415
          ],
          [
            120.69864710999846,
            24.155561151863193
          ],
          [
            120.6986539749243,
            24.155611440624238
          ],
          [
            120.69866451424494,
            24.155688618705334
          ],
          [
            120.6993138053049,
            24.1604433500748
          ],
          [
            120.69932568827488,
            24.16053036904716
          ],
          [
            120.6993357039518,
            24.160603717581147
          ]
        ]
      }
    }
  ]
}