{
  "type": "FeatureCollection",
  "features": [
    {
      "type": "Feature",
      "properties": {
        "track_id": "OD-永康-SHL",
        "source_track": "BB-ZY-SL-1",
        "point_count": 594
      },
      "geometry": {
        "type": "LineString",
        "coordinates": [
          [
            120.27582272672615,
            22.83735737373565
          ],
          [
            120.27598564557309,
            22.837097277255275
          ],
          [
            120.27724132017129,
            22.83511031695215
          ],
          [
            120.27728156213476,
            22.83504663824289
          ],
          [
            120.27815872760567,
            22.833642466387793
          ],
          [
            120.27816714211785,
            22.833628996816184
          ],
          [
            120.27858327627406,
            22.83296968088588
          ],
          [
            120.27874486787108,
            22.832710398783075
          ],
          [
            120.27881562393684,
            22.832598218134915
          ],
          [
            120.2791229320208,
            22.832110991894908
          ],
          [
            120.27955212715759,
            22.831429272648126
          ],
          [
            120.27998005029093,
            22.83074443988045
          ],
          [
            120.28043741324304,
            22.830019722257546
          ],
          [
            120.2808688212439,
            22.829338167940307
          ],
          [
            120.28153460380148,
            22.828279325983466
          ],
          [
            120.28200651750342,
            22.827523922987815
          ],
          [
            120.28238670797343,
            22.826930183544924
          ],
          [
            120.28282497068292,
            22.82625205680253
          ],
          [
            120.28305542914391,
            22.825894418618596
          ],
          [
            120.28305549593615,
            22.825894314166078
          ],
          [
            120.28305594182287,
            22.825893626247147
          ],
          [
            120.28390067110152,
            22.824582697150788
          ],
          [
            120.28424200513639,
            22.82405961466517
          ],
          [
            120.2844262911431,
            22.823777200812167
          ],
          [
            120.28460800833629,
            22.82349872329591
          ],
          [
            120.28469404189377,
            22.823366878589034
          ],
          [
            120.28471576951279,
            22.82333339191355
          ],
          [
            120.28471654535879,
            22.823332196153675
          ],
          [
            120.28471840738354,
            22.823329327413568
          ],
          [
            120.28573599896401,
            22.821760979326328
          ],
          [
            120.28646047782442,
            22.82063144133559
          ],
          [
            120.28748423348345,
            22.819051970162274
          ],
          [
            120.28837457560603,
            22.817675399923626
          ],
          [
            120.28938764565565,
            22.81612021612834
          ],
          [
            120.28980121319523,
            22.815480033753452
          ],
          [
            120.28988770890481,
            22.81534614075584
          ],
          [
            120.29011312366812,
            22.8149972074135
          ],
          [
            120.29062433462606,
            22.814205164234963
          ],
          [
            120.29117290290925,
            22.813361631106872
          ],
          [
            120.29179686428672,
            22.812397370256754
          ],
          [
            120.29238781135659,
            22.811484444607057
          ],
          [
            120.29268283826316,
            22.81102532663049
          ],
          [
            120.29274127385769,
            22.81093438903149
          ],
          [
            120.2927905033391,
            22.810857778038915
          ],
          [
            120.29284937969112,
            22.81076615513229
          ],
          [
            120.29373206275476,
            22.80941139906239
          ],
          [
            120.29414353417103,
            22.808776057666616
          ],
          [
            120.29498674325934,
            22.807472850980215
          ],
          [
            120.2956907578421,
            22.806386499984917
          ],
          [
            120.29611498671576,
            22.80572873509295
          ],
          [
            120.29623416399329,
            22.80554570861619
          ],
          [
            120.29696465538922,
            22.80442384926917
          ],
          [
            120.29709735235785,
            22.804220055588907
          ],
          [
            120.29767022786443,
            22.80333557546238
          ],
          [
            120.29824793618475,
            22.802447217643415
          ],
          [
            120.29864865605953,
            22.80183083589693
          ],
          [
            120.29900178997043,
            22.801209390851646
          ],
          [
            120.29927941394095,
            22.8006102254566
          ],
          [
            120.29945564361115,
            22.80017268064381
          ],
          [
            120.29966196332443,
            22.799536461521175
          ],
          [
            120.29983015174776,
            22.798796491292155
          ],
          [
            120.29989519085792,
            22.79845206043398
          ],
          [
            120.2999310957819,
            22.798333749755027
          ],
          [
            120.29994496021865,
            22.798288064858944
          ],
          [
            120.30003141943709,
            22.79743446681737
          ],
          [
            120.30011787865551,
            22.7965808687758
          ],
          [
            120.29999254953157,
            22.796857699347633
          ],
          [
            120.2998852585535,
            22.79723154319568
          ],
          [
            120.29976305213202,
            22.79755047656727
          ],
          [
            120.29965967109291,
            22.797746518876437
          ],
          [
            120.29953586812171,
            22.79794481301634
          ],
          [
            120.30011787865551,
            22.7965808687758
          ],
          [
            120.30020414348071,
            22.795655653307563
          ],
          [
            120.30035373272364,
            22.794369336690774
          ],
          [
            120.3004800189989,
            22.793031792215622
          ],
          [
            120.30055549874933,
            22.792281949543714
          ],
          [
            120.30057988079767,
            22.792039729608263
          ],
          [
            120.3006559162502,
            22.791284284242927
          ],
          [
            120.30074427754555,
            22.790331607044322
          ],
          [
            120.3008273173555,
            22.789588967554128
          ],
          [
            120.30083957523614,
            22.789479329576942
          ],
          [
            120.30085644431168,
            22.789323148730748
          ],
          [
            120.30086017324363,
            22.789288621596043
          ],
          [
            120.30110374986107,
            22.787033318186893
          ],
          [
            120.301135474435,
            22.78669764698279
          ],
          [
            120.30116207545521,
            22.78641618691914
          ],
          [
            120.30119713296286,
            22.786045236342424
          ],
          [
            120.30121666075871,
            22.785838602742974
          ],
          [
            120.30130595791582,
            22.78502021851146
          ],
          [
            120.30132501791313,
            22.78483499505501
          ],
          [
            120.3013390991169,
            22.784698177694988
          ],
          [
            120.30135973885153,
            22.78449762282438
          ],
          [
            120.30140255238827,
            22.784128949233786
          ],
          [
            120.30144143177561,
            22.783862659845205
          ],
          [
            120.30147874289912,
            22.783632735752658
          ],
          [
            120.30153803599558,
            22.783338475183307
          ],
          [
            120.30162561486003,
            22.783010673544485
          ],
          [
            120.30174145607889,
            22.782639909145505
          ],
          [
            120.30187834689943,
            22.782229205376613
          ],
          [
            120.3021222805613,
            22.781545432723615
          ],
          [
            120.3021631901097,
            22.78143099185736
          ],
          [
            120.30240943519546,
            22.780742152696085
          ],
          [
            120.30263106080571,
            22.780113360424632
          ],
          [
            120.30287069789318,
            22.779444705371805
          ],
          [
            120.30311317024119,
            22.77875191914994
          ],
          [
            120.30335913741192,
            22.778073855711273
          ],
          [
            120.30358331327405,
            22.7774293371848
          ],
          [
            120.30366113496846,
            22.777210906112227
          ],
          [
            120.3038000452767,
            22.776821005386577
          ],
          [
            120.30388055043412,
            22.776595036367453
          ],
          [
            120.30417334282765,
            22.77577347197291
          ],
          [
            120.30419215000565,
            22.775720003877208
          ],
          [
            120.30425209693857,
            22.775549573000742
          ],
          [
            120.30445629671782,
            22.774969030131434
          ],
          [
            120.30484969566513,
            22.773871634454583
          ],
          [
            120.30504128859371,
            22.773333475565497
          ],
          [
            120.30504281090965,
            22.77332919901542
          ],
          [
            120.30515676084906,
            22.77300912770101
          ],
          [
            120.30547865741369,
            22.772103454681268
          ],
          [
            120.30579460098747,
            22.771239099405815
          ],
          [
            120.3062002113784,
            22.77007720503653
          ],
          [
            120.3063758219725,
            22.76962116960902
          ],
          [
            120.30658073023547,
            22.768976713618592
          ],
          [
            120.30681413707649,
            22.768399811117146
          ],
          [
            120.30699187409562,
            22.767858291995413
          ],
          [
            120.30723433244957,
            22.767178512422742
          ],
          [
            120.30762285737082,
            22.766141921008447
          ],
          [
            120.30796697277987,
            22.765365525170083
          ],
          [
            120.30805552745903,
            22.765179587304655
          ],
          [
            120.3080835194928,
            22.765120813250697
          ],
          [
            120.30881128298334,
            22.763721398889324
          ],
          [
            120.3094329413121,
            22.76261619025087
          ],
          [
            120.30967916963625,
            22.762227905795864
          ],
          [
            120.31029624146731,
            22.761080129818605
          ],
          [
            120.31095040198223,
            22.75986336754473
          ],
          [
            120.31142878598666,
            22.75890454175773
          ],
          [
            120.31188573801613,
            22.75806903888282
          ],
          [
            120.31225450243596,
            22.757357761929477
          ],
          [
            120.31325652284252,
            22.755499660109493
          ],
          [
            120.31468525938836,
            22.7528900675891
          ],
          [
            120.31708477550283,
            22.748429344731
          ],
          [
            120.31713760456877,
            22.748333756221328
          ],
          [
            120.3171384603075,
            22.748332208427414
          ],
          [
            120.31774863338215,
            22.747228173215966
          ],
          [
            120.31867730910199,
            22.745491838402046
          ],
          [
            120.31929796326803,
            22.74436180411785
          ],
          [
            120.31967187891367,
            22.743660029430337
          ],
          [
            120.3213718642531,
            22.740535968793203
          ],
          [
            120.32185489542034,
            22.739732624956993
          ],
          [
            120.32231089530283,
            22.739049342982256
          ],
          [
            120.32291863141927,
            22.738220978638903
          ],
          [
            120.32419692028061,
            22.736632777442747
          ],
          [
            120.32466117945326,
            22.735957149322086
          ],
          [
            120.32475752362146,
            22.735786348103005
          ],
          [
            120.32500346339052,
            22.735309384133604
          ],
          [
            120.32525577193049,
            22.73468528402552
          ],
          [
            120.32539062007953,
            22.7342220138653
          ],
          [
            120.32544938844467,
            22.733994750480036
          ],
          [
            120.32553077330036,
            22.733609231887677
          ],
          [
            120.32558972340898,
            22.733250304882816
          ],
          [
            120.32561566029922,
            22.732983327164785
          ],
          [
            120.3256346511749,
            22.732490744804764
          ],
          [
            120.32562343915714,
            22.73204894769357
          ],
          [
            120.32557998068344,
            22.731552201471775
          ],
          [
            120.32546991220427,
            22.730969816902327
          ],
          [
            120.32541363877253,
            22.730725215893948
          ],
          [
            120.32534276131587,
            22.73047831363486
          ],
          [
            120.32525198967633,
            22.730206115734138
          ],
          [
            120.32512495692416,
            22.72987336441928
          ],
          [
            120.32507719711666,
            22.729787249246748
          ],
          [
            120.32497830648701,
            22.729574133930363
          ],
          [
            120.32477221935792,
            22.729033825082578
          ],
          [
            120.32435206452702,
            22.727990389765846
          ],
          [
            120.32418113456832,
            22.72752055725828
          ],
          [
            120.32401328412817,
            22.727042900156324
          ],
          [
            120.32389459564546,
            22.726705144731675
          ],
          [
            120.32349528278759,
            22.72536002321059
          ],
          [
            120.32325779878919,
            22.724685560834327
          ],
          [
            120.32277313092789,
            22.72339282658381
          ],
          [
            120.32275258249057,
            22.7233337696936
          ],
          [
            120.32275185201934,
            22.72333166878986
          ],
          [
            120.32253415793672,
            22.722705996611342
          ],
          [
            120.32244679326418,
            22.722454899776526
          ],
          [
            120.32225658255446,
            22.721952578027107
          ],
          [
            120.32219594663981,
            22.721774702520353
          ],
          [
            120.32217706565245,
            22.72171931633959
          ],
          [
            120.32204836840556,
            22.721252016604332
          ],
          [
            120.32196740614384,
            22.720912963249873
          ],
          [
            120.32188074642323,
            22.720421253977424
          ],
          [
            120.32184243022847,
            22.720042420954826
          ],
          [
            120.32183203926252,
            22.71965770189439
          ],
          [
            120.32184954734184,
            22.71917655399857
          ],
          [
            120.32187076244259,
            22.718884791853977
          ],
          [
            120.32192544335749,
            22.71849007816894
          ],
          [
            120.32199671042747,
            22.718125962739833
          ],
          [
            120.32215965411197,
            22.717522868706403
          ],
          [
            120.32273825688297,
            22.71584189574344
          ],
          [
            120.32305330539229,
            22.714856720797524
          ],
          [
            120.32312446634715,
            22.714584802223218
          ],
          [
            120.32319037415331,
            22.714292363680684
          ],
          [
            120.32323517451529,
            22.714044434380593
          ],
          [
            120.32339829964756,
            22.712946139128157
          ],
          [
            120.32379002932961,
            22.709979860072714
          ],
          [
            120.32394383668014,
            22.708906399892534
          ],
          [
            120.32399253540629,
            22.70837367251364
          ],
          [
            120.32400906384386,
            22.708007931667833
          ],
          [
            120.32399644128718,
            22.707581258103893
          ],
          [
            120.32397606420479,
            22.70728143834576
          ],
          [
            120.32394112224995,
            22.70694585806124
          ],
          [
            120.3238571144929,
            22.70646638952847
          ],
          [
            120.32377622132627,
            22.706123429297524
          ],
          [
            120.32372486288878,
            22.70594357950965
          ],
          [
            120.3235729833193,
            22.70547574791246
          ],
          [
            120.32320752449141,
            22.704635304987775
          ],
          [
            120.32264330989626,
            22.703431404990727
          ],
          [
            120.32236989446815,
            22.70289526202798
          ],
          [
            120.32220948726388,
            22.702610831237173
          ],
          [
            120.32204574362233,
            22.702356367834888
          ],
          [
            120.32175988592043,
            22.701949459914186
          ],
          [
            120.321293543852,
            22.701331358848186
          ],
          [
            120.3195470786664,
            22.699234209952756
          ],
          [
            120.31878870655459,
            22.698333780510655
          ],
          [
            120.31878656522885,
            22.698331237400872
          ],
          [
            120.31851630459765,
            22.69801034917344
          ],
          [
            120.31821620192954,
            22.697680271128355
          ],
          [
            120.31787371045061,
            22.697320050942658
          ],
          [
            120.31697714378423,
            22.696434393253426
          ],
          [
            120.31529823682179,
            22.69482048437869
          ],
          [
            120.31419098608859,
            22.693733314487126
          ],
          [
            120.31172841064644,
            22.69135087855916
          ],
          [
            120.3111216034674,
            22.6907798452849
          ],
          [
            120.31078565974705,
            22.690480286404515
          ],
          [
            120.31003470861609,
            22.68984357718186
          ],
          [
            120.30932143494549,
            22.68922381322992
          ],
          [
            120.3090680652344,
            22.689029148337298
          ],
          [
            120.3089154282936,
            22.68891479295466
          ],
          [
            120.30871117980138,
            22.688753612913455
          ],
          [
            120.30860766347756,
            22.68867274360851
          ],
          [
            120.30827073639398,
            22.68835540397488
          ],
          [
            120.30805552011005,
            22.688169643128706
          ],
          [
            120.30805402878347,
            22.688168356139755
          ],
          [
            120.30701310814358,
            22.687269874712058
          ],
          [
            120.30570249820522,
            22.686138608174105
          ],
          [
            120.30501282456463,
            22.68558096645821
          ],
          [
            120.30386249138247,
            22.68461411780767
          ],
          [
            120.30299664718366,
            22.683811638989862
          ],
          [
            120.30238701647127,
            22.68320204560047
          ],
          [
            120.29949999034649,
            22.680152351273357
          ],
          [
            120.29893383966768,
            22.679547561711477
          ],
          [
            120.2983694499587,
            22.67893063263885
          ],
          [
            120.29767418906994,
            22.67820214587013
          ],
          [
            120.2966966514447,
            22.67715409089193
          ],
          [
            120.29519177753701,
            22.675569598563442
          ],
          [
            120.29304651924653,
            22.6733337817719
          ],
          [
            120.29058512180237,
            22.670768356322007
          ],
          [
            120.28968538601039,
            22.669787274737647
          ],
          [
            120.2893315363308,
            22.669317590367303
          ],
          [
            120.28883008931182,
            22.668627554896908
          ],
          [
            120.28853971629478,
            22.668189772255044
          ],
          [
            120.28818583418631,
            22.667695652943344
          ],
          [
            120.28631682483189,
            22.664945538913468
          ],
          [
            120.28574852780679,
            22.664085929022416
          ],
          [
            120.28523266831456,
            22.663325858155005
          ],
          [
            120.28498104848194,
            22.66293237930009
          ],
          [
            120.28453281929487,
            22.662293198455558
          ],
          [
            120.28367772432533,
            22.660996194620502
          ],
          [
            120.28305553333334,
            22.66006436497067
          ],
          [
            120.28295174520517,
            22.65990892424175
          ],
          [
            120.28271908286067,
            22.6595187488997
          ],
          [
            120.28250502034281,
            22.65910173532872
          ],
          [
            120.28234292107868,
            22.658749402150328
          ],
          [
            120.28215919477879,
            22.658246050363125
          ],
          [
            120.2819932522861,
            22.657703619462172
          ],
          [
            120.28187653194857,
            22.65716140897069
          ],
          [
            120.28178204496761,
            22.656400664820794
          ],
          [
            120.28172254721956,
            22.65567270955664
          ],
          [
            120.28162839141592,
            22.653912569922284
          ],
          [
            120.28127607351652,
            22.648333411079832
          ],
          [
            120.28116130349304,
            22.646515886145657
          ],
          [
            120.281025031677,
            22.64477926284045
          ],
          [
            120.28086686142974,
            22.64311034202101
          ],
          [
            120.28085715655996,
            22.64262860880082
          ],
          [
            120.28094083505883,
            22.64162255377889
          ],
          [
            120.28132040130389,
            22.64027916250815
          ],
          [
            120.28176222365197,
            22.638955951466546
          ],
          [
            120.28206574171011,
            22.638383976811234
          ],
          [
            120.28227827135645,
            22.63807492515888
          ],
          [
            120.28261420972197,
            22.637694636223763
          ],
          [
            120.2829390916863,
            22.637412192004653
          ],
          [
            120.28305553156498,
            22.637329084340884
          ],
          [
            120.28327076604022,
            22.637175461686297
          ],
          [
            120.28362625746269,
            22.636977996649474
          ],
          [
            120.28395810943124,
            22.636819582136265
          ],
          [
            120.28434901680731,
            22.636684273505786
          ],
          [
            120.28473970385905,
            22.636591384398805
          ],
          [
            120.28521102200322,
            22.636541274328682
          ],
          [
            120.28576741905701,
            22.636537604464493
          ],
          [
            120.28603950203355,
            22.636552282573746
          ],
          [
            120.28671446645944,
            22.636675504994717
          ],
          [
            120.2877494632693,
            22.636900371117726
          ],
          [
            120.28913368878288,
            22.637196132763616
          ],
          [
            120.2902012415254,
            22.637452115324265
          ],
          [
            120.2906564988357,
            22.63762055309599
          ],
          [
            120.2911510918009,
            22.637830768625733
          ],
          [
            120.29167972120423,
            22.63808763276802
          ],
          [
            120.2926370382888,
            22.638554416212756
          ],
          [
            120.29382316432718,
            22.639134781714734
          ],
          [
            120.29493832508717,
            22.639673220517583
          ],
          [
            120.29569642307759,
            22.6399163966596
          ],
          [
            120.29623119085397,
            22.64000685148401
          ],
          [
            120.29665035049855,
            22.640018479938842
          ],
          [
            120.29733866061245,
            22.639987234535372
          ],
          [
            120.2983066267733,
            22.63992131426054
          ],
          [
            120.29896864532057,
            22.63987526291783
          ],
          [
            120.29987754446407,
            22.63980593761422
          ],
          [
            120.30046973563199,
            22.63973279920957
          ],
          [
            120.30259894126868,
            22.639498422126422
          ],
          [
            120.212901,
            22.996819
          ],
          [
            120.21285586621373,
            22.996287822036926
          ],
          [
            120.21269778256467,
            22.995474422683188
          ],
          [
            120.21260555497979,
            22.99502518319843
          ],
          [
            120.21248949710464,
            22.994609938369706
          ],
          [
            120.21245305812212,
            22.994401479604534
          ],
          [
            120.21236358491383,
            22.993928628073935
          ],
          [
            120.21217018302009,
            22.993063811820228
          ],
          [
            120.21213089481718,
            22.99284745186176
          ],
          [
            120.21206858448933,
            22.992519050514208
          ],
          [
            120.21197018366793,
            22.99196913075531
          ],
          [
            120.21193647623002,
            22.99167375940705
          ],
          [
            120.21192967734896,
            22.991532843527825
          ],
          [
            120.21192018630279,
            22.99133615579348
          ],
          [
            120.21193231120051,
            22.99091106945085
          ],
          [
            120.21198284294762,
            22.99050157774177
          ],
          [
            120.21203118230527,
            22.990262951720876
          ],
          [
            120.21213371861303,
            22.989849729022588
          ],
          [
            120.21226275098246,
            22.989421152149387
          ],
          [
            120.212459592814,
            22.9887809510263
          ],
          [
            120.21251874235489,
            22.988593124351024
          ],
          [
            120.21305087402999,
            22.98690330673837
          ],
          [
            120.21306791154528,
            22.986849202289864
          ],
          [
            120.21308428133158,
            22.98679721931853
          ],
          [
            120.21331908382341,
            22.986051573185385
          ],
          [
            120.2135527280704,
            22.985309596102837
          ],
          [
            120.21380453823194,
            22.984509920169476
          ],
          [
            120.21387381658805,
            22.984289369895336
          ],
          [
            120.21390223611134,
            22.984198895927637
          ],
          [
            120.21393888870985,
            22.984082212115776
          ],
          [
            120.21459053057598,
            22.98200764879098
          ],
          [
            120.21461387682575,
            22.981933327044313
          ],
          [
            120.21466611646564,
            22.981767014612544
          ],
          [
            120.21466786318436,
            22.98176145346293
          ],
          [
            120.21469330139546,
            22.981680544628755
          ],
          [
            120.2149718082615,
            22.980794697163674
          ],
          [
            120.21527108474245,
            22.97984554745047
          ],
          [
            120.21567579392617,
            22.978556802837698
          ],
          [
            120.21603617814422,
            22.977407842263688
          ],
          [
            120.21635949681931,
            22.97638036987692
          ],
          [
            120.21663836620219,
            22.97546811687456
          ],
          [
            120.21694550598242,
            22.974515749933722
          ],
          [
            120.21731690350649,
            22.973333764955143
          ],
          [
            120.21759890032484,
            22.972428373558742
          ],
          [
            120.2176798561963,
            22.972020357036037
          ],
          [
            120.21774289687772,
            22.971569088687254
          ],
          [
            120.21776593521108,
            22.971241912510788
          ],
          [
            120.21777744728145,
            22.970816779644572
          ],
          [
            120.21768459503018,
            22.96961101713534
          ],
          [
            120.21758503676176,
            22.968011089949528
          ],
          [
            120.21749327688453,
            22.96661584568892
          ],
          [
            120.21740709974202,
            22.965290345381334
          ],
          [
            120.21732322130117,
            22.964085485956236
          ],
          [
            120.21729883091852,
            22.963353822814703
          ],
          [
            120.21729436492586,
            22.9624485360677
          ],
          [
            120.21731299067399,
            22.962188590137927
          ],
          [
            120.21732805591947,
            22.961974752835165
          ],
          [
            120.2173450392576,
            22.961772433967692
          ],
          [
            120.21735853331008,
            22.961633680347205
          ],
          [
            120.21737246847657,
            22.961488083111842
          ],
          [
            120.21739110650162,
            22.961307453878323
          ],
          [
            120.21742745605852,
            22.961046508115587
          ],
          [
            120.21746130132327,
            22.9607984351567
          ],
          [
            120.21749344460375,
            22.960575314136086
          ],
          [
            120.21750756073341,
            22.96048024619636
          ],
          [
            120.21751588335107,
            22.960424188093516
          ],
          [
            120.21753016608662,
            22.960314054095598
          ],
          [
            120.2175571785933,
            22.96012318976526
          ],
          [
            120.21759081838093,
            22.95988904750753
          ],
          [
            120.21762885514413,
            22.959624187242888
          ],
          [
            120.21766883593762,
            22.959326647245824
          ],
          [
            120.2177121268799,
            22.959030505170066
          ],
          [
            120.21775769677024,
            22.958712951977066
          ],
          [
            120.21779703731085,
            22.95841591262885
          ],
          [
            120.21780951882421,
            22.958334038710447
          ],
          [
            120.21784394751943,
            22.958108200773214
          ],
          [
            120.21789089386311,
            22.957773643196916
          ],
          [
            120.2181105192079,
            22.95623028874421
          ],
          [
            120.21814350692931,
            22.95600098589398
          ],
          [
            120.21818132328534,
            22.9557238359401
          ],
          [
            120.21821181213107,
            22.955519540710704
          ],
          [
            120.21824405884868,
            22.955292872783673
          ],
          [
            120.21828549405595,
            22.955039871104677
          ],
          [
            120.21831643056343,
            22.954796129610262
          ],
          [
            120.2183535620874,
            22.954558613343202
          ],
          [
            120.21837365508952,
            22.954410105058198
          ],
          [
            120.21839705451941,
            22.954234456537016
          ],
          [
            120.21842134399878,
            22.954066641576333
          ],
          [
            120.21843630306577,
            22.953944081542456
          ],
          [
            120.21847142615958,
            22.9536976063883
          ],
          [
            120.2185118837552,
            22.95344758424488
          ],
          [
            120.21856418454217,
            22.953137826035622
          ],
          [
            120.21859315384019,
            22.952959006386383
          ],
          [
            120.21860123016874,
            22.952922226422146
          ],
          [
            120.218617996649,
            22.952845862025214
          ],
          [
            120.2186528779409,
            22.952686708553387
          ],
          [
            120.21868290227559,
            22.952559299400814
          ],
          [
            120.21875198939219,
            22.952340726760703
          ],
          [
            120.21880470254817,
            22.952149172187717
          ],
          [
            120.21885633598109,
            22.95197564649232
          ],
          [
            120.21891002436678,
            22.951811020223676
          ],
          [
            120.21896267047322,
            22.951645846083967
          ],
          [
            120.21901079047417,
            22.951516624167052
          ],
          [
            120.21903655573199,
            22.951451270283023
          ],
          [
            120.21906054040403,
            22.951392383188363
          ],
          [
            120.21915790971569,
            22.95116577087246
          ],
          [
            120.2192396255503,
            22.950981510770333
          ],
          [
            120.21932985626435,
            22.950796611639056
          ],
          [
            120.21944820212686,
            22.95056376312159
          ],
          [
            120.21960443388096,
            22.95028639772791
          ],
          [
            120.21973066016652,
            22.950096084783862
          ],
          [
            120.21986451552189,
            22.949880346765152
          ],
          [
            120.21998537825785,
            22.94969512283116
          ],
          [
            120.22016271296765,
            22.94945165521052
          ],
          [
            120.22036048634776,
            22.949216867407685
          ],
          [
            120.22060799370598,
            22.948917626719375
          ],
          [
            120.2207676366426,
            22.948694602527805
          ],
          [
            120.22101696780332,
            22.948414547556
          ],
          [
            120.22107718227781,
            22.94833539177218
          ],
          [
            120.22144115723837,
            22.947884759194313
          ],
          [
            120.22171359746395,
            22.94755589705518
          ],
          [
            120.22192238082508,
            22.947305536153866
          ],
          [
            120.22220507376873,
            22.946965331755912
          ],
          [
            120.22242356822491,
            22.94670481901401
          ],
          [
            120.2226815067753,
            22.946393184981314
          ],
          [
            120.22290127463377,
            22.946127226218344
          ],
          [
            120.22304295246104,
            22.94595487126778
          ],
          [
            120.22320741844582,
            22.945754010981382
          ],
          [
            120.22323813603673,
            22.94571729639678
          ],
          [
            120.223248960662,
            22.945704360321397
          ],
          [
            120.22326369163973,
            22.94568675126636
          ],
          [
            120.2234211885274,
            22.94549850795763
          ],
          [
            120.22362772193263,
            22.945247298299375
          ],
          [
            120.22392878196348,
            22.944887734739588
          ],
          [
            120.22421253958684,
            22.944545247900404
          ],
          [
            120.2244767776007,
            22.944230315647538
          ],
          [
            120.2246928414701,
            22.94397250480971
          ],
          [
            120.22504921905174,
            22.94354113538204
          ],
          [
            120.22545956980244,
            22.943042223284422
          ],
          [
            120.22569779195696,
            22.942759238991357
          ],
          [
            120.22586474629568,
            22.94256726454737
          ],
          [
            120.22604478888871,
            22.942348692005275
          ],
          [
            120.22627017582505,
            22.942082965955326
          ],
          [
            120.22644615665186,
            22.941865340249617
          ],
          [
            120.22669023494461,
            22.94156579615679
          ],
          [
            120.22703646301034,
            22.941145345026293
          ],
          [
            120.22731161838787,
            22.94080982853037
          ],
          [
            120.22750523550509,
            22.9405762488167
          ],
          [
            120.22765369433026,
            22.940379167806768
          ],
          [
            120.227831312782,
            22.94013383370978
          ],
          [
            120.22803494667876,
            22.939830177766215
          ],
          [
            120.22819608372642,
            22.93958408487575
          ],
          [
            120.22829481276915,
            22.93941227988481
          ],
          [
            120.22833130694688,
            22.939354298120275
          ],
          [
            120.22836296597345,
            22.939293240619914
          ],
          [
            120.22839654798786,
            22.93923763046683
          ],
          [
            120.22846912334822,
            22.939094546176708
          ],
          [
            120.2284896248472,
            22.93905922204177
          ],
          [
            120.22851205124586,
            22.939020580522925
          ],
          [
            120.22865351975659,
            22.93875540723627
          ],
          [
            120.2288216661434,
            22.938453433386165
          ],
          [
            120.2290007526727,
            22.938123810424795
          ],
          [
            120.2291606104662,
            22.93782280547424
          ],
          [
            120.22944788521279,
            22.937286277401956
          ],
          [
            120.22971255800238,
            22.936796394894856
          ],
          [
            120.22998100416734,
            22.936291645638736
          ],
          [
            120.23022222541364,
            22.935838074543106
          ],
          [
            120.2303434078019,
            22.935612914341093
          ],
          [
            120.23055422955665,
            22.935221203193937
          ],
          [
            120.23056387772057,
            22.9352032770762
          ],
          [
            120.23060478487056,
            22.935127267362425
          ],
          [
            120.23062708538946,
            22.935085830931527
          ],
          [
            120.23239968887232,
            22.931872428764972
          ],
          [
            120.233032297289,
            22.930696860188874
          ],
          [
            120.23323921373786,
            22.930314953647606
          ],
          [
            120.23343539672959,
            22.929922524392783
          ],
          [
            120.23380641135894,
            22.929243385692544
          ],
          [
            120.23396467169391,
            22.9289845838197
          ],
          [
            120.23426089269631,
            22.928566530470672
          ],
          [
            120.2345069768067,
            22.928282574253892
          ],
          [
            120.23471555787384,
            22.928071143047784
          ],
          [
            120.2349436348287,
            22.9278548162755
          ],
          [
            120.23523548966101,
            22.927615256295827
          ],
          [
            120.23551655684489,
            22.92738980415287
          ],
          [
            120.23571289594115,
            22.927233979618777
          ],
          [
            120.23590646726335,
            22.927080683526583
          ],
          [
            120.23642403782317,
            22.926662545828886
          ],
          [
            120.23719448832041,
            22.92604974967008
          ],
          [
            120.23786792898274,
            22.92551600355674
          ],
          [
            120.23868039533032,
            22.92486601888714
          ],
          [
            120.23926095187073,
            22.92440814496824
          ],
          [
            120.23946222334104,
            22.924245822036596
          ],
          [
            120.23992835594854,
            22.92386906537875
          ],
          [
            120.24046,
            22.923441
          ],
          [
            120.2421331768499,
            22.9220922001846
          ],
          [
            120.24269011592544,
            22.921648088635237
          ],
          [
            120.24318280997014,
            22.921255752866994
          ],
          [
            120.24338317287977,
            22.921102226290834
          ],
          [
            120.24357972188349,
            22.92091451523894
          ],
          [
            120.2438667161769,
            22.92064684111792
          ],
          [
            120.24410658087484,
            22.920409452939836
          ],
          [
            120.24502154553245,
            22.919421657348646
          ],
          [
            120.24601681648721,
            22.918367291503777
          ],
          [
            120.24748464621534,
            22.916786707860894
          ],
          [
            120.24833500520316,
            22.91586327373615
          ],
          [
            120.24867987840476,
            22.91546812830166
          ],
          [
            120.24906490475118,
            22.914991617438634
          ],
          [
            120.24950345112855,
            22.914298862337255
          ],
          [
            120.249827122498,
            22.91364181459939
          ],
          [
            120.25005721853202,
            22.913032206111296
          ],
          [
            120.25025920736414,
            22.9123486272709
          ],
          [
            120.25137780294054,
            22.908366714357733
          ],
          [
            120.25196515106379,
            22.906265945940394
          ],
          [
            120.252654,
            22.904407
          ],
          [
            120.25337198668146,
            22.90156043258568
          ],
          [
            120.25342835638213,
            22.901397719890817
          ],
          [
            120.25353976889917,
            22.901180066199572
          ],
          [
            120.25378042552992,
            22.900862533539108
          ],
          [
            120.25410419925362,
            22.900622840399087
          ],
          [
            120.25446953152218,
            22.900447622753617
          ],
          [
            120.25472386592551,
            22.900351495384054
          ],
          [
            120.25499436966538,
            22.900303431695605
          ],
          [
            120.25527412092386,
            22.900289442640208
          ],
          [
            120.25566806673692,
            22.90033324267109
          ],
          [
            120.25601762369872,
            22.90044032925892
          ],
          [
            120.25629181300485,
            22.900598226001343
          ],
          [
            120.25652138284336,
            22.900758101435848
          ],
          [
            120.25668622005108,
            22.900926495502123
          ],
          [
            120.25686013991927,
            22.901138160962695
          ],
          [
            120.25702383762714,
            22.901433857056546
          ],
          [
            120.25720603037237,
            22.901882887718042
          ],
          [
            120.25736972808019,
            22.902191362115637
          ],
          [
            120.25749262274346,
            22.90235725756362
          ],
          [
            120.25762127721404,
            22.902491318471192
          ],
          [
            120.25780852031491,
            22.902645818220343
          ],
          [
            120.25805336146864,
            22.902810929459648
          ],
          [
            120.25827516340067,
            22.902922983386702
          ],
          [
            120.25845806193651,
            22.90299227467954
          ],
          [
            120.25862944086111,
            22.903029731579313
          ],
          [
            120.25882147237024,
            22.90306886348015
          ],
          [
            120.25903078329462,
            22.903076161008237
          ],
          [
            120.25963659882623,
            22.903090756058354
          ],
          [
            120.2613633212817,
            22.903112792081803
          ],
          [
            120.26351153132225,
            22.903035494905495
          ],
          [
            120.26443389003548,
            22.90311738930986
          ],
          [
            120.2649371821721,
            22.903224428283032
          ],
          [
            120.26569274593506,
            22.903476886668038
          ],
          [
            120.26830816234448,
            22.90454806979374
          ],
          [
            120.26889590993503,
            22.90483455559646
          ],
          [
            120.26930643892335,
            22.905104497957186
          ],
          [
            120.27052762903725,
            22.906320147411563
          ],
          [
            120.27094181883851,
            22.906571894413865
          ],
          [
            120.27127957951205,
            22.906739526209705
          ],
          [
            120.27222712119436,
            22.907137755179484
          ],
          [
            120.27262,
            22.90731
          ],
          [
            120.27514834780678,
            22.90837353995815
          ],
          [
            120.27774835535297,
            22.90948082958652
          ],
          [
            120.28044021264219,
            22.910611687167464
          ],
          [
            120.28456210825365,
            22.911955809293026
          ],
          [
            120.28664056650732,
            22.912649169656692
          ],
          [
            120.28810939593686,
            22.91314488099627
          ],
          [
            120.28855276575631,
            22.913339239022292
          ],
          [
            120.28893115891753,
            22.913544872963424
          ],
          [
            120.28914859073112,
            22.913709881226055
          ],
          [
            120.28933655969337,
            22.913879412489486
          ],
          [
            120.2895173335934,
            22.91407346647859
          ],
          [
            120.28968828654612,
            22.914294658397015
          ],
          [
            120.28985187378372,
            22.914552034168523
          ],
          [
            120.28999827436007,
            22.91487951595262
          ],
          [
            120.29011041336997,
            22.915260934218384
          ],
          [
            120.29014684097393,
            22.915468604416503
          ],
          [
            120.29017344762754,
            22.915730549916454
          ],
          [
            120.2901585115643,
            22.915978016154636
          ],
          [
            120.2901166702061,
            22.91628040467932
          ],
          [
            120.28999110462723,
            22.9167038014382
          ],
          [
            120.28988786491126,
            22.916921560821237
          ],
          [
            120.286366,
            22.923863
          ]
        ]
      }
    }
  ]
}