{
  "type": "FeatureCollection",
  "features": [
    {
      "type": "Feature",
      "properties": {
        "track_id": "SH-TN-SL",
        "origin": "臺南",
        "destination": "沙崙",
        "origin_station_id": "4220",
        "destination_station_id": "4272",
        "source_tracks": [
          "WL-S1-1",
          "SH-1"
        ],
        "stations": [
          {
            "station_id": "4220",
            "name": "臺南",
            "progress": 0.0
          },
          {
            "station_id": "4250",
            "name": "保安",
            "progress": 0.394701
          },
          {
            "station_id": "4260",
            "name": "仁德",
            "progress": 0.462172
          },
          {
            "station_id": "4270",
            "name": "中洲",
            "progress": 0.59217
          },
          {
            "station_id": "4271",
            "name": "長榮大學",
            "progress": 0.836934
          },
          {
            "station_id": "4272",
            "name": "沙崙",
            "progress": 1.0
          }
        ]
      },
      "geometry": {
        "type": "LineString",
        "coordinates": [
          [
            120.212901,
            22.996819
          ],
          [
            120.21285586621373,
            22.996287822036926
          ],
          [
            120.21269778256467,
            22.995474422683188
          ],
          [
            120.21260555497979,
            22.99502518319843
          ],
          [
            120.21248949710464,
            22.994609938369706
          ],
          [
            120.21245305812212,
            22.994401479604534
          ],
          [
            120.21236358491383,
            22.993928628073935
          ],
          [
            120.21217018302009,
            22.993063811820228
          ],
          [
            120.21213089481718,
            22.99284745186176
          ],
          [
            120.21206858448933,
            22.992519050514208
          ],
          [
            120.21197018366793,
            22.99196913075531
          ],
          [
            120.21193647623002,
            22.99167375940705
          ],
          [
            120.21192967734896,
            22.991532843527825
          ],
          [
            120.21192018630279,
            22.99133615579348
          ],
          [
            120.21193231120051,
            22.99091106945085
          ],
          [
            120.21198284294762,
            22.99050157774177
          ],
          [
            120.21203118230527,
            22.990262951720876
          ],
          [
            120.21213371861303,
            22.989849729022588
          ],
          [
            120.21226275098246,
            22.989421152149387
          ],
          [
            120.212459592814,
            22.9887809510263
          ],
          [
            120.21251874235489,
            22.988593124351024
          ],
          [
            120.21305087402999,
            22.98690330673837
          ],
          [
            120.21306791154528,
            22.986849202289864
          ],
          [
            120.21308428133158,
            22.98679721931853
          ],
          [
            120.21331908382341,
            22.986051573185385
          ],
          [
            120.2135527280704,
            22.985309596102837
          ],
          [
            120.21380453823194,
            22.984509920169476
          ],
          [
            120.21387381658805,
            22.984289369895336
          ],
          [
            120.21390223611134,
            22.984198895927637
          ],
          [
            120.21393888870985,
            22.984082212115776
          ],
          [
            120.21459053057598,
            22.98200764879098
          ],
          [
            120.21461387682575,
            22.981933327044313
          ],
          [
            120.21466611646564,
            22.981767014612544
          ],
          [
            120.21466786318436,
            22.98176145346293
          ],
          [
            120.21469330139546,
            22.981680544628755
          ],
          [
            120.2149718082615,
            22.980794697163674
          ],
          [
            120.21527108474245,
            22.97984554745047
          ],
          [
            120.21567579392617,
            22.978556802837698
          ],
          [
            120.21603617814422,
            22.977407842263688
          ],
          [
            120.21635949681931,
            22.97638036987692
          ],
          [
            120.21663836620219,
            22.97546811687456
          ],
          [
            120.21694550598242,
            22.974515749933722
          ],
          [
            120.21731690350649,
            22.973333764955143
          ],
          [
            120.21759890032484,
            22.972428373558742
          ],
          [
            120.2176798561963,
            22.972020357036037
          ],
          [
            120.21774289687772,
            22.971569088687254
          ],
          [
            120.21776593521108,
            22.971241912510788
          ],
          [
            120.21777744728145,
            22.970816779644572
          ],
          [
            120.21768459503018,
            22.96961101713534
          ],
          [
            120.21758503676176,
            22.968011089949528
          ],
          [
            120.21749327688453,
            22.96661584568892
          ],
          [
            120.21740709974202,
            22.965290345381334
          ],
          [
            120.21732322130117,
            22.964085485956236
          ],
          [
            120.21729883091852,
            22.963353822814703
          ],
          [
            120.21729436492586,
            22.9624485360677
          ],
          [
            120.21731299067399,
            22.962188590137927
          ],
          [
            120.21732805591947,
            22.961974752835165
          ],
          [
            120.2173450392576,
            22.961772433967692
          ],
          [
            120.21735853331008,
            22.961633680347205
          ],
          [
            120.21737246847657,
            22.961488083111842
          ],
          [
            120.21739110650162,
            22.961307453878323
          ],
          [
            120.21742745605852,
            22.961046508115587
          ],
          [
            120.21746130132327,
            22.9607984351567
          ],
          [
            120.21749344460375,
            22.960575314136086
          ],
          [
            120.21750756073341,
            22.96048024619636
          ],
          [
            120.21751588335107,
            22.960424188093516
          ],
          [
            120.21753016608662,
            22.960314054095598
          ],
          [
            120.2175571785933,
            22.96012318976526
          ],
          [
            120.21759081838093,
            22.95988904750753
          ],
          [
            120.21762885514413,
            22.959624187242888
          ],
          [
            120.21766883593762,
            22.959326647245824
          ],
          [
            120.2177121268799,
            22.959030505170066
          ],
          [
            120.21775769677024,
            22.958712951977066
          ],
          [
            120.21779703731085,
            22.95841591262885
          ],
          [
            120.21780951882421,
            22.958334038710447
          ],
          [
            120.21784394751943,
            22.958108200773214
          ],
          [
            120.21789089386311,
            22.957773643196916
          ],
          [
            120.2181105192079,
            22.95623028874421
          ],
          [
            120.21814350692931,
            22.95600098589398
          ],
          [
            120.21818132328534,
            22.9557238359401
          ],
          [
            120.21821181213107,
            22.955519540710704
          ],
          [
            120.21824405884868,
            22.955292872783673
          ],
          [
            120.21828549405595,
            22.955039871104677
          ],
          [
            120.21831643056343,
            22.954796129610262
          ],
          [
            120.2183535620874,
            22.954558613343202
          ],
          [
            120.21837365508952,
            22.954410105058198
          ],
          [
            120.21839705451941,
            22.954234456537016
          ],
          [
            120.21842134399878,
            22.954066641576333
          ],
          [
            120.21843630306577,
            22.953944081542456
          ],
          [
            120.21847142615958,
            22.9536976063883
          ],
          [
            120.2185118837552,
            22.95344758424488
          ],
          [
            120.21856418454217,
            22.953137826035622
          ],
          [
            120.21859315384019,
            22.952959006386383
          ],
          [
            120.21860123016874,
            22.952922226422146
          ],
          [
            120.218617996649,
            22.952845862025214
          ],
          [
            120.2186528779409,
            22.952686708553387
          ],
          [
            120.21868290227559,
            22.952559299400814
          ],
          [
            120.21875198939219,
            22.952340726760703
          ],
          [
            120.21880470254817,
            22.952149172187717
          ],
          [
            120.21885633598109,
            22.95197564649232
          ],
          [
            120.21891002436678,
            22.951811020223676
          ],
          [
            120.21896267047322,
            22.951645846083967
          ],
          [
            120.21901079047417,
            22.951516624167052
          ],
          [
            120.21903655573199,
            22.951451270283023
          ],
          [
            120.21906054040403,
            22.951392383188363
          ],
          [
            120.21915790971569,
            22.95116577087246
          ],
          [
            120.2192396255503,
            22.950981510770333
          ],
          [
            120.21932985626435,
            22.950796611639056
          ],
          [
            120.21944820212686,
            22.95056376312159
          ],
          [
            120.21960443388096,
            22.95028639772791
          ],
          [
            120.21973066016652,
            22.950096084783862
          ],
          [
            120.21986451552189,
            22.949880346765152
          ],
          [
            120.21998537825785,
            22.94969512283116
          ],
          [
            120.22016271296765,
            22.94945165521052
          ],
          [
            120.22036048634776,
            22.949216867407685
          ],
          [
            120.22060799370598,
            22.948917626719375
          ],
          [
            120.2207676366426,
            22.948694602527805
          ],
          [
            120.22101696780332,
            22.948414547556
          ],
          [
            120.22107718227781,
            22.94833539177218
          ],
          [
            120.22144115723837,
            22.947884759194313
          ],
          [
            120.22171359746395,
            22.94755589705518
          ],
          [
            120.22192238082508,
            22.947305536153866
          ],
          [
            120.22220507376873,
            22.946965331755912
          ],
          [
            120.22242356822491,
            22.94670481901401
          ],
          [
            120.2226815067753,
            22.946393184981314
          ],
          [
            120.22290127463377,
            22.946127226218344
          ],
          [
            120.22304295246104,
            22.94595487126778
          ],
          [
            120.22320741844582,
            22.945754010981382
          ],
          [
            120.22323813603673,
            22.94571729639678
          ],
          [
            120.223248960662,
            22.945704360321397
          ],
          [
            120.22326369163973,
            22.94568675126636
          ],
          [
            120.2234211885274,
            22.94549850795763
          ],
          [
            120.22362772193263,
            22.945247298299375
          ],
          [
            120.22392878196348,
            22.944887734739588
          ],
          [
            120.22421253958684,
            22.944545247900404
          ],
          [
            120.2244767776007,
            22.944230315647538
          ],
          [
            120.2246928414701,
            22.94397250480971
          ],
          [
            120.22504921905174,
            22.94354113538204
          ],
          [
            120.22545956980244,
            22.943042223284422
          ],
          [
            120.22569779195696,
            22.942759238991357
          ],
          [
            120.22586474629568,
            22.94256726454737
          ],
          [
            120.22604478888871,
            22.942348692005275
          ],
          [
            120.22627017582505,
            22.942082965955326
          ],
          [
            120.22644615665186,
            22.941865340249617
          ],
          [
            120.22669023494461,
            22.94156579615679
          ],
          [
            120.22703646301034,
            22.941145345026293
          ],
          [
            120.22731161838787,
            22.94080982853037
          ],
          [
            120.22750523550509,
            22.9405762488167
          ],
          [
            120.22765369433026,
            22.940379167806768
          ],
          [
            120.227831312782,
            22.94013383370978
          ],
          [
            120.22803494667876,
            22.939830177766215
          ],
          [
            120.22819608372642,
            22.93958408487575
          ],
          [
            120.22829481276915,
            22.93941227988481
          ],
          [
            120.22833130694688,
            22.939354298120275
          ],
          [
            120.22836296597345,
            22.939293240619914
          ],
          [
            120.22839654798786,
            22.93923763046683
          ],
          [
            120.22846912334822,
            22.939094546176708
          ],
          [
            120.2284896248472,
            22.93905922204177
          ],
          [
            120.22851205124586,
            22.939020580522925
          ],
          [
            120.22865351975659,
            22.93875540723627
          ],
          [
            120.2288216661434,
            22.938453433386165
          ],
          [
            120.2290007526727,
            22.938123810424795
          ],
          [
            120.2291606104662,
            22.93782280547424
          ],
          [
            120.22944788521279,
            22.937286277401956
          ],
          [
            120.22971255800238,
            22.936796394894856
          ],
          [
            120.22998100416734,
            22.936291645638736
          ],
          [
            120.23022222541364,
            22.935838074543106
          ],
          [
            120.2303434078019,
            22.935612914341093
          ],
          [
            120.23055422955665,
            22.935221203193937
          ],
          [
            120.23056387772057,
            22.9352032770762
          ],
          [
            120.23060478487056,
            22.935127267362425
          ],
          [
            120.23062708538946,
            22.935085830931527
          ],
          [
            120.23239968887232,
            22.931872428764972
          ],
          [
            120.233032297289,
            22.930696860188874
          ],
          [
            120.23323921373786,
            22.930314953647606
          ],
          [
            120.23343539672959,
            22.929922524392783
          ],
          [
            120.23380641135894,
            22.929243385692544
          ],
          [
            120.23396467169391,
            22.9289845838197
          ],
          [
            120.23426089269631,
            22.928566530470672
          ],
          [
            120.2345069768067,
            22.928282574253892
          ],
          [
            120.23471555787384,
            22.928071143047784
          ],
          [
            120.2349436348287,
            22.9278548162755
          ],
          [
            120.23523548966101,
            22.927615256295827
          ],
          [
            120.23551655684489,
            22.92738980415287
          ],
          [
            120.23571289594115,
            22.927233979618777
          ],
          [
            120.23590646726335,
            22.927080683526583
          ],
          [
            120.23642403782317,
            22.926662545828886
          ],
          [
            120.23719448832041,
            22.92604974967008
          ],
          [
            120.23786792898274,
            22.92551600355674
          ],
          [
            120.23868039533032,
            22.92486601888714
          ],
          [
            120.23926095187073,
            22.92440814496824
          ],
          [
            120.23946222334104,
            22.924245822036596
          ],
          [
            120.23992835594854,
            22.92386906537875
          ],
          [
            120.24059336495094,
            22.92333372345317
          ],
          [
            120.24059440486943,
            22.923332899447733
          ],
          [
            120.24059781056141,
            22.92333019942998
          ],
          [
            120.24150562208926,
            22.922608620106097
          ],
          [
            120.24210186602473,
            22.92213281916541
          ],
          [
            120.24223849675585,
            22.922023240464718
          ],
          [
            120.24230120049775,
            22.921972952071716
          ],
          [
            120.24235782703207,
            22.92192753719359
          ],
          [
            120.24295690836857,
            22.92144706059819
          ],
          [
            120.2430306180768,
            22.921385852585107
          ],
          [
            120.24306839499499,
            22.921354483580586
          ],
          [
            120.24311470529467,
            22.921316027642206
          ],
          [
            120.24369851352198,
            22.920831229266888
          ],
          [
            120.24417485340403,
            22.920348409552485
          ],
          [
            120.24464752426239,
            22.919862101422858
          ],
          [
            120.24521673137559,
            22.919252989097178
          ],
          [
            120.24569969833512,
            22.918748632562217
          ],
          [
            120.24619728206181,
            22.9182182634656
          ],
          [
            120.24684056517818,
            22.9175364974376
          ],
          [
            120.24746455892925,
            22.916890150616286
          ],
          [
            120.24768037811583,
            22.91666572109548
          ],
          [
            120.2477882559141,
            22.916559307121958
          ],
          [
            120.24785590983707,
            22.916481345763106
          ],
          [
            120.24799794073067,
            22.916333047446752
          ],
          [
            120.24837073731781,
            22.915930441170484
          ],
          [
            120.24868582926723,
            22.9155834341191
          ],
          [
            120.24891361339007,
            22.915252662720707
          ],
          [
            120.24911242044226,
            22.914974674184624
          ],
          [
            120.24924520208788,
            22.9147945334803
          ],
          [
            120.24940510196411,
            22.914533134403552
          ],
          [
            120.24955425529544,
            22.914244023689424
          ],
          [
            120.24973284277705,
            22.91388881645386
          ],
          [
            120.24978172811387,
            22.913783211417762
          ],
          [
            120.24984116958451,
            22.913648035953898
          ],
          [
            120.24994057542172,
            22.91342197054577
          ],
          [
            120.2500929271628,
            22.9129885232954
          ],
          [
            120.25022729747461,
            22.91254339608849
          ],
          [
            120.25024717131829,
            22.912477557906723
          ],
          [
            120.25030365192535,
            22.912277380835473
          ],
          [
            120.25032289432104,
            22.91220918275357
          ],
          [
            120.2503709738936,
            22.91203877771255
          ],
          [
            120.25043928068166,
            22.911795470799863
          ],
          [
            120.25046574625554,
            22.911701201998003
          ],
          [
            120.25048644205106,
            22.91162748149552
          ],
          [
            120.25111365548301,
            22.909407385260188
          ],
          [
            120.25139223094536,
            22.908399414077085
          ],
          [
            120.25140755221304,
            22.908294536118277
          ],
          [
            120.25150262686952,
            22.907944761003755
          ],
          [
            120.25153982790066,
            22.907811090038642
          ],
          [
            120.25157705912059,
            22.90767172740435
          ],
          [
            120.25166891315295,
            22.907331373638915
          ],
          [
            120.25190946959569,
            22.906329144114824
          ],
          [
            120.252654,
            22.904407
          ],
          [
            120.25285104069145,
            22.903697146838596
          ],
          [
            120.25288414844537,
            22.903514840623263
          ],
          [
            120.25297580758603,
            22.90301012513867
          ],
          [
            120.25301561655779,
            22.902869061995386
          ],
          [
            120.25316448296559,
            22.90234154551244
          ],
          [
            120.25332707565512,
            22.901755206671933
          ],
          [
            120.25340132908572,
            22.901514381230914
          ],
          [
            120.25348315031324,
            22.90132799982025
          ],
          [
            120.25355813635237,
            22.90119205666342
          ],
          [
            120.2536882675873,
            22.90100868337379
          ],
          [
            120.25384905537582,
            22.9008303203422
          ],
          [
            120.25403362688661,
            22.900678347890086
          ],
          [
            120.2542535378108,
            22.90053773051012
          ],
          [
            120.25445218053264,
            22.900443536311062
          ],
          [
            120.25463279610211,
            22.900377062546372
          ],
          [
            120.25474796917253,
            22.900348691234058
          ],
          [
            120.25483072224706,
            22.900328305944512
          ],
          [
            120.25500738328532,
            22.900298909735003
          ],
          [
            120.25519557745001,
            22.900288558131038
          ],
          [
            120.25536429929934,
            22.90029022471833
          ],
          [
            120.2555384314016,
            22.90030625751438
          ],
          [
            120.25565452054036,
            22.90032395888745
          ],
          [
            120.25577278250627,
            22.900352353214895
          ],
          [
            120.25595124379778,
            22.900407461950124
          ],
          [
            120.25618703251368,
            22.900508333545748
          ],
          [
            120.25635000567337,
            22.90060119734214
          ],
          [
            120.25649242113955,
            22.900701396746825
          ],
          [
            120.25667347828347,
            22.90082243723531
          ],
          [
            120.25667347828347,
            22.90082243723531
          ],
          [
            120.25658613549444,
            22.900722404419053
          ],
          [
            120.25643799963746,
            22.90059531946251
          ],
          [
            120.25625207003868,
            22.900477378593596
          ],
          [
            120.25617223024611,
            22.900434179552366
          ],
          [
            120.25598041256312,
            22.90034559094624
          ],
          [
            120.25585139939872,
            22.900299863309215
          ],
          [
            120.25568460199234,
            22.90025329217214
          ],
          [
            120.25546506541325,
            22.900211385380643
          ],
          [
            120.25528576333446,
            22.90019431688489
          ],
          [
            120.25513612736745,
            22.900190193124427
          ],
          [
            120.25493282581434,
            22.900201142077474
          ],
          [
            120.25477869686952,
            22.90022458633208
          ],
          [
            120.25458224876829,
            22.900266344087896
          ],
          [
            120.2544372517942,
            22.900309950380045
          ],
          [
            120.25427227412686,
            22.900372953808777
          ],
          [
            120.25412251039344,
            22.900444754459723
          ],
          [
            120.25394448377577,
            22.90055018030457
          ],
          [
            120.25375976283223,
            22.900686543963843
          ],
          [
            120.25362203554468,
            22.900811036528424
          ],
          [
            120.25350924015453,
            22.900934878505357
          ],
          [
            120.2534528150377,
            22.90100793957626
          ],
          [
            120.25339345758465,
            22.901084794931045
          ],
          [
            120.25338521806239,
            22.901097646087017
          ],
          [
            120.25332023190856,
            22.901198995873813
          ],
          [
            120.2533192173162,
            22.901200580441415
          ],
          [
            120.25327670793595,
            22.90127671030792
          ],
          [
            120.25321414756517,
            22.901402476761437
          ],
          [
            120.25316609511283,
            22.901527856240214
          ],
          [
            120.2530913018599,
            22.901762520353017
          ],
          [
            120.25293731501016,
            22.90231363332068
          ],
          [
            120.25278427873681,
            22.902857352915618
          ],
          [
            120.252669824095,
            22.903270028032594
          ],
          [
            120.25249257065624,
            22.903909122512054
          ],
          [
            120.25231016388507,
            22.904550533113554
          ],
          [
            120.25217912705641,
            22.90501326234148
          ],
          [
            120.25205979258315,
            22.905437893464853
          ],
          [
            120.25192817347462,
            22.905909777287984
          ],
          [
            120.2518273315586,
            22.90628110535889
          ],
          [
            120.25178399365183,
            22.906486284689752
          ],
          [
            120.25174759660365,
            22.9067041327902
          ],
          [
            120.25166891315295,
            22.907331373638915
          ],
          [
            120.25667347828347,
            22.90082243723531
          ],
          [
            120.25677550600805,
            22.900924690608413
          ],
          [
            120.25687657274295,
            22.901051108162825
          ],
          [
            120.25693790520647,
            22.901143654984704
          ],
          [
            120.2569901016869,
            22.901229212949527
          ],
          [
            120.25703272608152,
            22.90130749286303
          ],
          [
            120.25707881523627,
            22.901402318956798
          ],
          [
            120.25716520805656,
            22.901591375151337
          ],
          [
            120.25729444113452,
            22.901883074139974
          ],
          [
            120.25738551868982,
            22.90206683686761
          ],
          [
            120.2574657069883,
            22.9021984536739
          ],
          [
            120.2575544975523,
            22.902317343571312
          ],
          [
            120.2576360471403,
            22.90241238123281
          ],
          [
            120.25774032090325,
            22.902518160905263
          ],
          [
            120.25790352195467,
            22.902653258109307
          ],
          [
            120.25795842927772,
            22.90269440197967
          ],
          [
            120.25805552163666,
            22.90275735595825
          ],
          [
            120.2580556216834,
            22.90275742054063
          ],
          [
            120.25805758567758,
            22.902758693954777
          ],
          [
            120.25806371320552,
            22.902763293710127
          ],
          [
            120.25813847324982,
            22.902807641154237
          ],
          [
            120.25819630755508,
            22.902836831634094
          ],
          [
            120.25829070235342,
            22.902881267955696
          ],
          [
            120.25834035702151,
            22.90290340997049
          ],
          [
            120.2584031822857,
            22.902926826207405
          ],
          [
            120.25847610888802,
            22.902952736772843
          ],
          [
            120.25854365173414,
            22.902974219002584
          ],
          [
            120.25865554346021,
            22.90300321092722
          ],
          [
            120.25872804204323,
            22.90301929439725
          ],
          [
            120.25880482213344,
            22.903032788043475
          ],
          [
            120.25886947958551,
            22.90304104351822
          ],
          [
            120.25897378022992,
            22.903051723357933
          ],
          [
            120.25915541445967,
            22.903060329115124
          ],
          [
            120.25932604017392,
            22.90306369633966
          ],
          [
            120.25947965733664,
            22.903066940774877
          ],
          [
            120.25964024597774,
            22.90306890634047
          ],
          [
            120.25978045773824,
            22.903071217504845
          ],
          [
            120.25993033734206,
            22.903074182215065
          ],
          [
            120.26009907711556,
            22.90307698717129
          ],
          [
            120.26032042592082,
            22.90308099766841
          ],
          [
            120.26046841807563,
            22.90308421315895
          ],
          [
            120.26061442332953,
            22.903086241713154
          ],
          [
            120.26070940390396,
            22.90308753247617
          ],
          [
            120.26082842999645,
            22.903089972618567
          ],
          [
            120.26093290882139,
            22.90309191607357
          ],
          [
            120.26105574073323,
            22.90309391952143
          ],
          [
            120.26115732387186,
            22.903093835602082
          ],
          [
            120.2613043073892,
            22.903093960867537
          ],
          [
            120.26142044333156,
            22.903092813833677
          ],
          [
            120.2616621163175,
            22.903085710298008
          ],
          [
            120.26205953998254,
            22.903069119171874
          ],
          [
            120.26230165031197,
            22.90305918117163
          ],
          [
            120.26249194649478,
            22.903051187671153
          ],
          [
            120.26268331691418,
            22.903043538466775
          ],
          [
            120.26288499269819,
            22.90303473038379
          ],
          [
            120.26307313122894,
            22.903028452774787
          ],
          [
            120.26323191153163,
            22.90302361552085
          ],
          [
            120.26335160045124,
            22.90302209163088
          ],
          [
            120.26346549924463,
            22.903022222259732
          ],
          [
            120.26374086588545,
            22.9030297581693
          ],
          [
            120.26376507196923,
            22.903030419364722
          ],
          [
            120.26392840713444,
            22.903040952262366
          ],
          [
            120.2640751439114,
            22.903054109996418
          ],
          [
            120.26420316293319,
            22.903068860566727
          ],
          [
            120.26430347774098,
            22.903080563269395
          ],
          [
            120.26442957541286,
            22.903099866882986
          ],
          [
            120.26453382603324,
            22.90311739867382
          ],
          [
            120.26466052608677,
            22.90314069449104
          ],
          [
            120.26478184163678,
            22.90316526927439
          ],
          [
            120.2649592674578,
            22.903207543789105
          ],
          [
            120.2650670474671,
            22.90323508271086
          ],
          [
            120.26518711347069,
            22.903267453610088
          ],
          [
            120.26529034716904,
            22.903299734855782
          ],
          [
            120.26551562933399,
            22.903373508356133
          ],
          [
            120.26553877183133,
            22.903381087917676
          ],
          [
            120.26608898556168,
            22.90359667172511
          ],
          [
            120.26654952836226,
            22.90378540079593
          ],
          [
            120.26664227492381,
            22.9038234058584
          ],
          [
            120.26677532239242,
            22.903877927277488
          ],
          [
            120.26681140506876,
            22.903892714773118
          ],
          [
            120.26691625772186,
            22.903935877671408
          ],
          [
            120.26696081430745,
            22.903954219733755
          ],
          [
            120.26731093776218,
            22.904098350253943
          ],
          [
            120.26746417074851,
            22.90416142920898
          ],
          [
            120.26770941173949,
            22.904261870620626
          ],
          [
            120.26795563208388,
            22.9043633393082
          ],
          [
            120.26820219004638,
            22.904463903433633
          ],
          [
            120.26835161156033,
            22.90452572051759
          ],
          [
            120.26845399776813,
            22.904571672269615
          ],
          [
            120.26858810087873,
            22.904634833663202
          ],
          [
            120.2686956409718,
            22.904691109882062
          ],
          [
            120.26882186862161,
            22.904762755854925
          ],
          [
            120.26891442551293,
            22.904820750987078
          ],
          [
            120.2690249307718,
            22.90489745549587
          ],
          [
            120.26909226918178,
            22.90494740588292
          ],
          [
            120.26910240533937,
            22.904954924202382
          ],
          [
            120.26911350854864,
            22.904964244004965
          ],
          [
            120.26926293631414,
            22.9050896554692
          ],
          [
            120.26940811194507,
            22.905225170245068
          ],
          [
            120.26958616027325,
            22.905403884490422
          ],
          [
            120.26973433819413,
            22.905552439931412
          ],
          [
            120.26985803318853,
            22.905676448470636
          ],
          [
            120.26993350121144,
            22.905751271080465
          ],
          [
            120.27003766461982,
            22.905854819122982
          ],
          [
            120.27012798563582,
            22.905944331788227
          ],
          [
            120.2702219764677,
            22.906036994783424
          ],
          [
            120.27029845560423,
            22.906110381531466
          ],
          [
            120.27040143802668,
            22.906204478193953
          ],
          [
            120.27050418058884,
            22.906290961122338
          ],
          [
            120.27066346861903,
            22.90640949934458
          ],
          [
            120.270749021311,
            22.90646521002407
          ],
          [
            120.27082483548864,
            22.906511199967923
          ],
          [
            120.27089870260322,
            22.90655600790191
          ],
          [
            120.27104619574509,
            22.906633311513954
          ],
          [
            120.27123415664587,
            22.906721365193633
          ],
          [
            120.27145919074604,
            22.906816802981886
          ],
          [
            120.27170022277193,
            22.906917594726274
          ],
          [
            120.27224846664002,
            22.907146849406747
          ],
          [
            120.27266984809177,
            22.907325375198187
          ],
          [
            120.27271957006415,
            22.907346439392615
          ],
          [
            120.2732739230835,
            22.907579599795792
          ],
          [
            120.273322062672,
            22.90759984564326
          ],
          [
            120.27336817050796,
            22.907619239654377
          ],
          [
            120.27349258015302,
            22.907671565028284
          ],
          [
            120.27363197080666,
            22.90773019243523
          ],
          [
            120.27467387464213,
            22.90816848512935
          ],
          [
            120.27500191741336,
            22.90830632869603
          ],
          [
            120.27557405207214,
            22.90854673875743
          ],
          [
            120.27619774261588,
            22.908808190279423
          ],
          [
            120.2764125842437,
            22.908899835275243
          ],
          [
            120.27665493138691,
            22.9090018293641
          ],
          [
            120.2768716214472,
            22.90909244457999
          ],
          [
            120.27711531498039,
            22.909194715016742
          ],
          [
            120.27736520469288,
            22.909299918328554
          ],
          [
            120.2776200114411,
            22.909407365977142
          ],
          [
            120.27770559816067,
            22.909442835257032
          ],
          [
            120.27782249274803,
            22.90949127620821
          ],
          [
            120.27801272417152,
            22.909572415094658
          ],
          [
            120.27815696076871,
            22.909632294165153
          ],
          [
            120.27834618182177,
            22.90971249613765
          ],
          [
            120.27848115847475,
            22.909769006983172
          ],
          [
            120.27868519406583,
            22.90985450891929
          ],
          [
            120.27879076009694,
            22.909898938835013
          ],
          [
            120.27887434675316,
            22.909934117572856
          ],
          [
            120.27909777443887,
            22.910028096192928
          ],
          [
            120.27923179334302,
            22.910085190843507
          ],
          [
            120.27923268813676,
            22.910085572371184
          ],
          [
            120.279321810758,
            22.91012354108283
          ],
          [
            120.27951816761997,
            22.910205423895906
          ],
          [
            120.27967496464044,
            22.91027050676921
          ],
          [
            120.27991068409102,
            22.910370313995305
          ],
          [
            120.28009670650668,
            22.910448205713905
          ],
          [
            120.28020296836189,
            22.910493216704925
          ],
          [
            120.2804165632212,
            22.910581830984107
          ],
          [
            120.28062641786164,
            22.910666049233146
          ],
          [
            120.28083882370308,
            22.910747332158707
          ],
          [
            120.28165519808388,
            22.911021608977368
          ],
          [
            120.28239019763615,
            22.91126489491957
          ],
          [
            120.28305535661315,
            22.91148490900968
          ],
          [
            120.28305555610147,
            22.91148497492843
          ],
          [
            120.28305634529124,
            22.911485236757827
          ],
          [
            120.2831568356949,
            22.911518473992125
          ],
          [
            120.28325506609299,
            22.91155142734779
          ],
          [
            120.28355315887352,
            22.911649693751208
          ],
          [
            120.28386253790671,
            22.91175288054505
          ],
          [
            120.28408822559967,
            22.911826683242868
          ],
          [
            120.2843435155212,
            22.911912187756396
          ],
          [
            120.28454092015464,
            22.91197735582019
          ],
          [
            120.28468451658935,
            22.9120246712892
          ],
          [
            120.28476630789646,
            22.912051619473516
          ],
          [
            120.28501945437979,
            22.91213595647834
          ],
          [
            120.28514172749982,
            22.912175590078913
          ],
          [
            120.28541368890023,
            22.91226613641191
          ],
          [
            120.28558603543817,
            22.912322871721553
          ],
          [
            120.28582679294264,
            22.91240202882699
          ],
          [
            120.28609741317928,
            22.912492532757707
          ],
          [
            120.2863537119334,
            22.912576871898413
          ],
          [
            120.28647428011334,
            22.912617402571538
          ],
          [
            120.28653998392996,
            22.912639487899792
          ],
          [
            120.28672140592309,
            22.91269697886068
          ],
          [
            120.28687432308564,
            22.91274896318313
          ],
          [
            120.28691222018176,
            22.91276159518149
          ],
          [
            120.28702684670658,
            22.91279979783723
          ],
          [
            120.28715344073358,
            22.912841612974223
          ],
          [
            120.28724410505488,
            22.912871875926314
          ],
          [
            120.28743879214036,
            22.91293437332329
          ],
          [
            120.28767074557118,
            22.91301237202927
          ],
          [
            120.28784976595917,
            22.913072787618145
          ],
          [
            120.2879838214644,
            22.91311615174773
          ],
          [
            120.2881708576089,
            22.913179640716564
          ],
          [
            120.28826022987899,
            22.91321212599647
          ],
          [
            120.28834483506579,
            22.913245595851105
          ],
          [
            120.2884532872497,
            22.91328878257633
          ],
          [
            120.28856443035731,
            22.913338625809637
          ],
          [
            120.28867941191818,
            22.91339789938865
          ],
          [
            120.28876310326105,
            22.91344420066766
          ],
          [
            120.28886041642699,
            22.913500476401055
          ],
          [
            120.2889508946096,
            22.9135602306744
          ],
          [
            120.28900903200254,
            22.913600587447462
          ],
          [
            120.28909278925596,
            22.913662521285882
          ],
          [
            120.28917180368569,
            22.913726399764546
          ],
          [
            120.28921057554129,
            22.91375831673534
          ],
          [
            120.28928405625783,
            22.913822709510086
          ],
          [
            120.28935202259818,
            22.913889321623348
          ],
          [
            120.2894105934629,
            22.91394531172398
          ],
          [
            120.28948006083593,
            22.914020587892864
          ],
          [
            120.28957496068075,
            22.914131364097493
          ],
          [
            120.2896163855876,
            22.914185848839498
          ],
          [
            120.28968667250163,
            22.914278810006238
          ],
          [
            120.28974763118568,
            22.914372934081932
          ],
          [
            120.28981145367652,
            22.91447722285542
          ],
          [
            120.2898673398409,
            22.91458045569476
          ],
          [
            120.28990418743372,
            22.9146528604917
          ],
          [
            120.2899402670332,
            22.914728982350322
          ],
          [
            120.28996271042168,
            22.914784957045608
          ],
          [
            120.29001795980564,
            22.914931322246414
          ],
          [
            120.29005497765722,
            22.915046123443904
          ],
          [
            120.29008073099786,
            22.91513816386795
          ],
          [
            120.29010264773713,
            22.915224155772172
          ],
          [
            120.29012380065554,
            22.91533290253987
          ],
          [
            120.29013522811414,
            22.915411056177373
          ],
          [
            120.29014498784889,
            22.915488234307357
          ],
          [
            120.29015571109103,
            22.91557807187
          ],
          [
            120.29015633689451,
            22.915630117457702
          ],
          [
            120.29016083579343,
            22.915773496121123
          ],
          [
            120.29015608072538,
            22.91592507993882
          ],
          [
            120.29013846780222,
            22.916094578485467
          ],
          [
            120.29011994027202,
            22.916214881031642
          ],
          [
            120.29011003338323,
            22.916267771739683
          ],
          [
            120.29008961507922,
            22.916358225050715
          ],
          [
            120.29007648081004,
            22.91641236016073
          ],
          [
            120.29004930343903,
            22.916505518545442
          ],
          [
            120.29004045044033,
            22.9165372350876
          ],
          [
            120.29001177528711,
            22.916621295016895
          ],
          [
            120.28997417708372,
            22.91672187489849
          ],
          [
            120.2899484158309,
            22.91678288524035
          ],
          [
            120.28992452952414,
            22.916836157729268
          ],
          [
            120.28989171111205,
            22.91690712587787
          ],
          [
            120.28982068886003,
            22.917055288875716
          ],
          [
            120.28974246643693,
            22.917210708029376
          ],
          [
            120.28968552712107,
            22.917319473132356
          ],
          [
            120.28961328569683,
            22.917465235721238
          ],
          [
            120.2895265622778,
            22.91763876049494
          ],
          [
            120.28942055584693,
            22.917848416038336
          ],
          [
            120.28940862370618,
            22.917872153996683
          ],
          [
            120.2893965507246,
            22.917896166749326
          ],
          [
            120.28928542324095,
            22.9181205404068
          ],
          [
            120.28915314096812,
            22.91838062459937
          ],
          [
            120.28903476796174,
            22.918617436524535
          ],
          [
            120.28894124894406,
            22.918801670287976
          ],
          [
            120.28891257413856,
            22.918858157631682
          ],
          [
            120.28889961487246,
            22.91888347035314
          ],
          [
            120.28880382079475,
            22.919070570902345
          ],
          [
            120.28868574333939,
            22.91931365090191
          ],
          [
            120.28855021384038,
            22.91957346169464
          ],
          [
            120.28841544725549,
            22.919845010697163
          ],
          [
            120.28829958896445,
            22.920075806397385
          ],
          [
            120.28818306072108,
            22.920306753414366
          ],
          [
            120.28809326814523,
            22.920482043392397
          ],
          [
            120.2880203388721,
            22.920626878242448
          ],
          [
            120.28797355275165,
            22.920722052335204
          ],
          [
            120.28795172046489,
            22.920766462276223
          ],
          [
            120.2878937308623,
            22.920884423833414
          ],
          [
            120.28777222694056,
            22.92112888737069
          ],
          [
            120.28764478569217,
            22.921374447539968
          ],
          [
            120.28752075047394,
            22.921623683769283
          ],
          [
            120.28743746702905,
            22.92178710504731
          ],
          [
            120.2873037843454,
            22.92205446772822
          ],
          [
            120.28694679075176,
            22.922742805331822
          ],
          [
            120.28690793747718,
            22.922817721708242
          ],
          [
            120.28664076346114,
            22.923332869892846
          ],
          [
            120.28664041384687,
            22.923333543791212
          ],
          [
            120.28655597821437,
            22.923496342580936
          ],
          [
            120.28652218951451,
            22.923561491817345
          ],
          [
            120.286366,
            22.923863
          ]
        ]
      }
    }
  ]
}