{"type": "FeatureCollection", "features": [{"type": "Feature", "properties": {"track_id": "WL-BD-SL-1", "name": "縱貫線北段 (八堵→樹林)", "origin": "八堵", "destination": "樹林", "direction": 1}, "geometry": {"type": "LineString", "coordinates": [[121.424411, 24.991235], [121.42461965633458, 24.99164545931918], [121.4252548505956, 24.99287475298636], [121.42568179380106, 24.993659620106065], [121.42576770956525, 24.99382908692663], [121.42587648070187, 24.994033481687854], [121.42604162881754, 24.994361500973998], [121.42621753354693, 24.994697416023502], [121.42640322021683, 24.99506304178528], [121.42655847777456, 24.995366116695273], [121.42667003375087, 24.995593019218116], [121.42685836323672, 24.995945753483422], [121.42703308879206, 24.99628886632936], [121.4271965973303, 24.996610785797667], [121.42735833942848, 24.99692296868413], [121.42763183464643, 24.99745479382438], [121.42780016192192, 24.997794177334434], [121.4280598597346, 24.99833130471417], [121.42806087685607, 24.998333224798767], [121.42806108633059, 24.998333639494238], [121.4285077831862, 24.99918201743616], [121.42873936067244, 24.99963881914167], [121.42891549312199, 24.99995609570909], [121.42905840555025, 25.000181018904133], [121.4292240685246, 25.000412846092924], [121.42942580294138, 25.00067897549795], [121.42998971860754, 25.00132330645838], [121.43080388856943, 25.002246415123107], [121.43124987953739, 25.00276385691516], [121.43148204042427, 25.003022600350594], [121.43173098601666, 25.00328456290204], [121.43195422979599, 25.003494335334203], [121.43220400582112, 25.00371559546595], [121.43243056389787, 25.003886825117274], [121.43262058093146, 25.00401997136272], [121.4327730041089, 25.004120011954964], [121.4330555011835, 25.004272127648562], [121.43305894544145, 25.004273986460436], [121.43306350136517, 25.00427643789755], [121.4332289407993, 25.00436453190533], [121.43347231494249, 25.004479636735415], [121.43357951181922, 25.004525530677746], [121.43370684995276, 25.004568639295353], [121.43383642597348, 25.004611407231735], [121.43384814969902, 25.004615273223227], [121.43421942154407, 25.004737795054545], [121.4346735713423, 25.004833440558418], [121.43520691224624, 25.004907465154222], [121.43554993440334, 25.004943783708093], [121.43570701568927, 25.004950654556758], [121.43570701568927, 25.004950654556758], [121.43593268049054, 25.004984670689648], [121.43616363188507, 25.0049811046057], [121.43686183159723, 25.0049412093383], [121.43751911036475, 25.00490851831381], [121.43825376083575, 25.00486683005073], [121.43891981896627, 25.004829276886106], [121.43945724440486, 25.004794836390627], [121.43983888176513, 25.0047578663782], [121.44012219088184, 25.00472635050466], [121.44032241879377, 25.004705832654086], [121.44071227290777, 25.004653424936873], [121.44140997810939, 25.004553779221546], [121.44189052366715, 25.00448014480019], [121.44215753934364, 25.004438913977378], [121.44252139995316, 25.00439598618794], [121.44298015438324, 25.004351556125354], [121.44352810776255, 25.004311643648652], [121.44383802044142, 25.00429261767224], [121.44411914957581, 25.004275365269642], [121.44434825339863, 25.004262664497325], [121.44498007651929, 25.004227642183558], [121.44621572000798, 25.004159136091378], [121.44675741477622, 25.0041314727512], [121.44734709549095, 25.00407826680546], [121.44734709549095, 25.00407826680546], [121.44825122564481, 25.00402826421748], [121.44978400846041, 25.003941525721665], [121.45083303789689, 25.00388388278979], [121.45179998035411, 25.00382986739702], [121.45267742034369, 25.00378614846213], [121.45269764689435, 25.003785193113888], [121.45273938811911, 25.003783341685885], [121.45278115955941, 25.003781625577144], [121.45282293159406, 25.00378007196239], [121.45286473404309, 25.003778707835423], [121.45290655699988, 25.003777533226376], [121.45294839069015, 25.00377658427779], [121.45299025499406, 25.003775878985497], [121.45303212025749, 25.003775435496156], [121.45307400632757, 25.003775262777527], [121.45311590346326, 25.003775406000223], [121.45315782153861, 25.00377585610599], [121.453199730999, 25.003776658325798], [121.45324208762692, 25.003777829327216], [121.45360980299195, 25.003804280516036], [121.45397401959997, 25.00385991156908], [121.4543315459304, 25.00394425376262], [121.45467963565335, 25.004056674534535], [121.45501565052204, 25.004196306283273], [121.45533703084365, 25.00436210062442], [121.45564133496747, 25.00455279215385], [121.4559261598236, 25.004766844518475], [121.45612798633144, 25.004943909576923], [121.45615729482878, 25.004971653610944], [121.45618607833704, 25.004999417305466], [121.45621459523721, 25.00502741654488], [121.4562428354889, 25.00505561524739], [121.45627082884633, 25.005084022350044], [121.45629857514272, 25.00511259271255], [121.45632610413227, 25.005141335271944], [121.45635342565525, 25.005170231941765], [121.45638054951849, 25.005199255607497], [121.45640750544288, 25.005228406178006], [121.4564342933617, 25.005257665597227], [121.45646094292907, 25.005287015717858], [121.45648746405196, 25.00531645650956], [121.45651386653726, 25.005345960857756], [121.45654018994614, 25.00537551058467], [121.45656642440494, 25.005405114748847], [121.45659260944149, 25.005434746144445], [121.45661874498902, 25.00546438671528], [121.45805546119317, 25.00709584075181], [121.46001683007891, 25.00932295384669], [121.46004782292682, 25.0093581852584], [121.46007878613781, 25.00939343481134], [121.4600943076651, 25.0094111362013], [121.46048308890514, 25.00986125176626], [121.46051348956756, 25.009897017571713], [121.46055894670205, 25.00995060351579], [121.46289046502984, 25.012703152606115], [121.46291895671781, 25.01273675707034], [121.46294748791625, 25.012770325293065], [121.46297606849888, 25.012803848215356], [121.46300471821321, 25.01283730771936], [121.46303344693295, 25.01287069474609], [121.46306228431317, 25.012903991146818], [121.46309124019372, 25.012937178834505], [121.4631203443313, 25.01297026674455], [121.4631495965566, 25.01300320973655], [121.46317903653392, 25.01303601671503], [121.46320866419553, 25.013068669623745], [121.46323849925511, 25.013101141316632], [121.46326856152784, 25.013133431731866], [121.46329886081979, 25.013165513754196], [121.46332942685378, 25.013197387290894], [121.46336026940195, 25.013229016198647], [121.46339267139166, 25.013261687508535], [121.46372728623354, 25.013567990569907], [121.46376124714264, 25.013596242156897], [121.46379580262757, 25.01362451896594], [121.46383060497156, 25.013652569292283], [121.46386562445163, 25.0136803932285], [121.46390085126183, 25.01370801788955], [121.46393628543608, 25.01373545230334], [121.4639718775039, 25.01376271468045], [121.46400764734841, 25.013789823015067], [121.46404354546526, 25.013816786489716], [121.46407958182994, 25.013843623129528], [121.46411572675332, 25.013870342055263], [121.46415197046352, 25.013896979410006], [121.4641883030528, 25.013923535224624], [121.46422470477373, 25.013950027617074], [121.46426114597115, 25.013976474736207], [121.46429763662066, 25.01400289460721], [121.46476974003865, 25.01434434591897], [121.46481340360401, 25.01437588027052], [121.46485708683707, 25.014407369406527], [121.4649008094852, 25.014438795208864], [121.46494460116949, 25.014470130500374], [121.46498847176362, 25.01450136622197], [121.4650324310392, 25.014532466230293], [121.46507637961297, 25.014563349582573], [121.46540772238494, 25.014788098449742], [121.4654527855436, 25.014817605916935], [121.46549809621294, 25.01484705842623], [121.46554352532007, 25.01487638415616], [121.46558903337016, 25.014905619342958], [121.46563461048947, 25.014934773045617], [121.46568024687234, 25.014963872379326], [121.46572593267913, 25.01499293543121], [121.46829954081261, 25.016628195816747], [121.46836048340674, 25.016666978463448], [121.4684213866472, 25.016705824405673], [121.46848223088955, 25.016744778846224], [121.46854297660515, 25.016783868994207], [121.46860361402331, 25.016823130993206], [121.46866410361535, 25.016862592052448], [121.46872447534517, 25.016902315274816], [121.468924781851, 25.017036934657423], [121.46898426622116, 25.01707776200624], [121.46904350361861, 25.017118770673026], [121.46910257330676, 25.01715996040797], [121.46916150490648, 25.0172013040333], [121.4692203081886, 25.01724276540568], [121.46927903255548, 25.017284308256695], [121.46933768784645, 25.01732591449904], [121.47171663653185, 25.01901550923897], [121.47176548756143, 25.01905017586008], [121.47178991795427, 25.01906748657856], [121.47181435826195, 25.019084797261428], [121.47183880838104, 25.019102080824553], [121.47186322864466, 25.019119328365633], [121.4722022308235, 25.019355891339462], [121.47222685825604, 25.01937287634442], [121.47225155512106, 25.019389879180984], [121.47230096854948, 25.019423848666218], [121.47237516780032, 25.019474748442104], [121.47273566383761, 25.019721904130762], [121.4727851468532, 25.019755864201088], [121.47283460027526, 25.019789851433057], [121.47285931719207, 25.019806872158323], [121.4728840540703, 25.019823928928524], [121.47318923106945, 25.020036645460902], [121.47321378071862, 25.02005394653084], [121.47323827082192, 25.020071220701674], [121.47328722153227, 25.02010582329373], [121.47338502416115, 25.020175082911585], [121.47492448882316, 25.021265947712983], [121.47497337136164, 25.021300613148266], [121.47502222430695, 25.021335305746007], [121.47504667569949, 25.02135268807168], [121.47543105149651, 25.02162804594206], [121.47547962876295, 25.021663127477265], [121.47555240063775, 25.021715763592407], [121.47778646772883, 25.023333695057392], [121.48006440381566, 25.024983310583075], [121.4801072704274, 25.02501432827905], [121.48015016661057, 25.025045300726035], [121.48019309236517, 25.025076227923993], [121.48023606740284, 25.025107082724794], [121.4802791115055, 25.02513785603633], [121.4803222245677, 25.02516852077444], [121.48036543627985, 25.025199067814967], [121.48040874657167, 25.025229479101768], [121.48045216528128, 25.025259736546655], [121.48049572206395, 25.025289821997426], [121.48053941688448, 25.025319726425888], [121.48058326948959, 25.025349431711806], [121.48062728968219, 25.025378910738905], [121.48067147742704, 25.025408154479024], [121.48071587232307, 25.025437153775787], [121.48076045441236, 25.02546587258098], [121.48080525338526, 25.02549430177029], [121.48085026913603, 25.025522414259406], [121.48090327861988, 25.025554942721897], [121.4814269903805, 25.02584380033193], [121.48197594317156, 25.026089789841045], [121.48254633502492, 25.026291253114277], [121.4830554886944, 25.026425933395313], [121.48313426570239, 25.02644676711627], [121.48318690642236, 25.026458251345876], [121.4832400911374, 25.026469481000206], [121.48329337360467, 25.02648036724812], [121.48334673414787, 25.026490946266076], [121.48340018267527, 25.02650121802177], [121.48345369947529, 25.026511209663663], [121.48350728465374, 25.026520948275763], [121.48356093824565, 25.026530442886006], [121.48361464053956, 25.02653972064292], [121.4836683915706, 25.026548790574463], [121.48372219144467, 25.026557679764675], [121.4837760402677, 25.026566415297573], [121.48382991825764, 25.02657500626565], [121.48388382552046, 25.02658347975297], [121.48393776212683, 25.026591853815543], [121.48399172814747, 25.026600146509384], [121.48404571374445, 25.026608375922798], [121.48409970911527, 25.026616569172127], [121.48738661211866, 25.027113724294725], [121.48743737568032, 25.027121421346678], [121.48748813935501, 25.02712914546526], [121.48751917275199, 25.027133900824232], [121.48751917274487, 25.02713389901863], [121.48798309931179, 25.027207696666434], [121.4885668116858, 25.027323632550416], [121.48889662137987, 25.027409678699982], [121.48926402109747, 25.027537048560855], [121.48966060321334, 25.027689401533046], [121.4900878562377, 25.027899630994472], [121.49040493286363, 25.028077242972863], [121.4906359234436, 25.028222871890172], [121.4910290958713, 25.028505716926162], [121.49147507737189, 25.02887152545668], [121.49552369722673, 25.032468206562573], [121.49568342714723, 25.032592225922535], [121.49592868963039, 25.032752099297415], [121.49612020483197, 25.032855301589105], [121.49632276114124, 25.032946648942506], [121.49652301976816, 25.033021004637824], [121.49681012257345, 25.033102471934317], [121.49702145842467, 25.03314413429636], [121.49727670030772, 25.03317590810766], [121.4980546116304, 25.03322789621967], [121.49909796026473, 25.0332652275098], [121.49995903683089, 25.033301128012347], [121.5007776374432, 25.033362625045434], [121.50298597855698, 25.033556413185536], [121.50331965650223, 25.033593902159108], [121.50374430010143, 25.033647119618717], [121.50393348010277, 25.033681326784762], [121.50416833646575, 25.033740792907032], [121.50441312764973, 25.033823400107888], [121.50456842328813, 25.03388793856436], [121.50472456266488, 25.033962478044742], [121.50494216398482, 25.034086390045697], [121.50514277150519, 25.03422248424195], [121.50532219646291, 25.034366631040285], [121.50550247602334, 25.034537859048108], [121.50561231196043, 25.034658778104642], [121.50571506766626, 25.034785698683027], [121.50581186610982, 25.03492182014999], [121.5058945072744, 25.03505386389615], [121.5060043370201, 25.03526244563645], [121.50606172032144, 25.035392300194022], [121.50613623088418, 25.035602717432283], [121.50647242820071, 25.036818372648792], [121.50805547617676, 25.042334548940197], [121.50881942476927, 25.04499635891467], [121.50895863980479, 25.04553316220074], [121.50912761222828, 25.046292045679657], [121.50920514789, 25.046557458747614], [121.50929148107062, 25.04677674504939], [121.50936096273944, 25.046920667460636], [121.50943936732567, 25.047060613958507], [121.50961808904232, 25.047323738699973], [121.50971928587707, 25.047448746602257], [121.50988520851712, 25.047626591297654], [121.51013130205436, 25.04784389225048], [121.51029619265611, 25.047966071882623], [121.5104342389979, 25.048055445195818], [121.51062165368161, 25.048162534245122], [121.5107677929946, 25.04823411213613], [121.510963331525, 25.048316489105634], [121.51101133743238, 25.048333568533867], [121.51112511132506, 25.04837404638232], [121.51145247476045, 25.048462342900205], [121.51178631917318, 25.048516987625145], [121.51209382313567, 25.048538814106855], [121.5123849099292, 25.04853286297485], [121.51267511858644, 25.048504028094406], [121.51366724413718, 25.048333712034182], [121.51366724413718, 25.048333712034182], [121.5272162178154, 25.0454691065286], [121.53163036130755, 25.045379991522548], [121.53630234317556, 25.04452715190262], [121.54154112843167, 25.04429786105115], [121.54610629977573, 25.04479688441678], [121.54739481763065, 25.04476446683333], [121.54879498692463, 25.044630895572958], [121.55343757425737, 25.04395913740518], [121.5567793788367, 25.04459292450565], [121.56000629084808, 25.04578185806164], [121.56273037502638, 25.04696615689626], [121.5653012691119, 25.047907583259907], [121.56772606746853, 25.048560447622418], [121.57011256830351, 25.04900513833691], [121.57449054034302, 25.049224307777298], [121.57906, 25.04927], [121.57906, 25.04927], [121.580804476621, 25.049342241732163], [121.58152332036686, 25.04938549665669], [121.5823600866245, 25.049481999856003], [121.58305549131482, 25.04958833766432], [121.58596995299314, 25.05003396613131], [121.58772570771505, 25.050247929865602], [121.58837509625539, 25.050340991006138], [121.59235785781463, 25.050963703039077], [121.59586565002508, 25.051500879568035], [121.59633037738116, 25.051564881065556], [121.59704225814744, 25.051674624941366], [121.59849170920299, 25.05190663447853], [121.59970675007864, 25.052124321790487], [121.60054608025722, 25.052256954572663], [121.60096511937367, 25.052311834587087], [121.60172136930323, 25.05237989453265], [121.60282214310845, 25.05250474360782], [121.6042552476512, 25.05270469637659], [121.60805548003184, 25.053289272716604], [121.60805548003184, 25.053289272716604], [121.61717953512488, 25.05451786459121], [121.62312100319849, 25.05447244005732], [121.6263692339686, 25.053454109890374], [121.62947126060735, 25.053425365838283], [121.63213618328423, 25.054242879491], [121.63404914052828, 25.05479545528868], [121.63600720896133, 25.055497105581075], [121.63732531503743, 25.056580465861686], [121.63843728453205, 25.057929785488692], [121.64011005431234, 25.05967835077474], [121.64136034869172, 25.0603637538885], [121.64289374543117, 25.06104248902193], [121.64662405227367, 25.06249207315618], [121.64763760748471, 25.062633240518117], [121.64877314533626, 25.06286011839194], [121.64987514886562, 25.06297980681928], [121.65172795920276, 25.063627044134353], [121.65606743697825, 25.065257956527866], [121.65841846283452, 25.06613576180477], [121.65935600424893, 25.066573585145207], [121.66015932254123, 25.067102843424735], [121.66062510167527, 25.067453552652363], [121.66142388402669, 25.068092574631386], [121.66279767762771, 25.06931287524445], [121.66473677845028, 25.070990857392918], [121.66528381009496, 25.071917374000726], [121.66542110959583, 25.07237393998045], [121.665476859538, 25.07295123327551], [121.66562364260042, 25.075000754062387], [121.66583196190626, 25.075825651000162], [121.66629293709028, 25.076633190175478], [121.66686421607582, 25.077286688352014], [121.66756531974526, 25.07803139630805], [121.66758, 25.07799], [121.67419876739078, 25.082003567156104], [121.6751149704896, 25.08230511849854], [121.6762413450271, 25.082386244047427], [121.67734751499691, 25.082378574536826], [121.67885990696902, 25.08220001560727], [121.68012754179037, 25.081703322202543], [121.6809501103739, 25.081358115773998], [121.6817682205851, 25.08118281166204], [121.68807567613473, 25.079029350987604], [121.69004983744796, 25.07819336777839], [121.69105144959221, 25.077873550993267], [121.69193872350397, 25.077687242735998], [121.6931392308338, 25.077720998965894], [121.69445477230485, 25.078102870816586], [121.69596955352876, 25.078637468455316], [121.69845778607649, 25.07919254790731], [121.70002138737783, 25.079471436016927], [121.70181826719384, 25.080234177077763], [121.70315304674358, 25.08161678094301], [121.70439890487967, 25.083121518872264], [121.70511945457964, 25.084033859430058], [121.70552353708311, 25.085194391107727], [121.7057122762582, 25.08649289909142], [121.70606187852995, 25.087825996938363], [121.7066449838805, 25.088564741757246], [121.7074877756074, 25.089320385892066], [121.71130204619557, 25.09133391884873], [121.71471745731566, 25.093439693644804], [121.71912834906541, 25.09685929505268], [121.72008279235934, 25.097686965400076], [121.72122086499674, 25.098410703115483], [121.72379540795123, 25.100253120581126], [121.72418599769371, 25.100596361466337], [121.7246426476016, 25.10115894854944], [121.72515958641195, 25.102822513387338], [121.72608984077735, 25.105902725110965], [121.72649398361774, 25.106742585174473], [121.72675429371483, 25.107067589992397], [121.72710778569984, 25.107413689236367], [121.72786136061029, 25.10801096328258], [121.72873141287782, 25.10856604879511]]}}]}