{
  "type": "FeatureCollection",
  "features": [
    {
      "type": "Feature",
      "properties": {
        "description": "枋野站附近待手繪區段",
        "cut_start_index": 871,
        "cut_end_index": 903
      },
      "geometry": {
        "type": "LineString",
        "coordinates": [
          [
            120.7231324729575,
            22.283757076436437
          ],
          [
            120.72155089095993,
            22.283253243194878
          ],
          [
            120.71928375793073,
            22.28265362448937
          ],
          [
            120.71902802901738,
            22.28254312771091
          ],
          [
            120.71879699124698,
            22.282394552031406
          ],
          [
            120.71840075875983,
            22.28204409010434
          ],
          [
            120.71830131595816,
            22.281976255134303
          ],
          [
            120.71822105762186,
            22.28191164778972
          ],
          [
            120.71795589841913,
            22.281658169429086
          ],
          [
            120.71774299568779,
            22.281478817197026
          ],
          [
            120.71710790516529,
            22.280929682474657
          ],
          [
            120.72079494095958,
            22.2835570427794
          ],
          [
            120.71966311823121,
            22.283112150505396
          ],
          [
            120.71910402704864,
            22.282780790576954
          ],
          [
            120.71850033774821,
            22.282172486386298
          ],
          [
            120.71814744519033,
            22.281858200497084
          ],
          [
            120.71703147941085,
            22.280927917687045
          ],
          [
            120.71590499433174,
            22.27996747894503
          ],
          [
            120.71576493325689,
            22.279848060907437
          ],
          [
            120.71515233866364,
            22.279331121735343
          ],
          [
            120.71456100837786,
            22.278764373867677
          ],
          [
            120.71433816117418,
            22.278562945121095
          ],
          [
            120.7139417952157,
            22.278234486346033
          ],
          [
            120.71382278154648,
            22.27814182602218
          ],
          [
            120.7136778014881,
            22.27802894894761
          ],
          [
            120.71343187136631,
            22.27786445760848
          ],
          [
            120.71326612798792,
            22.277760777299402
          ],
          [
            120.71316303253953,
            22.27770621585374
          ],
          [
            120.71306978152576,
            22.27765942705974
          ],
          [
            120.71285392606596,
            22.277596788895853
          ],
          [
            120.71232044507273,
            22.277435149586356
          ],
          [
            120.71190393746956,
            22.277347055229367
          ],
          [
            120.71137015491074,
            22.27728231722135
          ]
        ]
      }
    }
  ]
}