{
  "type": "FeatureCollection",
  "features": [
    {
      "type": "Feature",
      "properties": {
        "name": "接點B (南側)",
        "index": 904
      },
      "geometry": {
        "coordinates": [
          120.71094042036358,
          22.277303112783105
        ],
        "type": "Point"
      }
    },
    {
      "type": "Feature",
      "properties": {
        "name": "接點A (北側)",
        "index": 870
      },
      "geometry": {
        "coordinates": [
          120.72391302424262,
          22.28391424299132
        ],
        "type": "Point"
      }
    },
    {
      "type": "Feature",
      "properties": {},
      "geometry": {
        "coordinates": [
          [
            120.71094728418615,
            22.27728704991378
          ],
          [
            120.71157430009802,
            22.277335156220012
          ],
          [
            120.7121799307954,
            22.277422840556127
          ],
          [
            120.71241469609933,
            22.277455223885298
          ],
          [
            120.71268537567465,
            22.2775042240106
          ],
          [
            120.71296054453566,
            22.277598920297933
          ],
          [
            120.71319979912244,
            22.277735158533844
          ],
          [
            120.71349106298257,
            22.27788885701643
          ],
          [
            120.71408759817012,
            22.278366581880164
          ],
          [
            120.71478068812849,
            22.278932968623586
          ],
          [
            120.71605738503325,
            22.280064319831624
          ],
          [
            120.71843330136022,
            22.282081128855012
          ],
          [
            120.71904534097476,
            22.28241423455764
          ],
          [
            120.71974010250428,
            22.282689931703224
          ],
          [
            120.72039350307455,
            22.282956060741352
          ],
          [
            120.72102622316933,
            22.283145645321838
          ],
          [
            120.72170030421927,
            22.283421342238274
          ],
          [
            120.72239506574799,
            22.2836013588933
          ],
          [
            120.72310016751604,
            22.283819647562392
          ],
          [
            120.72380526928407,
            22.283903984249932
          ],
          [
            120.72403185350129,
            22.28393308865097
          ],
          [
            120.72426602046357,
            22.283934127297655
          ],
          [
            120.72451156154807,
            22.28391762484229
          ],
          [
            120.72474951988295,
            22.2838520073157
          ]
        ],
        "type": "LineString"
      }
    }
  ]
}