{
  "type": "FeatureCollection",
  "features": [
    {
      "type": "Feature",
      "properties": {
        "track_id": "WL-TN-KH-0",
        "line_id": "WL",
        "direction": 0,
        "name": "西部幹線 臺南-高雄段 (臺南→左營)",
        "origin": "臺南",
        "destination": "左營"
      },
      "geometry": {
        "type": "LineString",
        "coordinates": [
          [
            120.2171144070043,
            23.00938280227469
          ],
          [
            120.21503457098878,
            23.00642432951935
          ],
          [
            120.21453541397827,
            23.005269583824198
          ],
          [
            120.21198385477102,
            22.99219896850756
          ],
          [
            120.21190704007793,
            22.99099932955535
          ],
          [
            120.21220874283937,
            22.989524507949863
          ],
          [
            120.21770865203274,
            22.972057421912666
          ],
          [
            120.21781380526284,
            22.97126530714831
          ],
          [
            120.2177939536281,
            22.970362948990957
          ],
          [
            120.21733437308298,
            22.964074643729962
          ],
          [
            120.21729347641298,
            22.962269975079234
          ],
          [
            120.21851364059204,
            22.953312267047448
          ],
          [
            120.2189763822541,
            22.95156088053013
          ],
          [
            120.21934753785852,
            22.950726257510865
          ],
          [
            120.22035112370553,
            22.94918124831605
          ],
          [
            120.22702492516007,
            22.941190581280498
          ],
          [
            120.22796584175028,
            22.939969162546745
          ],
          [
            120.22873805002097,
            22.93865015837821
          ],
          [
            120.23108413032858,
            22.934188039846283
          ],
          [
            120.23116192798061,
            22.934183657449996
          ],
          [
            120.231546323404,
            22.93349968346367
          ],
          [
            120.23151788054562,
            22.933379323597055
          ],
          [
            120.23161015638371,
            22.93338177514874
          ],
          [
            120.23238537558467,
            22.93176188750108
          ],
          [
            120.23247777642825,
            22.93176439301246
          ],
          [
            120.23281912040613,
            22.93095315776199
          ],
          [
            120.23291152035029,
            22.930955672266414
          ],
          [
            120.23325284993926,
            22.930144436116873
          ],
          [
            120.23334525887658,
            22.9301469506212
          ],
          [
            120.23343086444301,
            22.929812522430158
          ],
          [
            120.23361121988205,
            22.92965105994866
          ],
          [
            120.2336915230454,
            22.929338040118623
          ],
          [
            120.23378080144298,
            22.92933906714433
          ],
          [
            120.23388887657057,
            22.929014971263886
          ],
          [
            120.23397419345426,
            22.929011437827675
          ],
          [
            120.2342098554005,
            22.92857433313901
          ],
          [
            120.2342873841555,
            22.92856866561146
          ],
          [
            120.23427484400902,
            22.928495432917916
          ],
          [
            120.23472337188608,
            22.9280209569018
          ],
          [
            120.2354450454527,
            22.927413316471334
          ],
          [
            120.2438043697758,
            22.92075005956767
          ],
          [
            120.24857225960211,
            22.91571482018272
          ],
          [
            120.24909142832685,
            22.915047569090014
          ],
          [
            120.24979359020222,
            22.913815704731093
          ],
          [
            120.25024112073125,
            22.912565603919628
          ],
          [
            120.25335569690803,
            22.901476099742382
          ],
          [
            120.25371480969063,
            22.899588874227337
          ],
          [
            120.2538305812165,
            22.89171414958845
          ],
          [
            120.253704461192,
            22.888919329163635
          ],
          [
            120.25397973018059,
            22.881691398739154
          ],
          [
            120.25394306122335,
            22.880809450695555
          ],
          [
            120.25400989344178,
            22.880788813952638
          ],
          [
            120.25394774309395,
            22.88031733088023
          ],
          [
            120.25402836911401,
            22.880236168864254
          ],
          [
            120.25395585318033,
            22.879865869414264
          ],
          [
            120.25404155767177,
            22.8798862723335
          ],
          [
            120.25402754533498,
            22.879006354060127
          ],
          [
            120.25412079334006,
            22.87898647274753
          ],
          [
            120.25410007655734,
            22.878549241254593
          ],
          [
            120.25423239291084,
            22.878306824500303
          ],
          [
            120.25419131907404,
            22.878116504573097
          ],
          [
            120.25427642641608,
            22.87809527607612
          ],
          [
            120.25444439639176,
            22.8772448097004
          ],
          [
            120.25888579094662,
            22.865291257585465
          ],
          [
            120.25976508509079,
            22.863683088104217
          ],
          [
            120.26407751326681,
            22.857600411030184
          ],
          [
            120.26452367682623,
            22.856856446867457
          ],
          [
            120.26460746306421,
            22.85684262069058
          ],
          [
            120.2650653492865,
            22.8560525365952
          ],
          [
            120.26513740746555,
            22.85608482765286
          ],
          [
            120.2652117094529,
            22.85583796824759
          ],
          [
            120.26556490199869,
            22.855329838701028
          ],
          [
            120.26566734647099,
            22.855327033715604
          ],
          [
            120.26609493183572,
            22.85457209692487
          ],
          [
            120.26619727828174,
            22.85456923708077
          ],
          [
            120.26666269542702,
            22.85390367671322
          ],
          [
            120.26662495627674,
            22.853814362343037
          ],
          [
            120.26672718581109,
            22.853811428754582
          ],
          [
            120.26705600852797,
            22.853334361791433
          ],
          [
            120.26715498431496,
            22.853056616969326
          ],
          [
            120.26723528747858,
            22.853066976260113
          ],
          [
            120.26747907120212,
            22.852593279056542
          ],
          [
            120.26794393526465,
            22.851981082660796
          ],
          [
            120.27263889007281,
            22.842403570868257
          ],
          [
            120.28225783183366,
            22.827089135355262
          ],
          [
            120.29898165068278,
            22.801273290230125
          ],
          [
            120.29951085404282,
            22.80007772071016
          ],
          [
            120.29987702020823,
            22.79868644432387
          ],
          [
            120.30128622188163,
            22.78496715341138
          ],
          [
            120.30151976862244,
            22.78338250389933
          ],
          [
            120.30199422215586,
            22.781844823279883
          ],
          [
            120.30753808751281,
            22.76629632571488
          ],
          [
            120.30830786401685,
            22.764638287926644
          ],
          [
            120.32134594995556,
            22.740550552166255
          ],
          [
            120.32241353425738,
            22.73887777538921
          ],
          [
            120.32419224397692,
            22.736660450119707
          ],
          [
            120.32470888380814,
            22.735895665752352
          ],
          [
            120.32511977955431,
            22.735077640620514
          ],
          [
            120.32555839330534,
            22.733582168782185
          ],
          [
            120.32565499398277,
            22.732430566217687
          ],
          [
            120.32559157379205,
            22.731530029187585
          ],
          [
            120.32540692409022,
            22.730642479267175
          ],
          [
            120.32473728979416,
            22.728909567522606
          ],
          [
            120.3248140838031,
            22.728924028621115
          ],
          [
            120.32467644256366,
            22.72875046126471
          ],
          [
            120.3244453257913,
            22.72810763935606
          ],
          [
            120.32450565681077,
            22.728067490922147
          ],
          [
            120.32442561984651,
            22.727845221679548
          ],
          [
            120.32427358136088,
            22.727625869838114
          ],
          [
            120.32427111362115,
            22.727415415888768
          ],
          [
            120.32413927121043,
            22.727250370508216
          ],
          [
            120.32419773973402,
            22.727210802136955
          ],
          [
            120.32405800127597,
            22.72702368649389
          ],
          [
            120.32411707324438,
            22.72698546800511
          ],
          [
            120.32383187574047,
            22.726393529737624
          ],
          [
            120.32389111318435,
            22.72635372034804
          ],
          [
            120.32352441462005,
            22.725536697061035
          ],
          [
            120.32358454958751,
            22.725496620572624
          ],
          [
            120.32321696788894,
            22.724679872478273
          ],
          [
            120.32327799948031,
            22.724639510904655
          ],
          [
            120.32310296353116,
            22.724151994718845
          ],
          [
            120.32296249212543,
            22.723785261980304
          ],
          [
            120.32290951486233,
            22.723823038002962
          ],
          [
            120.32292277806373,
            22.72368559911115
          ],
          [
            120.3222948920956,
            22.72210929710636
          ],
          [
            120.32202357652682,
            22.721242355150554
          ],
          [
            120.32186081812225,
            22.720352601891264
          ],
          [
            120.3218174069478,
            22.71945101894953
          ],
          [
            120.32189400130726,
            22.718551344368958
          ],
          [
            120.32206804530408,
            22.71774225130387
          ],
          [
            120.32301860622384,
            22.71505592509084
          ],
          [
            120.32323444711199,
            22.714175793678073
          ],
          [
            120.32396617419973,
            22.70880034166253
          ],
          [
            120.32402495029115,
            22.70789942421903
          ],
          [
            120.32395075442398,
            22.70689734024009
          ],
          [
            120.32357664904326,
            22.7054735803416
          ],
          [
            120.32230723978745,
            22.702776017998865
          ],
          [
            120.32124973688582,
            22.70126191310694
          ],
          [
            120.31809882270254,
            22.697521898017204
          ],
          [
            120.31107372177479,
            22.690710222398945
          ],
          [
            120.30273689758997,
            22.683595911422305
          ],
          [
            120.2898451844079,
            22.669974427178104
          ]
        ]
      }
    }
  ]
}