{
  "type": "FeatureCollection",
  "features": [
    {
      "type": "Feature",
      "properties": {
        "track_id": "LJ-0",
        "route_id": "LJ",
        "direction": 0,
        "golden": true,
        "source": "tdx"
      },
      "geometry": {
        "type": "LineString",
        "coordinates": [
          [
            121.03939897496183,
            24.807638378252122
          ],
          [
            121.03942500313195,
            24.80680524695409
          ],
          [
            121.03942041241278,
            24.806489057027346
          ],
          [
            121.03941011123017,
            24.806319357882472
          ],
          [
            121.0394082565077,
            24.806209597489197
          ],
          [
            121.03939895801919,
            24.8061452439642
          ],
          [
            121.03931824425958,
            24.805800778349127
          ],
          [
            121.03908387718684,
            24.80488387536618
          ],
          [
            121.03878584908162,
            24.80373002328927
          ],
          [
            121.03784110343959,
            24.800029054186204
          ],
          [
            121.03769411160518,
            24.799463628579705
          ],
          [
            121.03759414740848,
            24.79914531346266
          ],
          [
            121.0374316205296,
            24.798682908043844
          ],
          [
            121.03731964720164,
            24.79842064541886
          ],
          [
            121.03728602212932,
            24.798333590765555
          ],
          [
            121.03718458295747,
            24.798070873970428
          ],
          [
            121.03686651287151,
            24.79722540375171
          ],
          [
            121.03678800654203,
            24.797044832474278
          ],
          [
            121.03666095459309,
            24.79668782658584
          ],
          [
            121.03657338570378,
            24.796394607213013
          ],
          [
            121.0365453605359,
            24.79627632097593
          ],
          [
            121.03648423000239,
            24.796051423735197
          ],
          [
            121.0363904898813,
            24.79555356283431
          ],
          [
            121.03634546767759,
            24.795247006674416
          ],
          [
            121.03627441419687,
            24.79470363584061
          ],
          [
            121.03626746891686,
            24.79462823040628
          ],
          [
            121.03626374981313,
            24.794593263423334
          ],
          [
            121.03621831794068,
            24.794236047639
          ],
          [
            121.03612119481448,
            24.79352321555566
          ],
          [
            121.03606545144578,
            24.793143448639075
          ],
          [
            121.03600652667687,
            24.792808166518636
          ],
          [
            121.03586722246224,
            24.792159582997787
          ],
          [
            121.03563889024834,
            24.791070025910855
          ],
          [
            121.03527687521692,
            24.789344071322027
          ],
          [
            121.03515499147335,
            24.788507398151758
          ],
          [
            121.03467868657154,
            24.785582943394715
          ],
          [
            121.03441796398512,
            24.784011568424773
          ],
          [
            121.03441070435558,
            24.783973451162964
          ],
          [
            121.03429582494407,
            24.783285413638076
          ],
          [
            121.03425225624555,
            24.783014934466983
          ],
          [
            121.03419452183986,
            24.78280184457334
          ],
          [
            121.03418586244746,
            24.78277984374437
          ],
          [
            121.0341591321685,
            24.782711963467584
          ],
          [
            121.03413576670113,
            24.782652623516036
          ],
          [
            121.03409260844036,
            24.782543034632287
          ],
          [
            121.03404807664414,
            24.782473479058
          ],
          [
            121.03403933056777,
            24.782459811678436
          ],
          [
            121.03402613231104,
            24.78243920228234
          ],
          [
            121.03400717589709,
            24.78240958360543
          ],
          [
            121.0339299355385,
            24.78228893328967
          ],
          [
            121.03383286947972,
            24.782177939035062
          ],
          [
            121.03379616803178,
            24.78213598218112
          ],
          [
            121.0337125560822,
            24.782040360591548
          ],
          [
            121.03362933766383,
            24.78197335967169
          ],
          [
            121.03362043518786,
            24.781966192926532
          ],
          [
            121.03361428259022,
            24.781961246610265
          ],
          [
            121.03353538886348,
            24.781904961668637
          ],
          [
            121.0334848247324,
            24.78187118779394
          ],
          [
            121.0334435184045,
            24.781841962271766
          ],
          [
            121.03341074845628,
            24.781819226429626
          ],
          [
            121.03329751667751,
            24.781755572616454
          ],
          [
            121.03320350302515,
            24.781702315456307
          ],
          [
            121.0330555220024,
            24.7816467227132
          ],
          [
            121.0330102632942,
            24.781629713700905
          ],
          [
            121.03281299210211,
            24.78156933736545
          ],
          [
            121.03258763859722,
            24.781522582082456
          ],
          [
            121.03235789216252,
            24.781505558740868
          ],
          [
            121.03188970275077,
            24.781533657023537
          ],
          [
            121.0316292429969,
            24.781568535759945
          ],
          [
            121.03084482985514,
            24.781685566206235
          ],
          [
            121.02933041979881,
            24.781914457789664
          ],
          [
            121.02809550441597,
            24.782068623995247
          ],
          [
            121.02796724109699,
            24.782084366881065
          ]
        ]
      }
    }
  ]
}