{
  "type": "FeatureCollection",
  "features": [
    {
      "type": "Feature",
      "properties": {
        "segment_id": "EL-northlink",
        "name": "北迴線（宜蘭-花蓮）",
        "station_count": 13,
        "stations": [
          "蘇澳新",
          "永樂",
          "東澳",
          "南澳",
          "武塔",
          "漢本",
          "和平",
          "和仁",
          "崇德",
          "新城",
          "景美",
          "北埔",
          "花蓮"
        ],
        "status": "draft"
      },
      "geometry": {
        "type": "LineString",
        "coordinates": [
          [
            121.8315,
            24.5905
          ],
          [
            121.7905,
            24.5285
          ],
          [
            121.8315,
            24.5165
          ],
          [
            121.8005,
            24.4645
          ],
          [
            121.7575,
            24.4285
          ],
          [
            121.7565,
            24.3525
          ],
          [
            121.7525,
            24.3115
          ],
          [
            121.7275,
            24.2575
          ],
          [
            121.6575,
            24.1875
          ],
          [
            121.6125,
            24.1265
          ],
          [
            121.5945,
            24.0935
          ],
          [
            121.5895,
            24.0535
          ],
          [
            121.6015,
            23.9925
          ]
        ]
      }
    }
  ]
}