{
  "type": "FeatureCollection",
  "features": [
    {
      "type": "Feature",
      "properties": {
        "segment_id": "EL-southlink",
        "name": "南迴線（台東-屏東-高雄）",
        "station_count": 20,
        "stations": [
          "臺東",
          "康樂",
          "知本",
          "太麻里",
          "金崙",
          "瀧溪",
          "大武",
          "枋山",
          "枋寮",
          "加祿",
          "內獅",
          "枋野",
          "林邊",
          "佳冬",
          "東海",
          "鎮安",
          "西勢",
          "竹田",
          "潮州",
          "屏東"
        ],
        "status": "draft"
      },
      "geometry": {
        "type": "LineString",
        "coordinates": [
          [
            121.1085,
            22.7925
          ],
          [
            121.0905,
            22.7615
          ],
          [
            120.9995,
            22.7245
          ],
          [
            120.9685,
            22.6155
          ],
          [
            120.9565,
            22.5355
          ],
          [
            120.9325,
            22.4735
          ],
          [
            120.8915,
            22.3545
          ],
          [
            120.6565,
            22.2575
          ],
          [
            120.5945,
            22.3655
          ],
          [
            120.5865,
            22.3905
          ],
          [
            120.5485,
            22.4265
          ],
          [
            120.6565,
            22.3215
          ],
          [
            120.5155,
            22.4355
          ],
          [
            120.5525,
            22.4215
          ],
          [
            120.5315,
            22.4585
          ],
          [
            120.5015,
            22.4815
          ],
          [
            120.4945,
            22.5045
          ],
          [
            120.5375,
            22.5815
          ],
          [
            120.5395,
            22.5505
          ],
          [
            120.4862,
            22.669
          ]
        ]
      }
    }
  ]
}