{
  "type": "FeatureCollection",
  "features": [
    {
      "type": "Feature",
      "properties": {
        "segment_id": "EL-taitung",
        "name": "台東線（花蓮-台東）",
        "station_count": 26,
        "stations": [
          "花蓮",
          "吉安",
          "志學",
          "平和",
          "壽豐",
          "豐田",
          "南平",
          "鳳林",
          "萬榮",
          "光復",
          "大富",
          "富源",
          "瑞穗",
          "三民",
          "玉里",
          "東里",
          "東竹",
          "富里",
          "池上",
          "海端",
          "關山",
          "瑞和",
          "瑞源",
          "鹿野",
          "山里",
          "臺東"
        ],
        "status": "draft"
      },
      "geometry": {
        "type": "LineString",
        "coordinates": [
          [
            121.6015,
            23.9925
          ],
          [
            121.5715,
            23.9645
          ],
          [
            121.5115,
            23.9085
          ],
          [
            121.4875,
            23.8715
          ],
          [
            121.5095,
            23.8685
          ],
          [
            121.5045,
            23.8285
          ],
          [
            121.4555,
            23.7835
          ],
          [
            121.4515,
            23.7455
          ],
          [
            121.4175,
            23.7065
          ],
          [
            121.4205,
            23.6695
          ],
          [
            121.4025,
            23.6325
          ],
          [
            121.3775,
            23.5815
          ],
          [
            121.3585,
            23.4965
          ],
          [
            121.3475,
            23.4375
          ],
          [
            121.3095,
            23.3325
          ],
          [
            121.2855,
            23.2635
          ],
          [
            121.2645,
            23.2285
          ],
          [
            121.2505,
            23.1805
          ],
          [
            121.2205,
            23.1285
          ],
          [
            121.1715,
            23.0965
          ],
          [
            121.1635,
            23.0475
          ],
          [
            121.1375,
            22.9835
          ],
          [
            121.1175,
            22.9505
          ],
          [
            121.1245,
            22.9145
          ],
          [
            121.1085,
            22.8595
          ],
          [
            121.1085,
            22.7925
          ]
        ]
      }
    }
  ]
}