{
  "type": "FeatureCollection",
  "features": [
    {
      "type": "Feature",
      "properties": {
        "segment_id": "WL-changhua",
        "name": "彰化縣段",
        "station_count": 10,
        "stations": [
          "成功",
          "追分",
          "彰化",
          "花壇",
          "大村",
          "員林",
          "永靖",
          "社頭",
          "田中",
          "二水"
        ],
        "status": "draft"
      },
      "geometry": {
        "type": "LineString",
        "coordinates": [
          [
            120.5885,
            24.1095
          ],
          [
            120.5135,
            24.1135
          ],
          [
            120.5385,
            24.0815
          ],
          [
            120.5385,
            24.0275
          ],
          [
            120.5495,
            23.9955
          ],
          [
            120.5705,
            23.9585
          ],
          [
            120.5475,
            23.9265
          ],
          [
            120.5825,
            23.8965
          ],
          [
            120.5805,
            23.8575
          ],
          [
            120.6185,
            23.8095
          ]
        ]
      }
    }
  ]
}