{
  "type": "FeatureCollection",
  "features": [
    {
      "type": "Feature",
      "properties": {
        "segment_id": "WL-miaoli",
        "name": "苗栗縣段",
        "station_count": 11,
        "stations": [
          "香山",
          "崎頂",
          "竹南",
          "談文",
          "大山",
          "後龍",
          "龍港",
          "白沙屯",
          "新埔",
          "通霄",
          "苑裡"
        ],
        "status": "draft"
      },
      "geometry": {
        "type": "LineString",
        "coordinates": [
          [
            120.9235,
            24.7475
          ],
          [
            120.8995,
            24.7145
          ],
          [
            120.8785,
            24.6855
          ],
          [
            120.8225,
            24.6365
          ],
          [
            120.7905,
            24.6125
          ],
          [
            120.787,
            24.5975
          ],
          [
            120.7685,
            24.5675
          ],
          [
            120.7585,
            24.5415
          ],
          [
            120.7395,
            24.5095
          ],
          [
            120.7095,
            24.4895
          ],
          [
            120.6575,
            24.4415
          ]
        ]
      }
    }
  ]
}