{
  "type": "FeatureCollection",
  "features": [
    {
      "type": "Feature",
      "properties": {
        "segment_id": "WL-newtaipei-north",
        "name": "新北市段（東北）",
        "station_count": 6,
        "stations": [
          "八堵",
          "七堵",
          "百福",
          "五堵",
          "汐止",
          "汐科"
        ],
        "status": "draft"
      },
      "geometry": {
        "type": "LineString",
        "coordinates": [
          [
            121.717,
            25.1095
          ],
          [
            121.7135,
            25.0965
          ],
          [
            121.6945,
            25.0755
          ],
          [
            121.664,
            25.0685
          ],
          [
            121.657,
            25.063
          ],
          [
            121.6485,
            25.0595
          ]
        ]
      }
    }
  ]
}