{
  "type": "FeatureCollection",
  "features": [
    {
      "type": "Feature",
      "properties": {
        "segment_id": "WL-taoyuan",
        "name": "桃園市段",
        "station_count": 9,
        "stations": [
          "鶯歌",
          "桃園",
          "內壢",
          "中壢",
          "埔心",
          "楊梅",
          "富岡",
          "新富",
          "北湖"
        ],
        "status": "draft"
      },
      "geometry": {
        "type": "LineString",
        "coordinates": [
          [
            121.3545,
            24.956
          ],
          [
            121.3145,
            24.9895
          ],
          [
            121.259,
            24.9585
          ],
          [
            121.2255,
            24.9535
          ],
          [
            121.167,
            24.917
          ],
          [
            121.1465,
            24.9115
          ],
          [
            121.1015,
            24.8985
          ],
          [
            121.0845,
            24.889
          ],
          [
            121.0565,
            24.8755
          ]
        ]
      }
    }
  ]
}