{
  "type": "FeatureCollection",
  "features": [
    {
      "type": "Feature",
      "properties": {
        "description": "花蓮-壽豐段 (TL-0 index 0-600)"
      },
      "geometry": {
        "coordinates": [
          [
            121.60263423114205,
            23.99630082161154
          ],
          [
            121.60232307077362,
            23.995687220125827
          ],
          [
            121.60188622324158,
            23.99485278993831
          ],
          [
            121.60023923108956,
            23.99148700725522
          ],
          [
            121.5998994677099,
            23.99076013348621
          ],
          [
            121.59905814246002,
            23.989089535702302
          ],
          [
            121.59859082715117,
            23.988114746421356
          ],
          [
            121.59816931689882,
            23.98726671112938
          ],
          [
            121.5932932247915,
            23.97731017581475
          ],
          [
            121.59264796834127,
            23.976001358832587
          ],
          [
            121.59243480242384,
            23.97555278653439
          ],
          [
            121.59211054157034,
            23.974918203274466
          ],
          [
            121.59193077540826,
            23.974591280122795
          ],
          [
            121.59180979055368,
            23.974390454240513
          ],
          [
            121.59165993577368,
            23.974184028543448
          ],
          [
            121.59150529697581,
            23.973994180834946
          ],
          [
            121.5912424389975,
            23.973718493189576
          ],
          [
            121.59097057082998,
            23.973473514054074
          ],
          [
            121.59079098495421,
            23.97333374958103
          ],
          [
            121.59001086923736,
            23.972801139932486
          ],
          [
            121.5896857422337,
            23.972577290358494
          ],
          [
            121.58906348902252,
            23.9721438977578
          ],
          [
            121.58814716326621,
            23.97152749370181
          ],
          [
            121.58713882122036,
            23.970840816142836
          ],
          [
            121.58646044320295,
            23.970376495228162
          ],
          [
            121.58582648982484,
            23.96994467144107
          ],
          [
            121.58548500073518,
            23.96971405167394
          ],
          [
            121.58479163779124,
            23.969239920300787
          ],
          [
            121.58409769764127,
            23.968762177067013
          ],
          [
            121.5839994025677,
            23.968694228217668
          ],
          [
            121.58390527406661,
            23.968629160050956
          ],
          [
            121.58363795716068,
            23.96844437007403
          ],
          [
            121.58305551041515,
            23.96795167882715
          ],
          [
            121.58289567668766,
            23.96782314524627
          ],
          [
            121.58259734998613,
            23.967597260517568
          ],
          [
            121.58215335474178,
            23.96728954439897
          ],
          [
            121.58172003700237,
            23.966993316001076
          ],
          [
            121.58122086942267,
            23.966655839731803
          ],
          [
            121.58081513242551,
            23.96637584638676
          ],
          [
            121.58035642837739,
            23.966085697400672
          ],
          [
            121.58006995988566,
            23.96589906460327
          ],
          [
            121.57988044279153,
            23.965775596122185
          ],
          [
            121.57944675806209,
            23.96552027336427
          ],
          [
            121.57903255494426,
            23.96529402336692
          ],
          [
            121.57882840540701,
            23.965171942373548
          ],
          [
            121.57822699494992,
            23.96476241657998
          ],
          [
            121.57809211628813,
            23.96466883287427
          ],
          [
            121.57807784633091,
            23.964658930898157
          ],
          [
            121.57806794863423,
            23.96465206345903
          ],
          [
            121.57761970885946,
            23.964341056780412
          ],
          [
            121.57701463009263,
            23.963924434712172
          ],
          [
            121.57644302124613,
            23.9635318189448
          ],
          [
            121.5761192021829,
            23.96331344892627
          ],
          [
            121.57607228731247,
            23.96328181110956
          ],
          [
            121.57605112024538,
            23.96326753754569
          ],
          [
            121.57599766716471,
            23.963230763084876
          ],
          [
            121.57542296991059,
            23.962835395618995
          ],
          [
            121.57488438968755,
            23.96246803324839
          ],
          [
            121.57430371804244,
            23.962071933485937
          ],
          [
            121.57376329615762,
            23.961704618181628
          ],
          [
            121.57312065570953,
            23.961267409171125
          ],
          [
            121.5725144417541,
            23.96085399826704
          ],
          [
            121.57201473413687,
            23.96050563170189
          ],
          [
            121.57146873197128,
            23.960135729296002
          ],
          [
            121.57091516735626,
            23.959758917582707
          ],
          [
            121.57084436973847,
            23.95971039721591
          ],
          [
            121.57083619389236,
            23.95970479512377
          ],
          [
            121.57082649640539,
            23.959698149481493
          ],
          [
            121.5703246862374,
            23.959354242820623
          ],
          [
            121.56990949603042,
            23.959088945500394
          ],
          [
            121.5696808492981,
            23.95892992898195
          ],
          [
            121.56920750561781,
            23.958599090313434
          ],
          [
            121.56806278682029,
            23.95780378667695
          ],
          [
            121.56707523346074,
            23.957136935587908
          ],
          [
            121.56651463464233,
            23.956750391706773
          ],
          [
            121.56598791223492,
            23.956393732530557
          ],
          [
            121.56543737119075,
            23.956015571873834
          ],
          [
            121.56494037631789,
            23.955680018438798
          ],
          [
            121.56434490083498,
            23.95527240283866
          ],
          [
            121.56363722588584,
            23.95478638147607
          ],
          [
            121.56360506744498,
            23.954764225950555
          ],
          [
            121.56352813870153,
            23.954711221669967
          ],
          [
            121.56345157365408,
            23.95465846793342
          ],
          [
            121.56288755837446,
            23.954269856984286
          ],
          [
            121.56218439632978,
            23.953791586415885
          ],
          [
            121.56151471195142,
            23.95333914765205
          ],
          [
            121.56092740869224,
            23.952935851445197
          ],
          [
            121.56033045370643,
            23.952524495135382
          ],
          [
            121.5597599605537,
            23.952140381725872
          ],
          [
            121.55965865070657,
            23.952069874248547
          ],
          [
            121.55963379085489,
            23.952052572526515
          ],
          [
            121.55961074028885,
            23.952036530120957
          ],
          [
            121.5592896540162,
            23.951813065149786
          ],
          [
            121.55877595307071,
            23.95146305081311
          ],
          [
            121.55869708499952,
            23.951406192847763
          ],
          [
            121.5586912091996,
            23.95140195779133
          ],
          [
            121.55868407583685,
            23.951396813540033
          ],
          [
            121.55827617261662,
            23.95110274571873
          ],
          [
            121.55805549236693,
            23.950948249378897
          ],
          [
            121.55797628517551,
            23.95089120716089
          ],
          [
            121.55768482119899,
            23.950680745308336
          ],
          [
            121.55733254789642,
            23.95042798799449
          ],
          [
            121.55697346083933,
            23.950175069454556
          ],
          [
            121.55639717646318,
            23.949781307246088
          ],
          [
            121.5561278483169,
            23.94959804612147
          ],
          [
            121.55583681938403,
            23.949400610222206
          ],
          [
            121.55551153366046,
            23.949176085010574
          ],
          [
            121.55516509859912,
            23.948939627405498
          ],
          [
            121.5548701254798,
            23.948739532085952
          ],
          [
            121.55452766080447,
            23.948507418021887
          ],
          [
            121.55427717948294,
            23.94833357353688
          ],
          [
            121.55397737207689,
            23.94812625596271
          ],
          [
            121.55368510782071,
            23.947923053257536
          ],
          [
            121.55339119328264,
            23.94772706315508
          ],
          [
            121.55306026957028,
            23.947505939803875
          ],
          [
            121.55282887831497,
            23.94733603497179
          ],
          [
            121.55256603855322,
            23.947165234347107
          ],
          [
            121.55228887953801,
            23.946968181329524
          ],
          [
            121.55206925775629,
            23.946816456039397
          ],
          [
            121.55183730849745,
            23.946657051004397
          ],
          [
            121.55160328869086,
            23.946499466138874
          ],
          [
            121.55136494705414,
            23.946332025524597
          ],
          [
            121.55112705863938,
            23.946172377947562
          ],
          [
            121.55089406021942,
            23.946012682654093
          ],
          [
            121.5506899907115,
            23.945874599790653
          ],
          [
            121.5504316136456,
            23.945697455230697
          ],
          [
            121.55023567679179,
            23.94556679091828
          ],
          [
            121.55002385010806,
            23.94542308435584
          ],
          [
            121.54980526166781,
            23.94526984592236
          ],
          [
            121.54961171516625,
            23.94513495913103
          ],
          [
            121.5491394918437,
            23.94481952249196
          ],
          [
            121.54894138275132,
            23.94468287957893
          ],
          [
            121.54875704205756,
            23.944557199424537
          ],
          [
            121.54855687851446,
            23.944423575534863
          ],
          [
            121.54840918443026,
            23.944322133417554
          ],
          [
            121.54822800006528,
            23.94419732260394
          ],
          [
            121.54804758869174,
            23.944078201826137
          ],
          [
            121.5478713335365,
            23.943956341845656
          ],
          [
            121.54764820107118,
            23.94380254488846
          ],
          [
            121.5474430870177,
            23.943664167839465
          ],
          [
            121.54722419077095,
            23.943513628293125
          ],
          [
            121.546952082886,
            23.94332761190932
          ],
          [
            121.54672155565979,
            23.94316908593056
          ],
          [
            121.54649383453203,
            23.94301143268306
          ],
          [
            121.54644390912028,
            23.94297718312377
          ],
          [
            121.54630610992241,
            23.942882651815125
          ],
          [
            121.54627353510853,
            23.942860304402576
          ],
          [
            121.54603778215443,
            23.942702726875826
          ],
          [
            121.54579416901231,
            23.94253173036777
          ],
          [
            121.5455206925398,
            23.942347523907134
          ],
          [
            121.5452965300226,
            23.942194632724355
          ],
          [
            121.54504871635707,
            23.942022774959828
          ],
          [
            121.54478820323365,
            23.94184144215584
          ],
          [
            121.54454995804956,
            23.941679987577505
          ],
          [
            121.5443095863891,
            23.941516154592517
          ],
          [
            121.54406427535727,
            23.94134846962722
          ],
          [
            121.5438869561617,
            23.94122481545804
          ],
          [
            121.5436064804663,
            23.941039173821856
          ],
          [
            121.54327975037168,
            23.940815589484906
          ],
          [
            121.54304780248688,
            23.940654671856606
          ],
          [
            121.54279090633622,
            23.940482297964707
          ],
          [
            121.5424961175617,
            23.940270400434056
          ],
          [
            121.54230964969933,
            23.940141434912753
          ],
          [
            121.54214270092119,
            23.940009282430353
          ],
          [
            121.54208896231823,
            23.93996001546958
          ],
          [
            121.54200053234825,
            23.939875693343755
          ],
          [
            121.5419095677004,
            23.93978449791506
          ],
          [
            121.54181047655426,
            23.9396861825338
          ],
          [
            121.54170803744195,
            23.939572305924827
          ],
          [
            121.54161930112363,
            23.939464594949975
          ],
          [
            121.54155214027757,
            23.939377369561804
          ],
          [
            121.54146890957587,
            23.939263307685756
          ],
          [
            121.54139233803534,
            23.939150982118893
          ],
          [
            121.5413216565273,
            23.939035000528477
          ],
          [
            121.5412453968874,
            23.938893282253833
          ],
          [
            121.54117554670962,
            23.938760798276622
          ],
          [
            121.54111635891105,
            23.938642308362024
          ],
          [
            121.5410631127212,
            23.938524060250412
          ],
          [
            121.54104588390834,
            23.938487837272543
          ],
          [
            121.54100887330249,
            23.938410021499543
          ],
          [
            121.54091210829208,
            23.938196224186783
          ],
          [
            121.54082975504963,
            23.938015877775747
          ],
          [
            121.54073835170232,
            23.937811326505948
          ],
          [
            121.54065382461008,
            23.93762500296279
          ],
          [
            121.54046684448714,
            23.937217140082
          ],
          [
            121.54039274850034,
            23.9370538082075
          ],
          [
            121.5403151330972,
            23.936888410104924
          ],
          [
            121.54022578769933,
            23.93668083994095
          ],
          [
            121.54012122870964,
            23.936458420205376
          ],
          [
            121.54001896133867,
            23.93622428302928
          ],
          [
            121.53992402842587,
            23.936016766609377
          ],
          [
            121.53983411541024,
            23.9358190979869
          ],
          [
            121.5397495361755,
            23.935628575380765
          ],
          [
            121.53973876305021,
            23.93560459055241
          ],
          [
            121.53967362167388,
            23.93545956278255
          ],
          [
            121.53958514948651,
            23.935265179235664
          ],
          [
            121.53948737368492,
            23.93505378984886
          ],
          [
            121.5393957744322,
            23.934860636121538
          ],
          [
            121.53930275219486,
            23.93466539612005
          ],
          [
            121.53920414924184,
            23.93447080859808
          ],
          [
            121.53908737509582,
            23.934248805630745
          ],
          [
            121.53897206874858,
            23.93403218615135
          ],
          [
            121.53888006090123,
            23.93386092705587
          ],
          [
            121.53878639307588,
            23.933696282326878
          ],
          [
            121.53869011528693,
            23.9335190660395
          ],
          [
            121.53857726263598,
            23.93330302272641
          ],
          [
            121.53846566684567,
            23.933102861218956
          ],
          [
            121.53836110195388,
            23.932906231662198
          ],
          [
            121.53826167910991,
            23.932702055308084
          ],
          [
            121.538161462517,
            23.932490688848823
          ],
          [
            121.53806052466626,
            23.932277529796828
          ],
          [
            121.53797724132193,
            23.932105045850967
          ],
          [
            121.53796323181437,
            23.9320760320041
          ],
          [
            121.53787403560004,
            23.931879255257677
          ],
          [
            121.53777441247787,
            23.931659785259257
          ],
          [
            121.53767550807653,
            23.931441808840315
          ],
          [
            121.53757634155268,
            23.9312304319425
          ],
          [
            121.53746914268936,
            23.930992440944024
          ],
          [
            121.53737094611044,
            23.930775056856767
          ],
          [
            121.53725818768712,
            23.93051252789119
          ],
          [
            121.53712787820673,
            23.93024326917029
          ],
          [
            121.53702541771914,
            23.930020227464272
          ],
          [
            121.53690845449886,
            23.929756539070265
          ],
          [
            121.53680971390499,
            23.9295508558485
          ],
          [
            121.53670721881751,
            23.92932511512978
          ],
          [
            121.53661939494664,
            23.929126225277216
          ],
          [
            121.5365152370466,
            23.928906798149875
          ],
          [
            121.53641727469906,
            23.928680414739482
          ],
          [
            121.5363280118366,
            23.92847823849959
          ],
          [
            121.53631740076939,
            23.928455372471
          ],
          [
            121.53623241225078,
            23.92827222514611
          ],
          [
            121.53614249466743,
            23.928073354920098
          ],
          [
            121.53604648395013,
            23.92786254645082
          ],
          [
            121.53594576536943,
            23.927638887439745
          ],
          [
            121.53583939282103,
            23.927410184379237
          ],
          [
            121.53573913394303,
            23.92719491823727
          ],
          [
            121.5356431161881,
            23.926983509945934
          ],
          [
            121.53553839249328,
            23.926747293854184
          ],
          [
            121.53548526787903,
            23.926629623651497
          ],
          [
            121.5354416471694,
            23.92653293985212
          ],
          [
            121.53534522222171,
            23.926317589622958
          ],
          [
            121.53523170217397,
            23.926076359201602
          ],
          [
            121.53509431586166,
            23.925772677770407
          ],
          [
            121.53498032628646,
            23.92552215480635
          ],
          [
            121.53486030696168,
            23.92526449151015
          ],
          [
            121.53477204560892,
            23.925058406410894
          ],
          [
            121.53467460381378,
            23.924844612283504
          ],
          [
            121.534582693606,
            23.924653256770817
          ],
          [
            121.53448837150819,
            23.924437633132953
          ],
          [
            121.53439870720884,
            23.924230962136754
          ],
          [
            121.53430084985507,
            23.92401207298211
          ],
          [
            121.53422092746162,
            23.923829299525135
          ],
          [
            121.53412921194851,
            23.92362594655495
          ],
          [
            121.53406498045929,
            23.92346791501929
          ],
          [
            121.53403030873042,
            23.923380377139825
          ],
          [
            121.53401213112683,
            23.923333395299025
          ],
          [
            121.53392599809996,
            23.92310747275651
          ],
          [
            121.5338315037602,
            23.92283792202607
          ],
          [
            121.53374266727175,
            23.922570184544824
          ],
          [
            121.53363634532111,
            23.92222341824328
          ],
          [
            121.53349477318693,
            23.921730925817705
          ],
          [
            121.5333594365078,
            23.921285070133862
          ],
          [
            121.5332393273231,
            23.920877170756683
          ],
          [
            121.53305549974066,
            23.920251557540755
          ],
          [
            121.53296725108306,
            23.91994118779279
          ],
          [
            121.53289138859908,
            23.919680292315373
          ],
          [
            121.53283849606872,
            23.919493363740578
          ],
          [
            121.53277969479949,
            23.919299795527795
          ],
          [
            121.53271384057896,
            23.91909217758621
          ],
          [
            121.53260653005358,
            23.91871370789205
          ],
          [
            121.53245476428076,
            23.91821950049563
          ],
          [
            121.53242654717505,
            23.918106984316765
          ],
          [
            121.53236455988643,
            23.917896168110616
          ],
          [
            121.53228476405533,
            23.917630707940177
          ],
          [
            121.53220333040917,
            23.91735786461664
          ],
          [
            121.53213706966875,
            23.917127734722076
          ],
          [
            121.53206864996274,
            23.916895617663705
          ],
          [
            121.53199208922751,
            23.91663408382019
          ],
          [
            121.53190688038433,
            23.91635432146992
          ],
          [
            121.5318324814743,
            23.916095735367044
          ],
          [
            121.53175594531253,
            23.915837566543207
          ],
          [
            121.53168916235178,
            23.915612878416763
          ],
          [
            121.53162239944793,
            23.91539015317698
          ],
          [
            121.53154581559299,
            23.91512467777516
          ],
          [
            121.53146331399635,
            23.91484833330307
          ],
          [
            121.53136777269378,
            23.914526763958925
          ],
          [
            121.53126106527854,
            23.91416437410599
          ],
          [
            121.53119770249552,
            23.91395082159331
          ],
          [
            121.53114832214315,
            23.913784029241206
          ],
          [
            121.53111176253985,
            23.91365615812856
          ],
          [
            121.53105688125629,
            23.913466807583706
          ],
          [
            121.5309664521885,
            23.913162010449557
          ],
          [
            121.53089397263412,
            23.912921035306717
          ],
          [
            121.53082009530401,
            23.91267323147985
          ],
          [
            121.5307373137197,
            23.912388872940735
          ],
          [
            121.53066614292503,
            23.91213793910437
          ],
          [
            121.53060256659693,
            23.911931004661657
          ],
          [
            121.53053347467248,
            23.91169740186084
          ],
          [
            121.53046092383703,
            23.911442163818283
          ],
          [
            121.53041780260104,
            23.91129454249415
          ],
          [
            121.53037747029093,
            23.9111590552022
          ],
          [
            121.53031388224703,
            23.91095575137145
          ],
          [
            121.5303077041978,
            23.91093814634541
          ],
          [
            121.5303077041978,
            23.91093814634541
          ],
          [
            121.5302298783657,
            23.910650167436508
          ],
          [
            121.53017262816465,
            23.910419272758258
          ],
          [
            121.53012112608569,
            23.91021954460959
          ],
          [
            121.5300862064368,
            23.91008888863739
          ],
          [
            121.53003033363994,
            23.909920634046216
          ],
          [
            121.5299801559743,
            23.90977318579346
          ],
          [
            121.5299042698024,
            23.90950944767194
          ],
          [
            121.52977759482289,
            23.909108621128212
          ],
          [
            121.52965015446307,
            23.9086791850392
          ],
          [
            121.52950409209987,
            23.908215805074043
          ],
          [
            121.52936136236876,
            23.90774862989304
          ],
          [
            121.52928435562157,
            23.907524936289615
          ],
          [
            121.52921338696818,
            23.907243157476493
          ],
          [
            121.52918989749956,
            23.90715538796683
          ],
          [
            121.52914943981321,
            23.907029063950027
          ],
          [
            121.52912512597997,
            23.90694327591778
          ],
          [
            121.52907154086382,
            23.906762018056263
          ],
          [
            121.52897878640951,
            23.906451350907965
          ],
          [
            121.52887755280888,
            23.906109630502904
          ],
          [
            121.52887755280888,
            23.906109630502904
          ],
          [
            121.52877971553605,
            23.905834886529323
          ],
          [
            121.5286749072813,
            23.905551613921716
          ],
          [
            121.52860122096902,
            23.90536372587938
          ],
          [
            121.52855759844557,
            23.90515086714092
          ],
          [
            121.5285045890227,
            23.904977998412214
          ],
          [
            121.52820091413712,
            23.9039479597503
          ],
          [
            121.52792830380675,
            23.903036985314934
          ],
          [
            121.5278377141363,
            23.902749500264804
          ],
          [
            121.52775957659672,
            23.902450620147565
          ],
          [
            121.52770701034598,
            23.90227074407155
          ],
          [
            121.52763604560036,
            23.902035415737178
          ],
          [
            121.52753210297428,
            23.901690879779625
          ],
          [
            121.527283300684,
            23.900835495004873
          ],
          [
            121.5272122427232,
            23.900592127098747
          ],
          [
            121.52714550051205,
            23.900362186951348
          ],
          [
            121.5270804302286,
            23.900112218740535
          ],
          [
            121.52700618761452,
            23.899883639067763
          ],
          [
            121.52696199858465,
            23.899672867764973
          ],
          [
            121.52690669410325,
            23.899459613505513
          ],
          [
            121.52685184612959,
            23.899220776599524
          ],
          [
            121.52677525690233,
            23.898963117507783
          ],
          [
            121.52670878730245,
            23.898740101275422
          ],
          [
            121.52664288123941,
            23.898514072660184
          ],
          [
            121.52658867910986,
            23.898333685682722
          ],
          [
            121.52647548244835,
            23.897961434479353
          ],
          [
            121.5262717055963,
            23.89727497959157
          ],
          [
            121.52603699662765,
            23.89648095311655
          ],
          [
            121.52587162873628,
            23.89592577164813
          ],
          [
            121.52553486509774,
            23.894768883608187
          ],
          [
            121.52540144615547,
            23.894329236031005
          ],
          [
            121.52537052408601,
            23.894227340499434
          ],
          [
            121.52532434510144,
            23.89407516692601
          ],
          [
            121.52506298797925,
            23.893185418000066
          ],
          [
            121.52476001938257,
            23.892160746112776
          ],
          [
            121.52466033750252,
            23.891822302951965
          ],
          [
            121.52463361669362,
            23.891731578577932
          ],
          [
            121.52448373118175,
            23.89122267874407
          ],
          [
            121.52419250679885,
            23.89023811748282
          ],
          [
            121.52391197346928,
            23.889277258415845
          ],
          [
            121.5237455651637,
            23.88871386965913
          ],
          [
            121.52353543312061,
            23.887996415376147
          ],
          [
            121.52338074139055,
            23.887484988662525
          ],
          [
            121.52333966523064,
            23.88733852432217
          ],
          [
            121.52324754284435,
            23.887053624179654
          ],
          [
            121.5231056963886,
            23.88668444411235
          ],
          [
            121.52297288076551,
            23.8863417915367
          ],
          [
            121.52286173914716,
            23.886092910139315
          ],
          [
            121.52271210678265,
            23.885770184659265
          ],
          [
            121.52252072717114,
            23.885396404640865
          ],
          [
            121.5223399961287,
            23.88507002808372
          ],
          [
            121.52209075677894,
            23.88466159916156
          ],
          [
            121.52190566439666,
            23.884379890221936
          ],
          [
            121.52165634372263,
            23.884022509760438
          ],
          [
            121.52110309858277,
            23.883251221075056
          ],
          [
            121.52072106786856,
            23.88272243953805
          ],
          [
            121.52035402528507,
            23.882211890963546
          ],
          [
            121.5197793884825,
            23.8814141571294
          ],
          [
            121.51916409301397,
            23.880561719458186
          ],
          [
            121.51858191850458,
            23.87975627427057
          ],
          [
            121.51854506363114,
            23.87970488080509
          ],
          [
            121.5179624259694,
            23.878892391651537
          ],
          [
            121.51792899887279,
            23.87884650710931
          ],
          [
            121.51753868082169,
            23.87831072267786
          ],
          [
            121.5172187494502,
            23.877863073929927
          ],
          [
            121.5166805301079,
            23.877116383326396
          ],
          [
            121.51596149114708,
            23.876117145598073
          ],
          [
            121.51543291350907,
            23.875385949550054
          ],
          [
            121.51467109136482,
            23.87432926665825
          ],
          [
            121.51395207626561,
            23.87333366568529
          ],
          [
            121.51383944538028,
            23.873177321476327
          ],
          [
            121.51368668982984,
            23.872965279979624
          ],
          [
            121.51318369981571,
            23.87226355631618
          ],
          [
            121.51277105133066,
            23.871693173556572
          ],
          [
            121.51252693414715,
            23.871358174497903
          ],
          [
            121.51223591789699,
            23.870953076253713
          ],
          [
            121.5119700923152,
            23.870584133489565
          ],
          [
            121.51177549995377,
            23.870315542844516
          ],
          [
            121.51134596915149,
            23.869704973961937
          ],
          [
            121.51089626985585,
            23.869084108461692
          ],
          [
            121.51043477106208,
            23.868441727264447
          ],
          [
            121.51005548002352,
            23.867939537737257
          ],
          [
            121.50998028341054,
            23.867828936271895
          ],
          [
            121.50991651378378,
            23.86773514234286
          ],
          [
            121.50978794757242,
            23.867558785068667
          ],
          [
            121.50949521181079,
            23.867150729745994
          ],
          [
            121.50926935645337,
            23.8668393381902
          ],
          [
            121.5090428401825,
            23.866516331114127
          ],
          [
            121.50881528636256,
            23.866191843558592
          ],
          [
            121.50856260887029,
            23.865831528315898
          ],
          [
            121.50824818341415,
            23.865383507080853
          ],
          [
            121.5080555227495,
            23.86511002271777
          ],
          [
            121.50730942227433,
            23.864077115247294
          ],
          [
            121.50693520888132,
            23.86358077888858
          ],
          [
            121.50684646598614,
            23.863456203861197
          ],
          [
            121.50663214680117,
            23.863156090428923
          ],
          [
            121.50583262794682,
            23.862053152005227
          ],
          [
            121.50501551498161,
            23.860921572827525
          ],
          [
            121.50430044949852,
            23.859916051670375
          ],
          [
            121.50360851234855,
            23.858966146194284
          ],
          [
            121.50213016486177,
            23.856921899139355
          ],
          [
            121.50097139972522,
            23.85531646596145
          ],
          [
            121.50048204386636,
            23.854651045564317
          ],
          [
            121.49914881299799,
            23.852776395779987
          ],
          [
            121.49832932083523,
            23.851643553385813
          ],
          [
            121.49754146488638,
            23.85054194016287
          ],
          [
            121.4974538839408,
            23.85042153618946
          ],
          [
            121.4967692043567,
            23.84948183248422
          ],
          [
            121.49636681115773,
            23.848917704185315
          ],
          [
            121.49594683354023,
            23.848333811541828
          ],
          [
            121.49582951421594,
            23.84817070053124
          ],
          [
            121.49569703579293,
            23.84799136247365
          ],
          [
            121.49558089418593,
            23.847826967081996
          ],
          [
            121.49546732897595,
            23.847671897133562
          ],
          [
            121.49541695877252,
            23.847602705107047
          ],
          [
            121.49532915212896,
            23.847477663890228
          ],
          [
            121.49520321124164,
            23.847302707153883
          ],
          [
            121.49507726372299,
            23.847129016267463
          ],
          [
            121.4949580281664,
            23.84696611566659
          ],
          [
            121.49483950661681,
            23.846803218090585
          ],
          [
            121.49470824710397,
            23.84662253702328
          ],
          [
            121.49452197994583,
            23.84636638660127
          ],
          [
            121.49434494535174,
            23.846118514385832
          ],
          [
            121.4941778210674,
            23.845885257871156
          ],
          [
            121.49406169568616,
            23.84572128467212
          ],
          [
            121.49388252175498,
            23.845473401585114
          ],
          [
            121.49368846753292,
            23.84520644591519
          ],
          [
            121.49352204784809,
            23.84497509160455
          ],
          [
            121.49334076032798,
            23.8447227639489
          ],
          [
            121.49322108506263,
            23.8445556067806
          ],
          [
            121.49302348356507,
            23.844285466007705
          ],
          [
            121.49282875513802,
            23.844012170784943
          ],
          [
            121.49262197717137,
            23.84372424985268
          ],
          [
            121.49242203426479,
            23.84344327396774
          ],
          [
            121.49237947596339,
            23.843386402890637
          ],
          [
            121.49222509821519,
            23.843172207142693
          ],
          [
            121.49204308260344,
            23.8429230414017
          ],
          [
            121.49189720522551,
            23.84272028747318
          ],
          [
            121.49167695388932,
            23.842417731567966
          ],
          [
            121.49147656915203,
            23.842136173359812
          ],
          [
            121.49127263692125,
            23.84185079765451
          ],
          [
            121.49104460309793,
            23.841536802582944
          ],
          [
            121.4908328583495,
            23.841245055519863
          ],
          [
            121.49064095778553,
            23.840978105093658
          ],
          [
            121.49043065020128,
            23.840685095945137
          ],
          [
            121.49021962990089,
            23.840392084238484
          ],
          [
            121.49004258968758,
            23.84014800722511
          ],
          [
            121.48984218899393,
            23.83987024639873
          ],
          [
            121.4896382649205,
            23.839584868327094
          ],
          [
            121.48936350319313,
            23.83920603881904
          ],
          [
            121.48907600801753,
            23.838807512413158
          ],
          [
            121.48886641413921,
            23.838515771856244
          ],
          [
            121.48866247930609,
            23.838232926112077
          ],
          [
            121.48844720263251,
            23.837936723399665
          ],
          [
            121.48824751189467,
            23.837660865121002
          ],
          [
            121.48804220016024,
            23.837369777069117
          ],
          [
            121.48782337214934,
            23.837071022978034
          ],
          [
            121.48759962901123,
            23.83675830997274
          ],
          [
            121.4873850788993,
            23.836460841930027
          ],
          [
            121.48719037768107,
            23.836186905938867
          ],
          [
            121.48698996457287,
            23.835913575552766
          ],
          [
            121.4867690553601,
            23.835605309274577
          ],
          [
            121.48657717506526,
            23.83533771943666
          ],
          [
            121.48636405342118,
            23.835040890960247
          ],
          [
            121.48615021460141,
            23.834744691980962
          ],
          [
            121.48589459652298,
            23.83439128492745
          ],
          [
            121.48559932665015,
            23.833983211915637
          ],
          [
            121.48539186362095,
            23.83369591020216
          ],
          [
            121.48519644301327,
            23.833424502026126
          ],
          [
            121.48500101163575,
            23.833154992531465
          ],
          [
            121.48480632495429,
            23.832880420264075
          ],
          [
            121.48458682056747,
            23.832577857378457
          ],
          [
            121.48438930587582,
            23.83229883644267
          ],
          [
            121.48427654724561,
            23.8321467104218
          ],
          [
            121.4842463572733,
            23.832104349193525
          ],
          [
            121.48419733267689,
            23.832041648450737
          ],
          [
            121.48417766326968,
            23.8320135271813
          ],
          [
            121.48404104773715,
            23.831817776464003
          ],
          [
            121.48386615407466,
            23.831576868862996
          ],
          [
            121.48364737125978,
            23.83127367471234
          ],
          [
            121.48346472779633,
            23.831015626646572
          ],
          [
            121.48331177649115,
            23.83080649499382
          ],
          [
            121.48310707510653,
            23.830518426426053
          ],
          [
            121.48305552811019,
            23.830449650885964
          ],
          [
            121.48263443231271,
            23.829855262662253
          ],
          [
            121.48219579946077,
            23.82924990295279
          ],
          [
            121.48177540782939,
            23.82865136451437
          ],
          [
            121.4812143817424,
            23.827872771012224
          ],
          [
            121.48054593787391,
            23.826930127814283
          ],
          [
            121.47987219965002,
            23.825987795029878
          ],
          [
            121.47941923713138,
            23.825357934432688
          ],
          [
            121.478825314887,
            23.824530637123747
          ],
          [
            121.47844329637022,
            23.823948094673696
          ],
          [
            121.47809106167672,
            23.82333366120256
          ],
          [
            121.47801437992538,
            23.823199897383436
          ],
          [
            121.47754022513426,
            23.822267082051624
          ],
          [
            121.47690400535868,
            23.821039824310215
          ],
          [
            121.47645964425232,
            23.820176357723252
          ],
          [
            121.47624678145205,
            23.819792268572954
          ],
          [
            121.47573683069346,
            23.81878596462719
          ],
          [
            121.4751514172181,
            23.817648187617365
          ],
          [
            121.47476560925827,
            23.81695348397636
          ],
          [
            121.47431371876135,
            23.816233295145377
          ],
          [
            121.4737907547754,
            23.81551098816521
          ],
          [
            121.47316359521989,
            23.81475163543953
          ],
          [
            121.47259537066363,
            23.814143887701267
          ],
          [
            121.47150756804,
            23.813040327520593
          ],
          [
            121.47028987480019,
            23.811808719342483
          ],
          [
            121.46927855572254,
            23.810788976740426
          ],
          [
            121.46830798054424,
            23.809801796944367
          ],
          [
            121.46711582906856,
            23.80859810644203
          ],
          [
            121.46577338816861,
            23.807236066422796
          ],
          [
            121.46524355046424,
            23.806698230435433
          ],
          [
            121.464140610926,
            23.80558532109379
          ],
          [
            121.46345530464698,
            23.804861129179688
          ],
          [
            121.46306276218505,
            23.804385924753078
          ],
          [
            121.46276177297582,
            23.803961818641408
          ],
          [
            121.46240257019029,
            23.80338183395767
          ],
          [
            121.46219238800686,
            23.802999080952258
          ],
          [
            121.46198524305338,
            23.802556010665207
          ],
          [
            121.46182421931145,
            23.802149722290693
          ],
          [
            121.4617035156632,
            23.8018352724411
          ],
          [
            121.46154168580783,
            23.801286981020198
          ],
          [
            121.46139219246317,
            23.800638237766485
          ],
          [
            121.46124214001131,
            23.79983070206992
          ],
          [
            121.46108435996125,
            23.79899049568189
          ],
          [
            121.46095870692291,
            23.798333544833948
          ],
          [
            121.46088526829624,
            23.797949583794644
          ],
          [
            121.46065074940876,
            23.796706670887808
          ],
          [
            121.46054756656068,
            23.796157811873513
          ],
          [
            121.4604575033919,
            23.795800966389997
          ],
          [
            121.46042921113157,
            23.795630570674334
          ],
          [
            121.45996526966141,
            23.79310279766545
          ],
          [
            121.4597613233018,
            23.792221060270883
          ],
          [
            121.45938533604101,
            23.79079104282719
          ],
          [
            121.45900584326967,
            23.789307353384125
          ],
          [
            121.45885582339564,
            23.788501673851087
          ],
          [
            121.45882276943567,
            23.78823216992916
          ],
          [
            121.45875682866145,
            23.78769452952326
          ],
          [
            121.45874961406908,
            23.78763570486026
          ],
          [
            121.45862607544447,
            23.786651722923743
          ],
          [
            121.45850871029545,
            23.785640452009154
          ],
          [
            121.45846311153714,
            23.785110399850726
          ],
          [
            121.45843437737143,
            23.784755151917583
          ],
          [
            121.4583690647631,
            23.78409703038775
          ],
          [
            121.45815147189383,
            23.782758026806757
          ],
          [
            121.4580554866756,
            23.782186322008585
          ],
          [
            121.45799209828495,
            23.78180876418167
          ],
          [
            121.45780397303731,
            23.780846100734983
          ],
          [
            121.4575600395278,
            23.779288529077892
          ],
          [
            121.45732738579456,
            23.777881860055764
          ],
          [
            121.45713463258306,
            23.776670769944065
          ],
          [
            121.45697278778374,
            23.775671940800585
          ],
          [
            121.45682489595056,
            23.774781328303543
          ],
          [
            121.45658483213664,
            23.77333346594385
          ],
          [
            121.4564936778663,
            23.772783690690126
          ],
          [
            121.45630736582643,
            23.771685002297943
          ],
          [
            121.45620103835029,
            23.771034377832258
          ],
          [
            121.45603615859828,
            23.770025839865585
          ],
          [
            121.45597469842471,
            23.769596973704488
          ],
          [
            121.45580842777801,
            23.76850719233578
          ],
          [
            121.45553852928225,
            23.76664261135229
          ],
          [
            121.45533701950646,
            23.76536075825478
          ],
          [
            121.45515586553806,
            23.764149166758653
          ],
          [
            121.4550390665828,
            23.76348550203524
          ],
          [
            121.45500612862016,
            23.76329834372365
          ],
          [
            121.4549101489695,
            23.76287299427475
          ],
          [
            121.45490210519644,
            23.762846191735246
          ],
          [
            121.45477247329602,
            23.762414252081008
          ],
          [
            121.45464018461378,
            23.762026945605015
          ],
          [
            121.4544394443671,
            23.76154083549626
          ],
          [
            121.45421154255261,
            23.761067293865153
          ],
          [
            121.45389871069315,
            23.760417275464995
          ],
          [
            121.45388878633615,
            23.76039774997533
          ],
          [
            121.45352444780652,
            23.759680920720843
          ],
          [
            121.45314449183499,
            23.758899380928753
          ],
          [
            121.45236684216314,
            23.7574589937759
          ],
          [
            121.45188858318062,
            23.756536738125632
          ]
        ],
        "type": "LineString"
      }
    }
  ]
}