{
  "type": "FeatureCollection",
  "features": [
    {
      "type": "Feature",
      "properties": {
        "name": "新城 → 吉安",
        "gap_id": "gap-03",
        "line": "北迴線",
        "note": "新城到吉安，中間軌道移除",
        "stroke": "#0066ff",
        "stroke-width": 4,
        "stroke-opacity": 0.9
      },
      "geometry": {
        "coordinates": [
          [
            121.64078848393049,
            24.12844111818367
          ],
          [
            121.63860170192963,
            24.124314211011395
          ],
          [
            121.63808084257033,
            24.123480746008106
          ],
          [
            121.6375753205769,
            24.122801257893027
          ],
          [
            121.63725924626195,
            24.122380266382557
          ],
          [
            121.63669388153174,
            24.12189101853584
          ],
          [
            121.63579197474075,
            24.121185624254046
          ],
          [
            121.6349648550744,
            24.12063949610191
          ],
          [
            121.63307378984713,
            24.119331090413656
          ],
          [
            121.63115600966267,
            24.118037150649855
          ],
          [
            121.63000483786863,
            24.11719890748795
          ],
          [
            121.62876250769314,
            24.116320727693427
          ],
          [
            121.62637850346042,
            24.11456401774549
          ],
          [
            121.62494199067021,
            24.11350294099541
          ],
          [
            121.62372587679737,
            24.112628661558304
          ],
          [
            121.62222809333346,
            24.111525469639336
          ],
          [
            121.62081349426893,
            24.11047059472238
          ],
          [
            121.61938442074322,
            24.109363486416207
          ],
          [
            121.61855062843674,
            24.108566827557375
          ],
          [
            121.61794089994554,
            24.107804726896937
          ],
          [
            121.61753177755472,
            24.107196774904494
          ],
          [
            121.61708912822854,
            24.10642673382896
          ],
          [
            121.61623195570567,
            24.104626809484582
          ],
          [
            121.61518415951463,
            24.102397242384654
          ],
          [
            121.61420466390463,
            24.100480685370464
          ],
          [
            121.6136432191393,
            24.0991903557687
          ],
          [
            121.61322908447593,
            24.098232822447002
          ],
          [
            121.61196068866036,
            24.094451691264076
          ],
          [
            121.61069229284479,
            24.09067056008115
          ],
          [
            121.60984311739311,
            24.0879727109442
          ],
          [
            121.60940589944397,
            24.086628659462946
          ],
          [
            121.60910723768905,
            24.085749515912354
          ],
          [
            121.60897380682422,
            24.085282119215208
          ],
          [
            121.60867406982041,
            24.084072805430317
          ],
          [
            121.60855986933254,
            24.083636077913706
          ],
          [
            121.60848341877868,
            24.08319112848538
          ],
          [
            121.60825890268586,
            24.081991988051165
          ],
          [
            121.6080532609171,
            24.080782759925768
          ],
          [
            121.6073981358229,
            24.077117092722773
          ],
          [
            121.60707229237272,
            24.075223842102446
          ],
          [
            121.60674159000463,
            24.073334932569423
          ],
          [
            121.60610224819425,
            24.069713057148522
          ],
          [
            121.6055287583452,
            24.06649992494006
          ],
          [
            121.60520747006716,
            24.06435819149378
          ],
          [
            121.60472504133705,
            24.06158120805443
          ],
          [
            121.60424261260695,
            24.05880422461508
          ],
          [
            121.60306681373869,
            24.052073355143474
          ],
          [
            121.60280595642794,
            24.05073074708794
          ],
          [
            121.60240646277302,
            24.048383878412743
          ],
          [
            121.60181814751087,
            24.044837868385102
          ],
          [
            121.6014071789699,
            24.042507432755023
          ],
          [
            121.60120757187644,
            24.04134033228499
          ],
          [
            121.6011144044797,
            24.04075684730323
          ],
          [
            121.60106055267292,
            24.04043319232955
          ],
          [
            121.60102618622207,
            24.040073018575544
          ],
          [
            121.60098670783489,
            24.03930291355571
          ],
          [
            121.60098755015258,
            24.038933234090475
          ],
          [
            121.60100964601178,
            24.03852204694438
          ],
          [
            121.60111287451826,
            24.036669922580366
          ],
          [
            121.60136352547073,
            24.032694924627478
          ],
          [
            121.60150215288706,
            24.02998420922635
          ],
          [
            121.60161464193109,
            24.028662762250732
          ],
          [
            121.60174821703812,
            24.027809400128795
          ],
          [
            121.60183003204168,
            24.02740705319277
          ],
          [
            121.60223890098976,
            24.02593989525412
          ],
          [
            121.60268593762991,
            24.024600294269142
          ],
          [
            121.60290717497998,
            24.023909611960747
          ],
          [
            121.60310305105583,
            24.02322856286583
          ],
          [
            121.60325018288206,
            24.0225519750079
          ],
          [
            121.60337924398377,
            24.021878503415728
          ],
          [
            121.60377518099453,
            24.0196164490538
          ],
          [
            121.60419436339748,
            24.017228738324896
          ],
          [
            121.60440312314199,
            24.016153532023925
          ],
          [
            121.60465018153621,
            24.01484463726061
          ],
          [
            121.6048715906928,
            24.013449798403183
          ],
          [
            121.6050592999568,
            24.012429075574083
          ],
          [
            121.60577680291664,
            24.008597505270842
          ],
          [
            121.60605655228836,
            24.006697486092566
          ],
          [
            121.60622464744458,
            24.00489728518668
          ],
          [
            121.60622221387723,
            24.004642262175928
          ],
          [
            121.60619851336097,
            24.004362410122106
          ],
          [
            121.60614712613437,
            24.004034341253252
          ],
          [
            121.60608427443114,
            24.00376518340571
          ],
          [
            121.60597494971276,
            24.00331806637592
          ],
          [
            121.60585313923625,
            24.002945069980665
          ],
          [
            121.60549626112143,
            24.002186418109616
          ],
          [
            121.60511120539714,
            24.001427488490734
          ],
          [
            121.60348138771968,
            23.998046755086953
          ],
          [
            121.60231565146077,
            23.995711145718474
          ],
          [
            121.60166689512954,
            23.99434675228662
          ],
          [
            121.60142552372346,
            23.993843478914606
          ],
          [
            121.60115150272624,
            23.99331479784791
          ],
          [
            121.60023003127745,
            23.991408626006766
          ],
          [
            121.59934975155718,
            23.98964266709986
          ],
          [
            121.59616010052927,
            23.983211621302488
          ],
          [
            121.59470550169755,
            23.98030354794534
          ],
          [
            121.59396982139145,
            23.978774315108303
          ],
          [
            121.59358747840406,
            23.97800409059695
          ],
          [
            121.59321056104096,
            23.97726012315617
          ],
          [
            121.59299256409346,
            23.976829342773527
          ],
          [
            121.5927567299283,
            23.97634423558033
          ],
          [
            121.59235196074499,
            23.975454750264596
          ],
          [
            121.59224483944467,
            23.975222956104595
          ],
          [
            121.59214311583919,
            23.975008815003186
          ],
          [
            121.59195873868708,
            23.974601224543612
          ],
          [
            121.59184634493813,
            23.974435881144878
          ],
          [
            121.59174775090045,
            23.974290906390117
          ],
          [
            121.5916418831769,
            23.97416220959669
          ],
          [
            121.59152964635587,
            23.974041272306557
          ],
          [
            121.59138360761781,
            23.973886153381095
          ],
          [
            121.59114319585744,
            23.973673546765593
          ],
          [
            121.59079561706659,
            23.973382006075752
          ],
          [
            121.59022660105074,
            23.9729660754905
          ],
          [
            121.58970585698859,
            23.97262182020122
          ],
          [
            121.58817706265526,
            23.971614993313956
          ],
          [
            121.58736720217352,
            23.97106823851431
          ],
          [
            121.58644750393216,
            23.97041055468597
          ],
          [
            121.58556092555924,
            23.969766735658908
          ],
          [
            121.58517895928975,
            23.969514869415548
          ],
          [
            121.58450789926867,
            23.96905887728133
          ],
          [
            121.58255953418839,
            23.967679182510103
          ]
        ],
        "type": "LineString"
      }
    },
    {
      "type": "Feature",
      "properties": {
        "name": "四城 → 和平",
        "gap_id": "gap-01",
        "line": "宜蘭線",
        "note": "四城到和平 (中間全部重畫)",
        "stroke": "#0066ff",
        "stroke-width": 4,
        "stroke-opacity": 0.9
      },
      "geometry": {
        "coordinates": [
          [
            121.76303721934678,
            24.787045377693428
          ],
          [
            121.76155685104439,
            24.781033545903533
          ],
          [
            121.76095090126753,
            24.778474495133
          ],
          [
            121.76074860215934,
            24.777215281085184
          ],
          [
            121.76072006445386,
            24.776601244506107
          ],
          [
            121.76072528221474,
            24.776220134359406
          ],
          [
            121.76079716318355,
            24.775346143910852
          ],
          [
            121.76115259006971,
            24.773589473862483
          ],
          [
            121.76164740885727,
            24.770995592132046
          ],
          [
            121.76212347406894,
            24.768497277660973
          ],
          [
            121.76241334293923,
            24.76705984712676
          ],
          [
            121.76243428498738,
            24.76646642725931
          ],
          [
            121.7623906304232,
            24.765766918135924
          ],
          [
            121.76214529150825,
            24.764759738644273
          ],
          [
            121.76186650513301,
            24.764005654649466
          ],
          [
            121.76114169508112,
            24.762036855905023
          ],
          [
            121.76042283318284,
            24.76016620762669
          ],
          [
            121.75975001612517,
            24.758409117561314
          ],
          [
            121.75839285296688,
            24.754788975422173
          ],
          [
            121.75766897315458,
            24.752951308088925
          ],
          [
            121.75702255343944,
            24.751195706604875
          ],
          [
            121.75689156386201,
            24.75078924453354
          ],
          [
            121.75682815296486,
            24.750532799744867
          ],
          [
            121.75675723332537,
            24.75017407029554
          ],
          [
            121.75675389236628,
            24.74987671186865
          ],
          [
            121.75673553392267,
            24.749546963126424
          ],
          [
            121.7567397017057,
            24.749189938231886
          ],
          [
            121.75683063343658,
            24.7485713551697
          ],
          [
            121.7569423207496,
            24.74811401032997
          ],
          [
            121.75708134588243,
            24.747686457927188
          ],
          [
            121.75746643524501,
            24.746901452336388
          ],
          [
            121.75803933397154,
            24.745807837073322
          ],
          [
            121.7585779951153,
            24.74477640915433
          ],
          [
            121.75955260465506,
            24.742837929497874
          ],
          [
            121.76044894711703,
            24.74109845317327
          ],
          [
            121.76088676019475,
            24.74024879876385
          ],
          [
            121.76133084942991,
            24.739382251844518
          ],
          [
            121.76226229040876,
            24.737561696946365
          ],
          [
            121.76319373138762,
            24.735793937389605
          ],
          [
            121.7660449276702,
            24.730178858869188
          ],
          [
            121.76844745473622,
            24.725550454270717
          ],
          [
            121.7698204479223,
            24.722816322166395
          ],
          [
            121.77051920065045,
            24.72147708783948
          ],
          [
            121.77084406474437,
            24.720751805870563
          ],
          [
            121.77105862362271,
            24.7201712521433
          ],
          [
            121.77131977397333,
            24.719271178496825
          ],
          [
            121.77151133248478,
            24.718409033826255
          ],
          [
            121.77189444950777,
            24.716823818560833
          ],
          [
            121.77250741119943,
            24.7141244984272
          ],
          [
            121.7731378563283,
            24.71144106033806
          ],
          [
            121.77364489359633,
            24.708857744699735
          ],
          [
            121.77385339981409,
            24.707748297141322
          ],
          [
            121.77408476184914,
            24.706721903196584
          ],
          [
            121.77426366992886,
            24.70597959247764
          ],
          [
            121.77441280682228,
            24.7053678867578
          ],
          [
            121.77456194371572,
            24.704756181037958
          ],
          [
            121.77469594035256,
            24.704144475234088
          ],
          [
            121.7748602175026,
            24.703567155898195
          ],
          [
            121.77535243213892,
            24.701493427451894
          ],
          [
            121.775395459229,
            24.699448916570617
          ],
          [
            121.77534475698326,
            24.69757471411181
          ],
          [
            121.77520354970358,
            24.69327643659158
          ],
          [
            121.77490612686381,
            24.689290406438346
          ],
          [
            121.77485802875916,
            24.6861639935744
          ],
          [
            121.77478374021433,
            24.684893729489495
          ],
          [
            121.77468534659786,
            24.68292465711209
          ],
          [
            121.77464487993632,
            24.681940120892477
          ],
          [
            121.77461750849487,
            24.680729504673973
          ],
          [
            121.77458070537861,
            24.67965222801746
          ],
          [
            121.77454390226237,
            24.678798941463093
          ],
          [
            121.774488611118,
            24.676954489276365
          ],
          [
            121.77446806875452,
            24.676470380730024
          ],
          [
            121.77446207934844,
            24.6759598242283
          ],
          [
            121.77445002621005,
            24.675471307671557
          ],
          [
            121.77446222800074,
            24.675046707644384
          ],
          [
            121.77451922110188,
            24.674581874234896
          ],
          [
            121.77462468187792,
            24.674117040825404
          ],
          [
            121.77486252991605,
            24.673094395546677
          ],
          [
            121.77507814118667,
            24.672178356539323
          ],
          [
            121.77529375245729,
            24.67126231753197
          ],
          [
            121.77576378992205,
            24.669241131400035
          ],
          [
            121.77588952530937,
            24.66870767314785
          ],
          [
            121.77602400009363,
            24.668128152121447
          ],
          [
            121.77626706387223,
            24.66712809760997
          ],
          [
            121.77661135405177,
            24.665629260903998
          ],
          [
            121.7768890555175,
            24.66438256184975
          ],
          [
            121.77709739373985,
            24.663425829618337
          ],
          [
            121.77734306386759,
            24.662619678584335
          ],
          [
            121.77745341354768,
            24.662250642958664
          ],
          [
            121.77769139159551,
            24.661599205204347
          ],
          [
            121.77779230515081,
            24.661341866851906
          ],
          [
            121.7778678756159,
            24.661168977479928
          ],
          [
            121.7787966634489,
            24.65940690004375
          ],
          [
            121.77977613746229,
            24.657579566146538
          ],
          [
            121.78040040486073,
            24.656402605012936
          ],
          [
            121.78095269451458,
            24.655347129290025
          ],
          [
            121.78155639684317,
            24.654198201965798
          ],
          [
            121.78217038170666,
            24.653067963224338
          ],
          [
            121.78321067938849,
            24.65108627744579
          ],
          [
            121.78425768995703,
            24.649159501604643
          ],
          [
            121.78535654558773,
            24.64726105567669
          ],
          [
            121.78587555025382,
            24.64628418109237
          ],
          [
            121.78633979325107,
            24.64536813993933
          ],
          [
            121.78749836031234,
            24.64317212270553
          ],
          [
            121.78805078642083,
            24.642249061335875
          ],
          [
            121.78856740263359,
            24.641399234416262
          ],
          [
            121.78952995099084,
            24.64003094360684
          ],
          [
            121.79049249934808,
            24.638662652797414
          ],
          [
            121.7908421157361,
            24.638230392525923
          ],
          [
            121.7911917321241,
            24.63779813225443
          ],
          [
            121.79189096490012,
            24.63693361171145
          ],
          [
            121.79246332625489,
            24.6363647875774
          ],
          [
            121.79303568760966,
            24.63579596344335
          ],
          [
            121.79749238977124,
            24.63122194937054
          ],
          [
            121.79972074085202,
            24.62893494233414
          ],
          [
            121.80194909193283,
            24.626647935297736
          ],
          [
            121.80470727495342,
            24.62370511600573
          ],
          [
            121.80561144027988,
            24.62251116781828
          ],
          [
            121.80651560560632,
            24.621317219630832
          ],
          [
            121.80725853496924,
            24.620261475484654
          ],
          [
            121.80800146433216,
            24.619205731338475
          ],
          [
            121.80833785618228,
            24.618767284797947
          ],
          [
            121.80867424803239,
            24.618328838257423
          ],
          [
            121.80896385674134,
            24.61801222358057
          ],
          [
            121.8092534654503,
            24.617695608903716
          ],
          [
            121.80939329029951,
            24.617571708782858
          ],
          [
            121.80953311514872,
            24.617447808662
          ],
          [
            121.80969004093691,
            24.617320021885323
          ],
          [
            121.80984696672512,
            24.617192235108647
          ],
          [
            121.81008905860733,
            24.61701124196109
          ],
          [
            121.81033115048956,
            24.616830248813535
          ],
          [
            121.81050154630708,
            24.616714933483138
          ],
          [
            121.81067194212459,
            24.61659961815274
          ],
          [
            121.81076029002546,
            24.616546733329848
          ],
          [
            121.81084863792631,
            24.616493848506956
          ],
          [
            121.81102533372805,
            24.616388078861167
          ],
          [
            121.81143791381872,
            24.616173808609886
          ],
          [
            121.81190699585198,
            24.615949264966545
          ],
          [
            121.8123873782737,
            24.61575040479701
          ],
          [
            121.81289036147243,
            24.615592638328486
          ],
          [
            121.8137255921796,
            24.615375038374026
          ],
          [
            121.81462744419869,
            24.615218005408643
          ],
          [
            121.81550229535634,
            24.615168946048144
          ],
          [
            121.8165052644217,
            24.61517113582531
          ],
          [
            121.81909175234938,
            24.615466311185642
          ],
          [
            121.82022688655539,
            24.615634208330633
          ],
          [
            121.82135629558526,
            24.615776080989033
          ],
          [
            121.82173046650641,
            24.61580633139159
          ],
          [
            121.82213537990688,
            24.615805527746907
          ],
          [
            121.82239970706036,
            24.615783628203964
          ],
          [
            121.82265037088959,
            24.61574930704051
          ],
          [
            121.82290786638092,
            24.615685484503338
          ],
          [
            121.8231721935343,
            24.61560302952062
          ],
          [
            121.82357222970094,
            24.615412362129828
          ],
          [
            121.82381533498815,
            24.61526806392125
          ],
          [
            121.82405844027535,
            24.615065008215907
          ],
          [
            121.82426691112502,
            24.614886737572395
          ],
          [
            121.82448615377561,
            24.614639916313372
          ],
          [
            121.82477786565254,
            24.614246156584684
          ],
          [
            121.82508717781315,
            24.61378305918537
          ],
          [
            121.82535139549498,
            24.61341387544048
          ],
          [
            121.8256156131768,
            24.61296014468354
          ],
          [
            121.82580233483438,
            24.61259493140422
          ],
          [
            121.82593222509936,
            24.612304871494423
          ],
          [
            121.82609053106066,
            24.611920869666815
          ],
          [
            121.82623333755126,
            24.611579141839385
          ],
          [
            121.82666071718921,
            24.610601123903514
          ],
          [
            121.82689765621424,
            24.61010272041659
          ],
          [
            121.82712167901376,
            24.609684168914864
          ],
          [
            121.82782497039304,
            24.608742460136504
          ],
          [
            121.82818953230829,
            24.608299789003333
          ],
          [
            121.82855667746867,
            24.607847723120763
          ],
          [
            121.82985240386678,
            24.60629497398001
          ],
          [
            121.83050026706584,
            24.605495112313477
          ],
          [
            121.83088772289943,
            24.604962728941757
          ],
          [
            121.83126748115941,
            24.604531824700956
          ],
          [
            121.8316189554223,
            24.604074713606966
          ],
          [
            121.83199737119217,
            24.603530118913547
          ],
          [
            121.83207027738266,
            24.60342612972156
          ],
          [
            121.83214694266502,
            24.60329821586714
          ],
          [
            121.83226644140237,
            24.603069730632672
          ],
          [
            121.83243544315769,
            24.602679329740084
          ],
          [
            121.83251349129026,
            24.60244676317161
          ],
          [
            121.83257812973585,
            24.602238581268317
          ],
          [
            121.83264053323359,
            24.60200703062634
          ],
          [
            121.83268058725281,
            24.601812057106518
          ],
          [
            121.8327222406187,
            24.60147884746671
          ],
          [
            121.83276389398456,
            24.601199515818585
          ],
          [
            121.83277591883282,
            24.600742386164416
          ],
          [
            121.83275238946001,
            24.600446891419253
          ],
          [
            121.83272104295753,
            24.60012771822403
          ],
          [
            121.8326695026537,
            24.59986362776435
          ],
          [
            121.83257315331309,
            24.599415011061282
          ],
          [
            121.83241958820199,
            24.598975575024113
          ],
          [
            121.83227275435804,
            24.598578981512635
          ],
          [
            121.83214204020447,
            24.598199573929385
          ],
          [
            121.83201132605092,
            24.597820166346132
          ],
          [
            121.83192479527098,
            24.597445674842398
          ],
          [
            121.83189211462812,
            24.59716911030062
          ],
          [
            121.83189071992282,
            24.596772178445967
          ],
          [
            121.83190397265214,
            24.596518037803005
          ],
          [
            121.83191439470932,
            24.596390967471038
          ],
          [
            121.83192987768979,
            24.596284604819232
          ],
          [
            121.83194798882522,
            24.596116119935065
          ],
          [
            121.83199302502912,
            24.595941514549516
          ],
          [
            121.83204910707641,
            24.595747115322503
          ],
          [
            121.83211865165788,
            24.595589439205533
          ],
          [
            121.83227793462225,
            24.595286328070536
          ],
          [
            121.83250675696021,
            24.594890455737943
          ],
          [
            121.83281719822354,
            24.59449458340535
          ],
          [
            121.83310431979396,
            24.59421003227812
          ],
          [
            121.83344974059665,
            24.593883072977423
          ],
          [
            121.83485766276046,
            24.592555922440177
          ],
          [
            121.83623643530808,
            24.591249978808023
          ],
          [
            121.83845931207098,
            24.58915869502191
          ],
          [
            121.83912958117548,
            24.588622235757043
          ],
          [
            121.83971264816708,
            24.58808577649218
          ],
          [
            121.84037201700748,
            24.587489846288687
          ],
          [
            121.84116218901744,
            24.586755149395493
          ],
          [
            121.8416363019378,
            24.586266379681554
          ],
          [
            121.84202321274523,
            24.585837081981747
          ],
          [
            121.84256272724849,
            24.58514015985571
          ],
          [
            121.84290878635093,
            24.584662841665214
          ],
          [
            121.84334204756651,
            24.584106226448526
          ],
          [
            121.84355823321943,
            24.583790163812807
          ],
          [
            121.84372615664205,
            24.583474101177092
          ],
          [
            121.84390905592642,
            24.583125158766485
          ],
          [
            121.84413056499507,
            24.582662108385072
          ],
          [
            121.84435207406372,
            24.58220344657341
          ],
          [
            121.84457358313236,
            24.581744784761746
          ],
          [
            121.84480900907933,
            24.58116894655961
          ],
          [
            121.84500232949068,
            24.580516529108394
          ],
          [
            121.8453289840979,
            24.57927061734211
          ],
          [
            121.84558546281245,
            24.578114049387306
          ],
          [
            121.84562040972685,
            24.57776355213643
          ],
          [
            121.84564692835897,
            24.577336408274583
          ],
          [
            121.84565647908173,
            24.576989241891884
          ],
          [
            121.84566131011546,
            24.576646367550254
          ],
          [
            121.84559922043871,
            24.57572480489082
          ],
          [
            121.8455088126282,
            24.574820410805096
          ],
          [
            121.84547163245426,
            24.57429419689523
          ],
          [
            121.84544389165835,
            24.573810904904686
          ],
          [
            121.84538311303959,
            24.573143048781404
          ],
          [
            121.84535390015019,
            24.572819994307654
          ],
          [
            121.84532912528536,
            24.57251510222971
          ],
          [
            121.8453057158642,
            24.572265912482738
          ],
          [
            121.84528896347996,
            24.572038921317827
          ],
          [
            121.84516105190686,
            24.570659223215753
          ],
          [
            121.84503762865731,
            24.56995807660371
          ],
          [
            121.84481664954521,
            24.56929625037391
          ],
          [
            121.84447126855159,
            24.56858180704309
          ],
          [
            121.84420127068026,
            24.567996862607473
          ],
          [
            121.84384960775986,
            24.56734702909216
          ],
          [
            121.84353982435177,
            24.566735283866894
          ],
          [
            121.84317350360206,
            24.565967374946126
          ],
          [
            121.84295794909673,
            24.565458469128153
          ],
          [
            121.84253294485174,
            24.56433866776475
          ],
          [
            121.84201936370107,
            24.562919642409273
          ],
          [
            121.84099220139971,
            24.559770851769315
          ],
          [
            121.83981333301588,
            24.555573711322953
          ],
          [
            121.8381759924923,
            24.549464071992524
          ],
          [
            121.83626332605337,
            24.54067917856506
          ],
          [
            121.83470395518815,
            24.536689375215055
          ],
          [
            121.8334105657508,
            24.534425809553827
          ],
          [
            121.83187868855234,
            24.53280801977077
          ],
          [
            121.83101625529733,
            24.53016186982691
          ],
          [
            121.83072816203594,
            24.52892787549002
          ],
          [
            121.83044006877455,
            24.527693881153134
          ],
          [
            121.83028272409638,
            24.526228839479945
          ],
          [
            121.83016301210594,
            24.524729560261306
          ],
          [
            121.8300653265515,
            24.522809462695704
          ],
          [
            121.83000527368486,
            24.52093338481902
          ],
          [
            121.83010551196874,
            24.519142539122846
          ],
          [
            121.8307324231397,
            24.51756950179294
          ],
          [
            121.83248225932724,
            24.514332573339992
          ],
          [
            121.83328535839095,
            24.51258341629945
          ],
          [
            121.83360966392097,
            24.511226334982393
          ],
          [
            121.83397099886085,
            24.508632110714984
          ],
          [
            121.83409293703383,
            24.506212147863195
          ],
          [
            121.83436551101039,
            24.49999029645654
          ],
          [
            121.83443365450458,
            24.49765636347756
          ],
          [
            121.83438172029923,
            24.4956502342824
          ],
          [
            121.83398051038581,
            24.493308621279983
          ],
          [
            121.83321906737413,
            24.491349459551955
          ],
          [
            121.82467163592612,
            24.482349880874132
          ],
          [
            121.82370948679215,
            24.480606480421255
          ],
          [
            121.82310757075905,
            24.478644513989266
          ],
          [
            121.82298443798763,
            24.47592270511574
          ],
          [
            121.8232680949879,
            24.474274926637754
          ],
          [
            121.8236718296876,
            24.47240857127155
          ],
          [
            121.82380538956343,
            24.470842761015444
          ],
          [
            121.82333856094215,
            24.46938624231089
          ],
          [
            121.81950454779522,
            24.46672688989949
          ],
          [
            121.81617213006922,
            24.464866504324046
          ],
          [
            121.81403958446433,
            24.463653623531044
          ],
          [
            121.81203846719588,
            24.462680001135794
          ],
          [
            121.81103790856059,
            24.462324781942748
          ],
          [
            121.81008992125805,
            24.462137045400414
          ],
          [
            121.8089973627903,
            24.462021087286956
          ],
          [
            121.80790480432253,
            24.46200083378634
          ],
          [
            121.80617468329729,
            24.46220060349469
          ],
          [
            121.80454970493763,
            24.462448225440497
          ],
          [
            121.80137860521768,
            24.46301524742136
          ],
          [
            121.79596323695192,
            24.463903398349284
          ],
          [
            121.79426557487974,
            24.464163247533016
          ],
          [
            121.79313240672784,
            24.46431359538066
          ],
          [
            121.7926537356395,
            24.46436981714181
          ],
          [
            121.79180490460337,
            24.464383923073946
          ],
          [
            121.79097458156451,
            24.46430958573117
          ],
          [
            121.7903478464971,
            24.464193132541013
          ],
          [
            121.789695755455,
            24.464037348386796
          ],
          [
            121.78915703728565,
            24.46386682217492
          ],
          [
            121.78812009125863,
            24.463555253888174
          ],
          [
            121.7862324546387,
            24.462968972633046
          ],
          [
            121.782484495169,
            24.46177737839721
          ],
          [
            121.78172089886485,
            24.461286066628503
          ],
          [
            121.78093366602253,
            24.4607086951333
          ],
          [
            121.78022916106084,
            24.46010980844764
          ],
          [
            121.77959556570548,
            24.45948940648793
          ],
          [
            121.7789745594257,
            24.4588874797586
          ],
          [
            121.77847173582676,
            24.45826403766651
          ],
          [
            121.77786254781509,
            24.457468471266026
          ],
          [
            121.77748972516503,
            24.45684502956891
          ],
          [
            121.77686290497955,
            24.45569876721276
          ],
          [
            121.77637790401118,
            24.45470311608712
          ],
          [
            121.77595812950567,
            24.454076194549458
          ],
          [
            121.77570381075344,
            24.453384724492807
          ],
          [
            121.77561701437315,
            24.452623387590233
          ],
          [
            121.77557407549584,
            24.451901974335733
          ],
          [
            121.77560276614841,
            24.450311022060518
          ],
          [
            121.77582809789695,
            24.448636786336156
          ],
          [
            121.77607835144539,
            24.44741335995066
          ],
          [
            121.77674219435241,
            24.446001679856174
          ],
          [
            121.77844211058938,
            24.443479526833286
          ],
          [
            121.78031336318918,
            24.44022398149477
          ],
          [
            121.78104644987582,
            24.43678558113134
          ],
          [
            121.78167293744278,
            24.435566592199937
          ],
          [
            121.7827570764843,
            24.43448648935494
          ],
          [
            121.78451498019658,
            24.433869344214454
          ],
          [
            121.78535579442989,
            24.433583919917012
          ],
          [
            121.78599320800788,
            24.43311331111179
          ],
          [
            121.78852458335359,
            24.428885485325356
          ],
          [
            121.78921421995506,
            24.42566142558566
          ],
          [
            121.78980877752863,
            24.423075319866154
          ],
          [
            121.78984398330005,
            24.420882763400876
          ],
          [
            121.78974570739248,
            24.41851076979757
          ],
          [
            121.78941860574764,
            24.41662494262275
          ],
          [
            121.78836444998751,
            24.408850115062698
          ],
          [
            121.784994064785,
            24.395054300634083
          ],
          [
            121.78396664487451,
            24.37958455356128
          ],
          [
            121.78292283172865,
            24.372516657176114
          ],
          [
            121.78254876861834,
            24.36996957449262
          ],
          [
            121.78220702260056,
            24.367834614531752
          ],
          [
            121.7813457865559,
            24.36572838190464
          ],
          [
            121.78020408345809,
            24.36332556508442
          ],
          [
            121.77846995939981,
            24.35995569825613
          ],
          [
            121.77714409850316,
            24.357292748126724
          ],
          [
            121.77600274837577,
            24.354920126094914
          ],
          [
            121.77433313591735,
            24.35051953526311
          ],
          [
            121.77252823582054,
            24.346539539456728
          ],
          [
            121.77202775478557,
            24.344975634065058
          ],
          [
            121.77143100783881,
            24.343078445947906
          ],
          [
            121.77012540623281,
            24.339403651246883
          ],
          [
            121.76890601887067,
            24.33594487310176
          ],
          [
            121.76790081434314,
            24.33324319025168
          ],
          [
            121.76674780147006,
            24.330137474053608
          ],
          [
            121.76625575694524,
            24.32879625471143
          ],
          [
            121.76576371242041,
            24.32758971775054
          ],
          [
            121.76501828216055,
            24.32612824284185
          ],
          [
            121.76433619833435,
            24.32493613830868
          ],
          [
            121.76390222969289,
            24.324065875191934
          ],
          [
            121.76356464027853,
            24.32323074154284
          ],
          [
            121.76296656483142,
            24.32150777992942
          ],
          [
            121.76171258640119,
            24.317728119621087
          ],
          [
            121.76010224112983,
            24.313253723362873
          ],
          [
            121.75881958523087,
            24.309481975281116
          ],
          [
            121.75774936972051,
            24.306348851724422
          ],
          [
            121.75677553343738,
            24.303672474502306
          ],
          [
            121.75545473193645,
            24.299643363365874
          ],
          [
            121.75497263275449,
            24.298397397216235
          ],
          [
            121.75458691280305,
            24.29732711391964
          ]
        ],
        "type": "LineString"
      }
    },
    {
      "type": "Feature",
      "properties": {
        "name": "四城 → 大溪",
        "gap_id": "gap-15",
        "line": "宜蘭線",
        "note": "四城→頂埔→頭城→外澳→龜山→大溪",
        "stroke": "#0066ff",
        "stroke-width": 4,
        "stroke-opacity": 0.9
      },
      "geometry": {
        "coordinates": [
          [
            121.76292396668376,
            24.78659955715383
          ],
          [
            121.76309433302659,
            24.78738525502908
          ],
          [
            121.76333602159843,
            24.788235704191244
          ],
          [
            121.76354799257345,
            24.789132017218204
          ],
          [
            121.7638193987387,
            24.790157830958734
          ],
          [
            121.76466728264211,
            24.793656744831374
          ],
          [
            121.76531743265922,
            24.79640236583411
          ],
          [
            121.7660870340587,
            24.799545593947627
          ],
          [
            121.7669898281905,
            24.80318079633238
          ],
          [
            121.76856609909204,
            24.80955780118851
          ],
          [
            121.76893236692194,
            24.811045641046043
          ],
          [
            121.76932836395184,
            24.81274936028844
          ],
          [
            121.76961139002917,
            24.81392957576496
          ],
          [
            121.76990036194658,
            24.81516376343923
          ],
          [
            121.77010906502771,
            24.816039065417947
          ],
          [
            121.77028803891272,
            24.816795635802148
          ],
          [
            121.77041022797235,
            24.817227889011242
          ],
          [
            121.77055620039188,
            24.817800457644736
          ],
          [
            121.77071406448789,
            24.818578101056627
          ],
          [
            121.77090760362361,
            24.819312570948604
          ],
          [
            121.77110144486258,
            24.820173581012263
          ],
          [
            121.77133120432941,
            24.821051104827255
          ],
          [
            121.77149551707222,
            24.821592171256135
          ],
          [
            121.7716118849043,
            24.821959907784915
          ],
          [
            121.77174146664677,
            24.82230443049834
          ],
          [
            121.77187699820679,
            24.822532850294373
          ],
          [
            121.77227203692769,
            24.82319365121628
          ],
          [
            121.77303218976465,
            24.824072896850197
          ],
          [
            121.77378241515498,
            24.8249567487998
          ],
          [
            121.77533629568131,
            24.826735639363044
          ],
          [
            121.7758799821541,
            24.827391972325394
          ],
          [
            121.77640996430817,
            24.82801099081634
          ],
          [
            121.77733288542638,
            24.829083191136917
          ],
          [
            121.7776618708987,
            24.8294451661932
          ],
          [
            121.7781187633504,
            24.829972974751705
          ],
          [
            121.77861676876103,
            24.830562970214615
          ],
          [
            121.77911477417166,
            24.83115296567752
          ],
          [
            121.77949293676393,
            24.831602312958438
          ],
          [
            121.77990585527462,
            24.832158647539043
          ],
          [
            121.78042840833777,
            24.832781314072427
          ],
          [
            121.78102127193118,
            24.83345843267114
          ],
          [
            121.78130856751449,
            24.83380113775892
          ],
          [
            121.78170549765309,
            24.834210173928213
          ],
          [
            121.78185772936243,
            24.834355248584124
          ],
          [
            121.78205797726963,
            24.834508493684254
          ],
          [
            121.78245847308052,
            24.834804089868413
          ],
          [
            121.78286497091622,
            24.83505066324318
          ],
          [
            121.78329247583846,
            24.835253660973166
          ],
          [
            121.78431317302868,
            24.835610895137464
          ],
          [
            121.7847989328269,
            24.835716416991907
          ],
          [
            121.78533871084795,
            24.83580015111775
          ],
          [
            121.78721364139639,
            24.835984863970246
          ],
          [
            121.78945690186657,
            24.83624581243444
          ],
          [
            121.79341573743,
            24.83664366574415
          ],
          [
            121.79859450972577,
            24.83720098086971
          ],
          [
            121.79933534131075,
            24.837337906336963
          ],
          [
            121.80008493498485,
            24.837586154589516
          ],
          [
            121.8006619624357,
            24.837815152072487
          ],
          [
            121.80124210491442,
            24.838131782696404
          ],
          [
            121.80273312028235,
            24.839230670190368
          ],
          [
            121.80374246070349,
            24.840017330298465
          ],
          [
            121.80511879156015,
            24.841026015664436
          ],
          [
            121.80716251820272,
            24.842594512667773
          ],
          [
            121.8089082655974,
            24.843902260993154
          ],
          [
            121.81107172387419,
            24.845526174937945
          ],
          [
            121.81314989968689,
            24.84711139425263
          ],
          [
            121.81723802534293,
            24.850158012366773
          ],
          [
            121.8180974863059,
            24.850867228593607
          ],
          [
            121.81880494622386,
            24.85159368476444
          ],
          [
            121.81920840404592,
            24.852308646903246
          ],
          [
            121.8196245286226,
            24.853127052643202
          ],
          [
            121.8208722970623,
            24.85575918990719
          ],
          [
            121.82233540031682,
            24.858943010636917
          ],
          [
            121.82291586043817,
            24.860085155300865
          ],
          [
            121.82353432081968,
            24.86145716015094
          ],
          [
            121.82402611366365,
            24.86250161629377
          ],
          [
            121.82431634372524,
            24.86301235162342
          ],
          [
            121.82465724080183,
            24.8635460724366
          ],
          [
            121.82511853176902,
            24.86407494661527
          ],
          [
            121.82570649027579,
            24.86462680608241
          ],
          [
            121.82828208359373,
            24.866603956461105
          ],
          [
            121.8294900405371,
            24.867556749289893
          ],
          [
            121.83129333491365,
            24.8689462500111
          ],
          [
            121.83429825285421,
            24.871231080702156
          ],
          [
            121.83506178040307,
            24.871885483268194
          ],
          [
            121.83586330821228,
            24.872723756453233
          ],
          [
            121.8373016960326,
            24.874371571921067
          ],
          [
            121.83829077658825,
            24.875591802938864
          ],
          [
            121.83934319091364,
            24.87681203395666
          ],
          [
            121.84135894685537,
            24.879217165478515
          ],
          [
            121.84319225015818,
            24.88141134719374
          ],
          [
            121.84547540031528,
            24.883689961789322
          ],
          [
            121.84648130569394,
            24.884702647400164
          ],
          [
            121.84693820540384,
            24.885268871016983
          ],
          [
            121.84732142034804,
            24.885871301328407
          ],
          [
            121.8475992655719,
            24.88639951542153
          ],
          [
            121.8478218472211,
            24.88699178717273
          ],
          [
            121.8482594270465,
            24.888374880507207
          ],
          [
            121.84860023067057,
            24.88953511983861
          ],
          [
            121.8490750334033,
            24.890533286775096
          ],
          [
            121.84976678708101,
            24.891380959454054
          ],
          [
            121.85012542573881,
            24.89171797318346
          ],
          [
            121.8505478734977,
            24.892043410603055
          ],
          [
            121.85138457376003,
            24.892582769721685
          ],
          [
            121.85244234473694,
            24.893058728113004
          ],
          [
            121.85536893706585,
            24.894421771388174
          ],
          [
            121.85645873884374,
            24.89515731259654
          ],
          [
            121.85706327578988,
            24.895719823884406
          ],
          [
            121.85750083177683,
            24.896347248420696
          ],
          [
            121.85822421332911,
            24.897782462227575
          ],
          [
            121.85873290507726,
            24.899369137771515
          ],
          [
            121.85940261417939,
            24.90102612990883
          ],
          [
            121.85980903199791,
            24.901724804782937
          ],
          [
            121.86033472193068,
            24.90238020623394
          ],
          [
            121.8611383023981,
            24.9030639381251
          ],
          [
            121.86213271824548,
            24.903661124115736
          ],
          [
            121.86327026063304,
            24.904052764021284
          ],
          [
            121.86447936628632,
            24.90420640454532
          ],
          [
            121.86872581797547,
            24.905064823949253
          ],
          [
            121.86941515837198,
            24.905438040286832
          ],
          [
            121.8700509042956,
            24.905835561828034
          ],
          [
            121.8708474336295,
            24.90635157168183
          ],
          [
            121.87167076019581,
            24.906916191574247
          ],
          [
            121.87286048354517,
            24.90780143985793
          ],
          [
            121.8740742505373,
            24.908940017294555
          ],
          [
            121.8751805697978,
            24.910031761658495
          ],
          [
            121.87619113834066,
            24.911074418774877
          ],
          [
            121.8766396918083,
            24.911682863177234
          ],
          [
            121.8770799191274,
            24.912325289248052
          ],
          [
            121.87827883142201,
            24.914112840427023
          ],
          [
            121.87904886043555,
            24.9148115311064
          ],
          [
            121.88090157842106,
            24.9161603235478
          ],
          [
            121.88165454189641,
            24.916838076908647
          ],
          [
            121.88219168860991,
            24.9177115587717
          ],
          [
            121.88258046130159,
            24.918450477689618
          ],
          [
            121.88275341723539,
            24.91923832810171
          ],
          [
            121.88285349290919,
            24.92089104550098
          ],
          [
            121.88298366148769,
            24.925098809152676
          ],
          [
            121.88296043091071,
            24.927121841213967
          ],
          [
            121.88293720033374,
            24.929144873275256
          ],
          [
            121.88309210860814,
            24.9311804370624
          ],
          [
            121.88364924818171,
            24.93335278171856
          ],
          [
            121.88983,
            24.93836
          ]
        ],
        "type": "LineString"
      }
    },
    {
      "type": "Feature",
      "properties": {
        "name": "大里 → 大溪",
        "gap_id": "gap-02",
        "line": "宜蘭線",
        "note": "大里到大溪",
        "stroke": "#0066ff",
        "stroke-width": 4,
        "stroke-opacity": 0.9
      },
      "geometry": {
        "coordinates": [
          [
            121.92281880994847,
            24.966777067127243
          ],
          [
            121.92220342296699,
            24.966145225069646
          ],
          [
            121.92160204211729,
            24.96540746962222
          ],
          [
            121.92086302494918,
            24.96395707996784
          ],
          [
            121.9201456100707,
            24.962145642616058
          ],
          [
            121.9193653181463,
            24.960915125846384
          ],
          [
            121.9183033211425,
            24.95958787436998
          ],
          [
            121.91749665026921,
            24.95801678390082
          ],
          [
            121.91612787683935,
            24.955025431668524
          ],
          [
            121.91544032761712,
            24.954172376462836
          ],
          [
            121.91453069790344,
            24.953367810111143
          ],
          [
            121.91379353998026,
            24.95299210226024
          ],
          [
            121.9132004863695,
            24.952738206348293
          ],
          [
            121.91113344932876,
            24.952025996659955
          ],
          [
            121.90900113602348,
            24.95114805429322
          ],
          [
            121.90751887421851,
            24.949853977554667
          ],
          [
            121.90608837690372,
            24.948680676382534
          ],
          [
            121.90288342911447,
            24.946572408512758
          ],
          [
            121.90072642076034,
            24.945118437419822
          ],
          [
            121.89829686806647,
            24.943695684748498
          ],
          [
            121.89620832506674,
            24.942799053816312
          ],
          [
            121.89521366064596,
            24.942292749997833
          ],
          [
            121.89441216923629,
            24.94184800833696
          ],
          [
            121.89197946872437,
            24.940131213414055
          ],
          [
            121.88662922482453,
            24.936226993649846
          ],
          [
            121.88463917695452,
            24.934722154028606
          ],
          [
            121.88402779450485,
            24.933845490011613
          ],
          [
            121.88363563576301,
            24.93321731440737
          ]
        ],
        "type": "LineString"
      }
    },
    {
      "type": "Feature",
      "properties": {
        "name": "臺北 → 松山",
        "gap_id": "gap-10",
        "line": "縱貫線",
        "note": "台北到松山",
        "stroke": "#0066ff",
        "stroke-width": 4,
        "stroke-opacity": 0.9
      },
      "geometry": {
        "coordinates": [
          [
            121.51712529630794,
            25.04793707973915
          ],
          [
            121.57906,
            25.04927
          ]
        ],
        "type": "LineString"
      }
    },
    {
      "type": "Feature",
      "properties": {
        "name": "南港 → 汐科",
        "gap_id": "gap-11",
        "line": "縱貫線",
        "note": "南港到汐科 (移除重複線)",
        "stroke": "#0066ff",
        "stroke-width": 4,
        "stroke-opacity": 0.9
      },
      "geometry": {
        "coordinates": [
          [
            121.60706,
            25.05348
          ],
          [
            121.61717953512488,
            25.05451786459121
          ],
          [
            121.62312100319849,
            25.05447244005732
          ],
          [
            121.6263692339686,
            25.053454109890374
          ],
          [
            121.62947126060735,
            25.053425365838283
          ],
          [
            121.63213618328423,
            25.054242879491
          ],
          [
            121.63404914052828,
            25.05479545528868
          ],
          [
            121.63600720896133,
            25.055497105581075
          ],
          [
            121.63732531503743,
            25.056580465861686
          ],
          [
            121.63843728453205,
            25.057929785488692
          ],
          [
            121.64011005431234,
            25.05967835077474
          ],
          [
            121.64136034869172,
            25.0603637538885
          ],
          [
            121.64289374543117,
            25.06104248902193
          ],
          [
            121.64662405227367,
            25.06249207315618
          ],
          [
            121.64763760748471,
            25.062633240518117
          ],
          [
            121.64877314533626,
            25.06286011839194
          ],
          [
            121.64987514886562,
            25.06297980681928
          ],
          [
            121.65172795920276,
            25.063627044134353
          ],
          [
            121.65606743697825,
            25.065257956527866
          ],
          [
            121.65841846283452,
            25.06613576180477
          ],
          [
            121.65935600424893,
            25.066573585145207
          ],
          [
            121.66015932254123,
            25.067102843424735
          ],
          [
            121.66062510167527,
            25.067453552652363
          ],
          [
            121.66142388402669,
            25.068092574631386
          ],
          [
            121.66279767762771,
            25.06931287524445
          ],
          [
            121.66473677845028,
            25.070990857392918
          ],
          [
            121.66528381009496,
            25.071917374000726
          ],
          [
            121.66542110959583,
            25.07237393998045
          ],
          [
            121.665476859538,
            25.07295123327551
          ],
          [
            121.66562364260042,
            25.075000754062387
          ],
          [
            121.66583196190626,
            25.075825651000162
          ],
          [
            121.66629293709028,
            25.076633190175478
          ],
          [
            121.66686421607582,
            25.077286688352014
          ],
          [
            121.66756531974526,
            25.07803139630805
          ]
        ],
        "type": "LineString"
      }
    },
    {
      "type": "Feature",
      "properties": {
        "name": "五堵 → 七堵",
        "gap_id": "gap-12",
        "line": "縱貫線",
        "note": "五堵到七堵",
        "stroke": "#0066ff",
        "stroke-width": 4,
        "stroke-opacity": 0.9
      },
      "geometry": {
        "coordinates": [
          [
            121.66758,
            25.07799
          ],
          [
            121.67419876739078,
            25.082003567156104
          ],
          [
            121.6751149704896,
            25.08230511849854
          ],
          [
            121.6762413450271,
            25.082386244047427
          ],
          [
            121.67734751499691,
            25.082378574536826
          ],
          [
            121.67885990696902,
            25.08220001560727
          ],
          [
            121.68012754179037,
            25.081703322202543
          ],
          [
            121.6809501103739,
            25.081358115773998
          ],
          [
            121.6817682205851,
            25.08118281166204
          ],
          [
            121.68807567613473,
            25.079029350987604
          ],
          [
            121.69004983744796,
            25.07819336777839
          ],
          [
            121.69105144959221,
            25.077873550993267
          ],
          [
            121.69193872350397,
            25.077687242735998
          ],
          [
            121.6931392308338,
            25.077720998965894
          ],
          [
            121.69445477230485,
            25.078102870816586
          ],
          [
            121.69596955352876,
            25.078637468455316
          ],
          [
            121.69845778607649,
            25.07919254790731
          ],
          [
            121.70002138737783,
            25.079471436016927
          ],
          [
            121.70181826719384,
            25.080234177077763
          ],
          [
            121.70315304674358,
            25.08161678094301
          ],
          [
            121.70439890487967,
            25.083121518872264
          ],
          [
            121.70511945457964,
            25.084033859430058
          ],
          [
            121.70552353708311,
            25.085194391107727
          ],
          [
            121.7057122762582,
            25.08649289909142
          ],
          [
            121.70606187852995,
            25.087825996938363
          ],
          [
            121.7066449838805,
            25.088564741757246
          ],
          [
            121.7074877756074,
            25.089320385892066
          ],
          [
            121.71130204619557,
            25.09133391884873
          ],
          [
            121.71471745731566,
            25.093439693644804
          ],
          [
            121.71912834906541,
            25.09685929505268
          ],
          [
            121.72008279235934,
            25.097686965400076
          ],
          [
            121.72122086499674,
            25.098410703115483
          ],
          [
            121.72379540795123,
            25.100253120581126
          ],
          [
            121.72418599769371,
            25.100596361466337
          ],
          [
            121.7246426476016,
            25.10115894854944
          ],
          [
            121.72515958641195,
            25.102822513387338
          ],
          [
            121.72608984077735,
            25.105902725110965
          ],
          [
            121.72649398361774,
            25.106742585174473
          ],
          [
            121.72675429371483,
            25.107067589992397
          ],
          [
            121.72710778569984,
            25.107413689236367
          ],
          [
            121.72786136061029,
            25.10801096328258
          ],
          [
            121.72873141287782,
            25.10856604879511
          ]
        ],
        "type": "LineString"
      }
    },
    {
      "type": "Feature",
      "properties": {
        "name": "三坑 → 基隆",
        "gap_id": "gap-14",
        "line": "基隆支線",
        "note": "三坑到基隆",
        "stroke": "#0066ff",
        "stroke-width": 4,
        "stroke-opacity": 0.9
      },
      "geometry": {
        "coordinates": [
          [
            121.74202,
            25.12305
          ],
          [
            121.7419311894693,
            25.123643639473094
          ],
          [
            121.7417800003335,
            25.124251398237753
          ],
          [
            121.74148845933503,
            25.12489445489178
          ],
          [
            121.7410565664741,
            25.125481034929425
          ],
          [
            121.74058791663869,
            25.12592804374936
          ],
          [
            121.73997651325908,
            25.126328054123036
          ],
          [
            121.73933915469016,
            25.126716314990226
          ],
          [
            121.73902047540571,
            25.12691044542382
          ],
          [
            121.73870179612125,
            25.127104575857416
          ],
          [
            121.7384053907949,
            25.127359125237717
          ],
          [
            121.73813157082725,
            25.127647754655168
          ],
          [
            121.73778712062219,
            25.128131910832764
          ],
          [
            121.73760957186784,
            25.128630308201984
          ],
          [
            121.73753090959507,
            25.128901152518342
          ],
          [
            121.73749770763484,
            25.12920286511509
          ],
          [
            121.73750801799332,
            25.129775421909503
          ],
          [
            121.73762246705192,
            25.130354946754572
          ],
          [
            121.7378569691467,
            25.130914641806783
          ],
          [
            121.73923655800141,
            25.133096311096633
          ]
        ],
        "type": "LineString"
      }
    },
    {
      "type": "Feature",
      "properties": {
        "name": "清水 → 臺中港",
        "gap_id": "gap-09",
        "line": "海線",
        "note": "清水到台中港",
        "stroke": "#0066ff",
        "stroke-width": 4,
        "stroke-opacity": 0.9
      },
      "geometry": {
        "coordinates": [
          [
            120.56883682045348,
            24.26347411870312
          ],
          [
            120.57106112913013,
            24.268680372685736
          ],
          [
            120.5721762956864,
            24.271135441034264
          ],
          [
            120.57277356123514,
            24.272319564854648
          ],
          [
            120.57323885954389,
            24.272839277913775
          ],
          [
            120.57357468260066,
            24.273149778340763
          ],
          [
            120.57392637856643,
            24.273373460687402
          ],
          [
            120.57441636169231,
            24.273683417697086
          ],
          [
            120.57544602369643,
            24.273993374706766
          ],
          [
            120.57614339314242,
            24.274081431503333
          ],
          [
            120.57660266896552,
            24.274111609989383
          ],
          [
            120.57799740785774,
            24.27415749741226
          ],
          [
            120.58029482548682,
            24.274205864989067
          ],
          [
            120.58153877175143,
            24.27436750950868
          ],
          [
            120.58208138034277,
            24.274614731396543
          ],
          [
            120.5825287514838,
            24.274876422797995
          ],
          [
            120.58311273214966,
            24.27528035068137
          ],
          [
            120.58367891769902,
            24.275943825394513
          ],
          [
            120.58481128879512,
            24.27756276183595
          ],
          [
            120.58563675306664,
            24.278654897502726
          ],
          [
            120.58660457828077,
            24.2797470331695
          ],
          [
            120.58846904824046,
            24.28194752561714
          ],
          [
            120.59727893296167,
            24.292445331741632
          ],
          [
            120.59867709697264,
            24.294229392438183
          ],
          [
            120.60043015701802,
            24.29795425370797
          ],
          [
            120.60272853995731,
            24.30424046864861
          ]
        ],
        "type": "LineString"
      }
    },
    {
      "type": "Feature",
      "properties": {
        "name": "四城",
        "gap_id": "gap-01",
        "marker-color": "#ff0000",
        "marker-size": "medium"
      },
      "geometry": {
        "coordinates": [
          121.76271,
          24.78681
        ],
        "type": "Point"
      }
    },
    {
      "type": "Feature",
      "properties": {
        "name": "和平",
        "gap_id": "gap-01",
        "marker-color": "#00ff00",
        "marker-size": "medium"
      },
      "geometry": {
        "coordinates": [
          121.75344,
          24.29839
        ],
        "type": "Point"
      }
    },
    {
      "type": "Feature",
      "properties": {
        "name": "大里",
        "gap_id": "gap-02",
        "marker-color": "#ff0000",
        "marker-size": "medium"
      },
      "geometry": {
        "coordinates": [
          121.92253,
          24.96677
        ],
        "type": "Point"
      }
    },
    {
      "type": "Feature",
      "properties": {
        "name": "大溪",
        "gap_id": "gap-02",
        "marker-color": "#00ff00",
        "marker-size": "medium"
      },
      "geometry": {
        "coordinates": [
          121.88983,
          24.93836
        ],
        "type": "Point"
      }
    },
    {
      "type": "Feature",
      "properties": {
        "name": "新城",
        "gap_id": "gap-03",
        "marker-color": "#ff0000",
        "marker-size": "medium"
      },
      "geometry": {
        "coordinates": [
          121.64087787901698,
          24.127772121761534
        ],
        "type": "Point"
      }
    },
    {
      "type": "Feature",
      "properties": {
        "name": "吉安",
        "gap_id": "gap-03",
        "marker-color": "#00ff00",
        "marker-size": "medium"
      },
      "geometry": {
        "coordinates": [
          121.58266,
          23.96823
        ],
        "type": "Point"
      }
    },
    {
      "type": "Feature",
      "properties": {
        "name": "瑞穗",
        "gap_id": "gap-04",
        "marker-color": "#ff0000",
        "marker-size": "medium"
      },
      "geometry": {
        "coordinates": [
          121.37657,
          23.49775
        ],
        "type": "Point"
      }
    },
    {
      "type": "Feature",
      "properties": {
        "name": "三民",
        "gap_id": "gap-04",
        "marker-color": "#00ff00",
        "marker-size": "medium"
      },
      "geometry": {
        "coordinates": [
          121.34539,
          23.42458
        ],
        "type": "Point"
      }
    },
    {
      "type": "Feature",
      "properties": {
        "name": "瑞穗 → 三民",
        "gap_id": "gap-04",
        "line": "臺東線",
        "note": "瑞穗到三民",
        "stroke": "#0066ff",
        "stroke-width": 4,
        "stroke-opacity": 0.9
      },
      "geometry": {
        "coordinates": [
          [
            121.37657,
            23.49775
          ],
          [
            121.34539,
            23.42458
          ]
        ],
        "type": "LineString"
      }
    },
    {
      "type": "Feature",
      "properties": {
        "name": "海端",
        "gap_id": "gap-05",
        "marker-color": "#ff0000",
        "marker-size": "medium"
      },
      "geometry": {
        "coordinates": [
          121.17676,
          23.10292
        ],
        "type": "Point"
      }
    },
    {
      "type": "Feature",
      "properties": {
        "name": "關山",
        "gap_id": "gap-05",
        "marker-color": "#00ff00",
        "marker-size": "medium"
      },
      "geometry": {
        "coordinates": [
          121.1643,
          23.04566
        ],
        "type": "Point"
      }
    },
    {
      "type": "Feature",
      "properties": {
        "name": "海端 → 關山",
        "gap_id": "gap-05",
        "line": "臺東線",
        "note": "海端到關山",
        "stroke": "#0066ff",
        "stroke-width": 4,
        "stroke-opacity": 0.9
      },
      "geometry": {
        "coordinates": [
          [
            121.17676,
            23.10292
          ],
          [
            121.1643,
            23.04566
          ]
        ],
        "type": "LineString"
      }
    },
    {
      "type": "Feature",
      "properties": {
        "name": "太麻里",
        "gap_id": "gap-06",
        "marker-color": "#ff0000",
        "marker-size": "medium"
      },
      "geometry": {
        "coordinates": [
          121.00492,
          22.61883
        ],
        "type": "Point"
      }
    },
    {
      "type": "Feature",
      "properties": {
        "name": "枋野",
        "gap_id": "gap-06",
        "marker-color": "#00ff00",
        "marker-size": "medium"
      },
      "geometry": {
        "coordinates": [
          120.71709,
          22.28091
        ],
        "type": "Point"
      }
    },
    {
      "type": "Feature",
      "properties": {
        "name": "太麻里 → 枋野",
        "gap_id": "gap-06",
        "line": "南迴線",
        "note": "太麻里到枋野",
        "stroke": "#0066ff",
        "stroke-width": 4,
        "stroke-opacity": 0.9
      },
      "geometry": {
        "coordinates": [
          [
            121.00492,
            22.61883
          ],
          [
            120.71709,
            22.28091
          ]
        ],
        "type": "LineString"
      }
    },
    {
      "type": "Feature",
      "properties": {
        "name": "枋寮",
        "gap_id": "gap-07",
        "marker-color": "#ff0000",
        "marker-size": "medium"
      },
      "geometry": {
        "coordinates": [
          120.59511,
          22.36802
        ],
        "type": "Point"
      }
    },
    {
      "type": "Feature",
      "properties": {
        "name": "林邊",
        "gap_id": "gap-07",
        "marker-color": "#00ff00",
        "marker-size": "medium"
      },
      "geometry": {
        "coordinates": [
          120.51529,
          22.43135
        ],
        "type": "Point"
      }
    },
    {
      "type": "Feature",
      "properties": {
        "name": "枋寮 → 林邊",
        "gap_id": "gap-07",
        "line": "屏東線",
        "note": "枋寮到林邊",
        "stroke": "#0066ff",
        "stroke-width": 4,
        "stroke-opacity": 0.9
      },
      "geometry": {
        "coordinates": [
          [
            120.59511,
            22.36802
          ],
          [
            120.51529,
            22.43135
          ]
        ],
        "type": "LineString"
      }
    },
    {
      "type": "Feature",
      "properties": {
        "name": "歸來",
        "gap_id": "gap-08",
        "marker-color": "#ff0000",
        "marker-size": "medium"
      },
      "geometry": {
        "coordinates": [
          120.50263,
          22.65246
        ],
        "type": "Point"
      }
    },
    {
      "type": "Feature",
      "properties": {
        "name": "屏東",
        "gap_id": "gap-08",
        "marker-color": "#00ff00",
        "marker-size": "medium"
      },
      "geometry": {
        "coordinates": [
          120.48617,
          22.66905
        ],
        "type": "Point"
      }
    },
    {
      "type": "Feature",
      "properties": {
        "name": "歸來 → 屏東",
        "gap_id": "gap-08",
        "line": "屏東線",
        "note": "歸來到屏東",
        "stroke": "#0066ff",
        "stroke-width": 4,
        "stroke-opacity": 0.9
      },
      "geometry": {
        "coordinates": [
          [
            120.50263,
            22.65246
          ],
          [
            120.48617,
            22.66905
          ]
        ],
        "type": "LineString"
      }
    },
    {
      "type": "Feature",
      "properties": {
        "name": "清水",
        "gap_id": "gap-09",
        "marker-color": "#ff0000",
        "marker-size": "medium"
      },
      "geometry": {
        "coordinates": [
          120.56918,
          24.26364
        ],
        "type": "Point"
      }
    },
    {
      "type": "Feature",
      "properties": {
        "name": "臺中港",
        "gap_id": "gap-09",
        "marker-color": "#00ff00",
        "marker-size": "medium"
      },
      "geometry": {
        "coordinates": [
          120.60269753699568,
          24.304325234324306
        ],
        "type": "Point"
      }
    },
    {
      "type": "Feature",
      "properties": {
        "name": "臺北",
        "gap_id": "gap-10",
        "marker-color": "#ff0000",
        "marker-size": "medium"
      },
      "geometry": {
        "coordinates": [
          121.51711,
          25.04775
        ],
        "type": "Point"
      }
    },
    {
      "type": "Feature",
      "properties": {
        "name": "松山",
        "gap_id": "gap-10",
        "marker-color": "#00ff00",
        "marker-size": "medium"
      },
      "geometry": {
        "coordinates": [
          121.57906,
          25.04927
        ],
        "type": "Point"
      }
    },
    {
      "type": "Feature",
      "properties": {
        "name": "南港",
        "gap_id": "gap-11",
        "marker-color": "#ff0000",
        "marker-size": "medium"
      },
      "geometry": {
        "coordinates": [
          121.60706,
          25.05348
        ],
        "type": "Point"
      }
    },
    {
      "type": "Feature",
      "properties": {
        "name": "汐科",
        "gap_id": "gap-11",
        "marker-color": "#00ff00",
        "marker-size": "medium"
      },
      "geometry": {
        "coordinates": [
          121.65057,
          25.06358
        ],
        "type": "Point"
      }
    },
    {
      "type": "Feature",
      "properties": {
        "name": "五堵",
        "gap_id": "gap-12",
        "marker-color": "#ff0000",
        "marker-size": "medium"
      },
      "geometry": {
        "coordinates": [
          121.66758,
          25.07799
        ],
        "type": "Point"
      }
    },
    {
      "type": "Feature",
      "properties": {
        "name": "七堵",
        "gap_id": "gap-12",
        "marker-color": "#00ff00",
        "marker-size": "medium"
      },
      "geometry": {
        "coordinates": [
          121.71415,
          25.09294
        ],
        "type": "Point"
      }
    },
    {
      "type": "Feature",
      "properties": {
        "name": "八堵",
        "gap_id": "gap-13",
        "marker-color": "#ff0000",
        "marker-size": "medium"
      },
      "geometry": {
        "coordinates": [
          121.72904,
          25.10838
        ],
        "type": "Point"
      }
    },
    {
      "type": "Feature",
      "properties": {
        "name": "三坑",
        "gap_id": "gap-13",
        "marker-color": "#00ff00",
        "marker-size": "medium"
      },
      "geometry": {
        "coordinates": [
          121.74202,
          25.12305
        ],
        "type": "Point"
      }
    },
    {
      "type": "Feature",
      "properties": {
        "name": "八堵 → 三坑",
        "gap_id": "gap-13",
        "line": "基隆支線",
        "note": "八堵到三坑",
        "stroke": "#0066ff",
        "stroke-width": 4,
        "stroke-opacity": 0.9
      },
      "geometry": {
        "coordinates": [
          [
            121.72882631412068,
            25.108610282176475
          ],
          [
            121.73141688382863,
            25.109742115724288
          ],
          [
            121.73440289732983,
            25.111032328008193
          ],
          [
            121.74006348944471,
            25.113468100197316
          ],
          [
            121.74066944588776,
            25.11381378483631
          ],
          [
            121.74131492535827,
            25.1141952562562
          ],
          [
            121.74174302817187,
            25.114594621020792
          ],
          [
            121.74211843361428,
            25.115041701178797
          ],
          [
            121.74235306975766,
            25.115464273956896
          ],
          [
            121.7425602773298,
            25.115961352682046
          ],
          [
            121.74267834205182,
            25.116439805007246
          ],
          [
            121.74272783534987,
            25.117005180229448
          ],
          [
            121.74202698099927,
            25.123024717667015
          ]
        ],
        "type": "LineString"
      }
    },
    {
      "type": "Feature",
      "properties": {
        "name": "三坑",
        "gap_id": "gap-14",
        "marker-color": "#ff0000",
        "marker-size": "medium"
      },
      "geometry": {
        "coordinates": [
          121.74202,
          25.12305
        ],
        "type": "Point"
      }
    },
    {
      "type": "Feature",
      "properties": {
        "name": "基隆",
        "gap_id": "gap-14",
        "marker-color": "#00ff00",
        "marker-size": "medium"
      },
      "geometry": {
        "coordinates": [
          121.73837,
          25.13191
        ],
        "type": "Point"
      }
    },
    {
      "type": "Feature",
      "properties": {
        "name": "四城",
        "gap_id": "gap-15",
        "marker-color": "#ff0000",
        "marker-size": "medium"
      },
      "geometry": {
        "coordinates": [
          121.76271,
          24.78681
        ],
        "type": "Point"
      }
    },
    {
      "type": "Feature",
      "properties": {
        "name": "大溪",
        "gap_id": "gap-15",
        "marker-color": "#00ff00",
        "marker-size": "medium"
      },
      "geometry": {
        "coordinates": [
          121.88983,
          24.93836
        ],
        "type": "Point"
      }
    },
    {
      "type": "Feature",
      "properties": {
        "name": "和平",
        "gap_id": "gap-16",
        "marker-color": "#ff0000",
        "marker-size": "medium"
      },
      "geometry": {
        "coordinates": [
          121.75344,
          24.29839
        ],
        "type": "Point"
      }
    },
    {
      "type": "Feature",
      "properties": {
        "name": "新城",
        "gap_id": "gap-16",
        "marker-color": "#00ff00",
        "marker-size": "medium"
      },
      "geometry": {
        "coordinates": [
          121.64086,
          24.12756
        ],
        "type": "Point"
      }
    },
    {
      "type": "Feature",
      "properties": {
        "name": "和平 → 新城",
        "gap_id": "gap-16",
        "line": "北迴線",
        "note": "和平→和仁→崇德→新城",
        "stroke": "#ff6600",
        "stroke-width": 4,
        "stroke-opacity": 0.9
      },
      "geometry": {
        "coordinates": [
          [
            121.75344,
            24.29839
          ],
          [
            121.71182,
            24.24225
          ],
          [
            121.65536,
            24.17199
          ],
          [
            121.64086,
            24.12756
          ]
        ],
        "type": "LineString"
      }
    },
    {
      "type": "Feature",
      "properties": {
        "name": "瑞芳",
        "gap_id": "gap-17",
        "marker-color": "#ff0000",
        "marker-size": "medium"
      },
      "geometry": {
        "coordinates": [
          121.80624,
          25.10893
        ],
        "type": "Point"
      }
    },
    {
      "type": "Feature",
      "properties": {
        "name": "四腳亭",
        "gap_id": "gap-17",
        "marker-color": "#00ff00",
        "marker-size": "medium"
      },
      "geometry": {
        "coordinates": [
          121.76195,
          25.10281
        ],
        "type": "Point"
      }
    },
    {
      "type": "Feature",
      "properties": {
        "name": "瑞芳 → 四腳亭",
        "gap_id": "gap-17",
        "line": "宜蘭線",
        "note": "瑞芳到四腳亭",
        "stroke": "#ff6600",
        "stroke-width": 4,
        "stroke-opacity": 0.9
      },
      "geometry": {
        "coordinates": [
          [
            121.80624,
            25.10893
          ],
          [
            121.76195,
            25.10281
          ]
        ],
        "type": "LineString"
      }
    }
  ]
}