{
  "type": "FeatureCollection",
  "features": [
    {
      "type": "Feature",
      "properties": {
        "name": "西部幹線: 大湖↔中洲↔仁德",
        "stroke": "#ff6600",
        "stroke-width": 2,
        "stroke-opacity": 0.7
      },
      "geometry": {
        "coordinates": [
          [
            120.26665647160439,
            22.85382035404732
          ],
          [
            120.2658505888013,
            22.85499058483059
          ],
          [
            120.26498608248788,
            22.856232843636313
          ],
          [
            120.26334500512652,
            22.858600316113673
          ],
          [
            120.2600823915737,
            22.86330825204093
          ],
          [
            120.25971715109961,
            22.863818375471194
          ],
          [
            120.25965040856059,
            22.863950311473033
          ],
          [
            120.25937415255427,
            22.864440176306847
          ],
          [
            120.25915701423925,
            22.864917936112867
          ],
          [
            120.2586369517199,
            22.866020710665836
          ],
          [
            120.25821019518413,
            22.867157353674
          ],
          [
            120.25700999556699,
            22.870364396167666
          ],
          [
            120.25670631493061,
            22.871190425093705
          ],
          [
            120.25637596609809,
            22.872102452956895
          ],
          [
            120.25584860940957,
            22.873508792603022
          ],
          [
            120.25496723930755,
            22.875866905861315
          ],
          [
            120.25470915581404,
            22.876522235129766
          ],
          [
            120.25447896779895,
            22.877190415075923
          ],
          [
            120.25429024115495,
            22.87785188063588
          ],
          [
            120.25408686730813,
            22.87885406245635
          ],
          [
            120.25400651856035,
            22.879835997990227
          ],
          [
            120.25399484143998,
            22.88097982431913
          ],
          [
            120.25389912240884,
            22.883538509811963
          ],
          [
            120.25370768434655,
            22.888557336857577
          ],
          [
            120.25371397712472,
            22.889956173577737
          ],
          [
            120.25380280810779,
            22.892836831573238
          ],
          [
            120.25374729119852,
            22.895183880170187
          ],
          [
            120.25370977715204,
            22.896557401885214
          ],
          [
            120.25370187780271,
            22.897389193826186
          ],
          [
            120.25366427509664,
            22.899600546433636
          ],
          [
            120.25356075950708,
            22.900350576140987
          ],
          [
            120.25345024252022,
            22.90094581621608
          ],
          [
            120.25299866894812,
            22.902625125179604
          ],
          [
            120.25262262502996,
            22.904203934471965
          ],
          [
            120.25196515106379,
            22.906265945940394
          ],
          [
            120.25137780294054,
            22.908366714357733
          ],
          [
            120.25025920736414,
            22.9123486272709
          ],
          [
            120.25005721853202,
            22.913032206111296
          ],
          [
            120.249827122498,
            22.91364181459939
          ],
          [
            120.24950345112855,
            22.914298862337255
          ],
          [
            120.24906490475118,
            22.914991617438634
          ],
          [
            120.24867987840476,
            22.91546812830166
          ],
          [
            120.24833500520316,
            22.91586327373615
          ],
          [
            120.24748464621534,
            22.916786707860894
          ],
          [
            120.24601681648721,
            22.918367291503777
          ],
          [
            120.24502154553245,
            22.919421657348646
          ],
          [
            120.24410658087484,
            22.920409452939836
          ],
          [
            120.2438667161769,
            22.92064684111792
          ],
          [
            120.24357972188349,
            22.92091451523894
          ],
          [
            120.24338317287977,
            22.921102226290834
          ],
          [
            120.24318280997014,
            22.921255752866994
          ],
          [
            120.24269011592544,
            22.921648088635237
          ],
          [
            120.2421331768499,
            22.9220922001846
          ],
          [
            120.24048927715309,
            22.923416816020307
          ]
        ],
        "type": "LineString"
      }
    },
    {
      "type": "Feature",
      "properties": {
        "name": "沙崙支線: 中洲→長榮大學→沙崙",
        "stroke": "#00cc00",
        "stroke-width": 2,
        "stroke-opacity": 0.7
      },
      "geometry": {
        "coordinates": [
          [
            120.25255290105524,
            22.90443981440596
          ],
          [
            120.25337198668146,
            22.90156043258568
          ],
          [
            120.25342835638213,
            22.901397719890817
          ],
          [
            120.25353976889917,
            22.901180066199572
          ],
          [
            120.25378042552992,
            22.900862533539108
          ],
          [
            120.25410419925362,
            22.900622840399087
          ],
          [
            120.25446953152218,
            22.900447622753617
          ],
          [
            120.25472386592551,
            22.900351495384054
          ],
          [
            120.25499436966538,
            22.900303431695605
          ],
          [
            120.25527412092386,
            22.900289442640208
          ],
          [
            120.25566806673692,
            22.90033324267109
          ],
          [
            120.25601762369872,
            22.90044032925892
          ],
          [
            120.25629181300485,
            22.900598226001343
          ],
          [
            120.25652138284336,
            22.900758101435848
          ],
          [
            120.25668622005108,
            22.900926495502123
          ],
          [
            120.25686013991927,
            22.901138160962695
          ],
          [
            120.25702383762714,
            22.901433857056546
          ],
          [
            120.25720603037237,
            22.901882887718042
          ],
          [
            120.25736972808019,
            22.902191362115637
          ],
          [
            120.25749262274346,
            22.90235725756362
          ],
          [
            120.25762127721404,
            22.902491318471192
          ],
          [
            120.25780852031491,
            22.902645818220343
          ],
          [
            120.25805336146864,
            22.902810929459648
          ],
          [
            120.25827516340067,
            22.902922983386702
          ],
          [
            120.25845806193651,
            22.90299227467954
          ],
          [
            120.25862944086111,
            22.903029731579313
          ],
          [
            120.25882147237024,
            22.90306886348015
          ],
          [
            120.25903078329462,
            22.903076161008237
          ],
          [
            120.25963659882623,
            22.903090756058354
          ],
          [
            120.2613633212817,
            22.903112792081803
          ],
          [
            120.26351153132225,
            22.903035494905495
          ],
          [
            120.26443389003548,
            22.90311738930986
          ],
          [
            120.2649371821721,
            22.903224428283032
          ],
          [
            120.26569274593506,
            22.903476886668038
          ],
          [
            120.26830816234448,
            22.90454806979374
          ],
          [
            120.26889590993503,
            22.90483455559646
          ],
          [
            120.26930643892335,
            22.905104497957186
          ],
          [
            120.27052762903725,
            22.906320147411563
          ],
          [
            120.27094181883851,
            22.906571894413865
          ],
          [
            120.27127957951205,
            22.906739526209705
          ],
          [
            120.27222712119436,
            22.907137755179484
          ],
          [
            120.27262,
            22.90731
          ],
          [
            120.27514834780678,
            22.90837353995815
          ],
          [
            120.27774835535297,
            22.90948082958652
          ],
          [
            120.28044021264219,
            22.910611687167464
          ],
          [
            120.28456210825365,
            22.911955809293026
          ],
          [
            120.28664056650732,
            22.912649169656692
          ],
          [
            120.28810939593686,
            22.91314488099627
          ],
          [
            120.28855276575631,
            22.913339239022292
          ],
          [
            120.28893115891753,
            22.913544872963424
          ],
          [
            120.28914859073112,
            22.913709881226055
          ],
          [
            120.28933655969337,
            22.913879412489486
          ],
          [
            120.2895173335934,
            22.91407346647859
          ],
          [
            120.28968828654612,
            22.914294658397015
          ],
          [
            120.28985187378372,
            22.914552034168523
          ],
          [
            120.28999827436007,
            22.91487951595262
          ],
          [
            120.29011041336997,
            22.915260934218384
          ],
          [
            120.29014684097393,
            22.915468604416503
          ],
          [
            120.29017344762754,
            22.915730549916454
          ],
          [
            120.2901585115643,
            22.915978016154636
          ],
          [
            120.2901166702061,
            22.91628040467932
          ],
          [
            120.28999110462723,
            22.9167038014382
          ],
          [
            120.28988786491126,
            22.916921560821237
          ],
          [
            120.28637,
            22.92386
          ]
        ],
        "type": "LineString"
      }
    },
    {
      "type": "Feature",
      "properties": {
        "name": "大湖 (4290)",
        "marker-color": "#ff6600",
        "marker-size": "medium"
      },
      "geometry": {
        "coordinates": [
          120.26666482572051,
          22.853855880123792
        ],
        "type": "Point"
      }
    },
    {
      "type": "Feature",
      "properties": {
        "name": "中洲 (4270)",
        "marker-color": "#ff6600",
        "marker-size": "medium"
      },
      "geometry": {
        "coordinates": [
          120.25265,
          22.90441
        ],
        "type": "Point"
      }
    },
    {
      "type": "Feature",
      "properties": {
        "name": "仁德 (4260)",
        "marker-color": "#ff6600",
        "marker-size": "medium"
      },
      "geometry": {
        "coordinates": [
          120.24046,
          22.92344
        ],
        "type": "Point"
      }
    },
    {
      "type": "Feature",
      "properties": {
        "name": "長榮大學 (4271)",
        "marker-color": "#00cc00",
        "marker-size": "medium"
      },
      "geometry": {
        "coordinates": [
          120.27262,
          22.90731
        ],
        "type": "Point"
      }
    },
    {
      "type": "Feature",
      "properties": {
        "name": "沙崙 (4272)",
        "marker-color": "#00cc00",
        "marker-size": "medium"
      },
      "geometry": {
        "coordinates": [
          120.28637,
          22.92386
        ],
        "type": "Point"
      }
    }
  ]
}