{
  "type": "FeatureCollection",
  "features": [
    {
      "type": "Feature",
      "properties": {
        "station_id": "0900",
        "name": "基隆",
        "name_en": "Keelung",
        "name_zh": "基隆",
        "class": "1",
        "address": "203001基隆市中山區中山一路 16 之 1 號",
        "phone": "02-24263743"
      },
      "geometry": {
        "type": "Point",
        "coordinates": [
          121.73837,
          25.13191
        ]
      }
    },
    {
      "type": "Feature",
      "properties": {
        "station_id": "0910",
        "name": "三坑",
        "name_en": "Sankeng",
        "name_zh": "三坑",
        "class": "4",
        "address": "200006基隆市仁愛區德厚里龍安街 206 號",
        "phone": "02-24230289"
      },
      "geometry": {
        "type": "Point",
        "coordinates": [
          121.74202,
          25.12305
        ]
      }
    },
    {
      "type": "Feature",
      "properties": {
        "station_id": "0920",
        "name": "八堵",
        "name_en": "Badu",
        "name_zh": "八堵",
        "class": "2",
        "address": "205001基隆市暖暖區八南里八堵路 142 號",
        "phone": "02-24560841"
      },
      "geometry": {
        "type": "Point",
        "coordinates": [
          121.72904,
          25.10838
        ]
      }
    },
    {
      "type": "Feature",
      "properties": {
        "station_id": "0930",
        "name": "七堵",
        "name_en": "Qidu",
        "name_zh": "七堵",
        "class": "1",
        "address": "206006基隆市七堵區長興里東新街 2 號",
        "phone": "02-24553426"
      },
      "geometry": {
        "type": "Point",
        "coordinates": [
          121.71415,
          25.09294
        ]
      }
    },
    {
      "type": "Feature",
      "properties": {
        "station_id": "0940",
        "name": "百福",
        "name_en": "Baifu",
        "name_zh": "百福",
        "class": "4",
        "address": "206011基隆市七堵區堵南里明德三路 1 之 1 號",
        "phone": "02-24528372"
      },
      "geometry": {
        "type": "Point",
        "coordinates": [
          121.69379,
          25.07795
        ]
      }
    },
    {
      "type": "Feature",
      "properties": {
        "station_id": "0950",
        "name": "五堵",
        "name_en": "Wudu",
        "name_zh": "五堵",
        "class": "4",
        "address": "221041新北市汐止區長安里長安路 17 號",
        "phone": "02-86476200"
      },
      "geometry": {
        "type": "Point",
        "coordinates": [
          121.66758,
          25.07799
        ]
      }
    },
    {
      "type": "Feature",
      "properties": {
        "station_id": "0960",
        "name": "汐止",
        "name_en": "Xizhi",
        "name_zh": "汐止",
        "class": "2",
        "address": "221029新北市汐止區信望里信義路 1 號",
        "phone": "02-26415096"
      },
      "geometry": {
        "type": "Point",
        "coordinates": [
          121.66113,
          25.0679
        ]
      }
    },
    {
      "type": "Feature",
      "properties": {
        "station_id": "0970",
        "name": "汐科",
        "name_en": "Xike",
        "name_zh": "汐科",
        "class": "4",
        "address": "221026新北市汐止區大同里大同路二段 182 號",
        "phone": "02-26499817#8730"
      },
      "geometry": {
        "type": "Point",
        "coordinates": [
          121.65057,
          25.06358
        ]
      }
    },
    {
      "type": "Feature",
      "properties": {
        "station_id": "0980",
        "name": "南港",
        "name_en": "Nangang",
        "name_zh": "南港",
        "class": "1",
        "address": "115018臺北市南港區南港里南港路一段 313 號 B2",
        "phone": "02-27838645"
      },
      "geometry": {
        "type": "Point",
        "coordinates": [
          121.60706,
          25.05348
        ]
      }
    },
    {
      "type": "Feature",
      "properties": {
        "station_id": "0990",
        "name": "松山",
        "name_en": "Songshan",
        "name_zh": "松山",
        "class": "1",
        "address": "110417臺北市信義區松山路 11 號B1",
        "phone": "02-27673819"
      },
      "geometry": {
        "type": "Point",
        "coordinates": [
          121.57906,
          25.04927
        ]
      }
    },
    {
      "type": "Feature",
      "properties": {
        "station_id": "1000",
        "name": "臺北",
        "name_en": "Taipei",
        "name_zh": "臺北",
        "class": "0",
        "address": "100230臺北市中正區黎明里北平西路 3 號",
        "phone": "02-23713558"
      },
      "geometry": {
        "type": "Point",
        "coordinates": [
          121.51711,
          25.04775
        ]
      }
    },
    {
      "type": "Feature",
      "properties": {
        "station_id": "1001",
        "name": "臺北-環島",
        "name_en": "Taipei Surround Island",
        "name_zh": "臺北-環島",
        "class": "4",
        "address": "100230臺北市中正區",
        "phone": ""
      },
      "geometry": {
        "type": "Point",
        "coordinates": [
          121.51711,
          25.04774
        ]
      }
    },
    {
      "type": "Feature",
      "properties": {
        "station_id": "1010",
        "name": "萬華",
        "name_en": "Wanhua",
        "name_zh": "萬華",
        "class": "1",
        "address": "108220臺北市萬華區富福里康定路 382 號",
        "phone": "02-23020481"
      },
      "geometry": {
        "type": "Point",
        "coordinates": [
          121.50081,
          25.03342
        ]
      }
    },
    {
      "type": "Feature",
      "properties": {
        "station_id": "1020",
        "name": "板橋",
        "name_en": "Banqiao",
        "name_zh": "板橋",
        "class": "1",
        "address": "220227新北市板橋區新民里縣民大道二段 7 號（縣民大道側）",
        "phone": "02-89691036"
      },
      "geometry": {
        "type": "Point",
        "coordinates": [
          121.46377,
          25.01434
        ]
      }
    },
    {
      "type": "Feature",
      "properties": {
        "station_id": "1030",
        "name": "浮洲",
        "name_en": "Fuzhou",
        "name_zh": "浮洲",
        "class": "4",
        "address": "22058新北市板橋區僑中里僑中二街 156 號",
        "phone": "02-23815226#4665"
      },
      "geometry": {
        "type": "Point",
        "coordinates": [
          121.44477,
          25.00419
        ]
      }
    },
    {
      "type": "Feature",
      "properties": {
        "station_id": "1040",
        "name": "樹林",
        "name_en": "Shulin",
        "name_zh": "樹林",
        "class": "1",
        "address": "238005新北市樹林區樹北里鎮前街 112 號",
        "phone": "02-26812052"
      },
      "geometry": {
        "type": "Point",
        "coordinates": [
          121.42442,
          24.99123
        ]
      }
    },
    {
      "type": "Feature",
      "properties": {
        "station_id": "1050",
        "name": "南樹林",
        "name_en": "South Shulin",
        "name_zh": "南樹林",
        "class": "4",
        "address": "23846新北市樹林區東山里中山路二段 230 號",
        "phone": "02-26812052"
      },
      "geometry": {
        "type": "Point",
        "coordinates": [
          121.40884,
          24.98044
        ]
      }
    },
    {
      "type": "Feature",
      "properties": {
        "station_id": "1060",
        "name": "山佳",
        "name_en": "Shanjia",
        "name_zh": "山佳",
        "class": "3",
        "address": "238012新北市樹林區中山路三段108號",
        "phone": "02-26808874"
      },
      "geometry": {
        "type": "Point",
        "coordinates": [
          121.39254,
          24.97273
        ]
      }
    },
    {
      "type": "Feature",
      "properties": {
        "station_id": "1070",
        "name": "鶯歌",
        "name_en": "Yingge",
        "name_zh": "鶯歌",
        "class": "2",
        "address": "239005新北市鶯歌區東鶯里文化路 68-1號",
        "phone": "02-26792004"
      },
      "geometry": {
        "type": "Point",
        "coordinates": [
          121.35517,
          24.95455
        ]
      }
    },
    {
      "type": "Feature",
      "properties": {
        "station_id": "1075",
        "name": "鳳鳴",
        "name_en": "Fengming",
        "name_zh": "鳳鳴",
        "class": "4",
        "address": "239013新北市鶯歌區鳳鳴里鳳一路 2 號",
        "phone": ""
      },
      "geometry": {
        "type": "Point",
        "coordinates": [
          121.33658,
          24.97268
        ]
      }
    },
    {
      "type": "Feature",
      "properties": {
        "station_id": "1080",
        "name": "桃園",
        "name_en": "Taoyuan",
        "name_zh": "桃園",
        "class": "1",
        "address": "330002桃園市桃園區武陵里中正路 1 號",
        "phone": "03-3767050"
      },
      "geometry": {
        "type": "Point",
        "coordinates": [
          121.314,
          24.98902
        ]
      }
    },
    {
      "type": "Feature",
      "properties": {
        "station_id": "1090",
        "name": "內壢",
        "name_en": "Neili",
        "name_zh": "內壢",
        "class": "3",
        "address": "320070桃園市中壢區中原里中華路一段 267 號",
        "phone": "03-4559725"
      },
      "geometry": {
        "type": "Point",
        "coordinates": [
          121.25826,
          24.97281
        ]
      }
    },
    {
      "type": "Feature",
      "properties": {
        "station_id": "1100",
        "name": "中壢",
        "name_en": "Zhongli_Taoyuan",
        "name_zh": "中壢",
        "class": "1",
        "address": "320001桃園市中壢區石頭里中和路 139 號",
        "phone": "03-4223235"
      },
      "geometry": {
        "type": "Point",
        "coordinates": [
          121.22531,
          24.95321
        ]
      }
    },
    {
      "type": "Feature",
      "properties": {
        "station_id": "1110",
        "name": "埔心",
        "name_en": "Puxin",
        "name_zh": "埔心",
        "class": "3",
        "address": "326009桃園市楊梅區埔心里永美路 208 號",
        "phone": "03-4827100"
      },
      "geometry": {
        "type": "Point",
        "coordinates": [
          121.18321,
          24.9197
        ]
      }
    },
    {
      "type": "Feature",
      "properties": {
        "station_id": "1120",
        "name": "楊梅",
        "name_en": "Yangmei",
        "name_zh": "楊梅",
        "class": "3",
        "address": "326101桃園市楊梅區楊梅里大成路 256 號",
        "phone": "03-4782893"
      },
      "geometry": {
        "type": "Point",
        "coordinates": [
          121.14637,
          24.91427
        ]
      }
    },
    {
      "type": "Feature",
      "properties": {
        "station_id": "1130",
        "name": "富岡",
        "name_en": "Fugang",
        "name_zh": "富岡",
        "class": "3",
        "address": "326019桃園市楊梅區富岡里成功路 37 號",
        "phone": "03-4723754"
      },
      "geometry": {
        "type": "Point",
        "coordinates": [
          121.08308,
          24.93445
        ]
      }
    },
    {
      "type": "Feature",
      "properties": {
        "station_id": "1140",
        "name": "新富",
        "name_en": "Xinfu",
        "name_zh": "新富",
        "class": "5",
        "address": "326019桃園市楊梅區富豐里新明街",
        "phone": "03-4723754"
      },
      "geometry": {
        "type": "Point",
        "coordinates": [
          121.06751,
          24.93109
        ]
      }
    },
    {
      "type": "Feature",
      "properties": {
        "station_id": "1150",
        "name": "北湖",
        "name_en": "Beihu",
        "name_zh": "北湖",
        "class": "4",
        "address": "303118新竹縣湖口鄉東興村北湖路 1 號",
        "phone": "03-5993850"
      },
      "geometry": {
        "type": "Point",
        "coordinates": [
          121.05575,
          24.92218
        ]
      }
    },
    {
      "type": "Feature",
      "properties": {
        "station_id": "1160",
        "name": "湖口",
        "name_en": "Hukou",
        "name_zh": "湖口",
        "class": "3",
        "address": "303032新竹縣湖口鄉仁勢村中山路二段 121 號",
        "phone": "03-5992192"
      },
      "geometry": {
        "type": "Point",
        "coordinates": [
          121.04384,
          24.90298
        ]
      }
    },
    {
      "type": "Feature",
      "properties": {
        "station_id": "1170",
        "name": "新豐",
        "name_en": "Xinfeng",
        "name_zh": "新豐",
        "class": "3",
        "address": "304114新竹縣新豐鄉山崎村新興路 202 號",
        "phone": "03-5596314"
      },
      "geometry": {
        "type": "Point",
        "coordinates": [
          120.99626,
          24.86939
        ]
      }
    },
    {
      "type": "Feature",
      "properties": {
        "station_id": "1180",
        "name": "竹北",
        "name_en": "Zhubei",
        "name_zh": "竹北",
        "class": "3",
        "address": "30265新竹縣竹北市竹義里和平街 59 號",
        "phone": "03-5552024"
      },
      "geometry": {
        "type": "Point",
        "coordinates": [
          121.00921,
          24.83904
        ]
      }
    },
    {
      "type": "Feature",
      "properties": {
        "station_id": "1190",
        "name": "北新竹",
        "name_en": "North Hsinchu",
        "name_zh": "北新竹",
        "class": "4",
        "address": "300002新竹市 東區東園里中華路一段 291 之 2 號",
        "phone": "03-5237441"
      },
      "geometry": {
        "type": "Point",
        "coordinates": [
          120.98381,
          24.80875
        ]
      }
    },
    {
      "type": "Feature",
      "properties": {
        "station_id": "1191",
        "name": "千甲",
        "name_en": "Qianjia",
        "name_zh": "千甲",
        "class": "4",
        "address": "300053新竹市 東區水源里千甲路 142 號",
        "phone": "03-5237441"
      },
      "geometry": {
        "type": "Point",
        "coordinates": [
          121.0034,
          24.80657
        ]
      }
    },
    {
      "type": "Feature",
      "properties": {
        "station_id": "1192",
        "name": "新莊",
        "name_en": "Xinzhuang",
        "name_zh": "新莊",
        "class": "4",
        "address": "300051新竹市 東區新莊里關東路 310 號",
        "phone": "03-5237441"
      },
      "geometry": {
        "type": "Point",
        "coordinates": [
          121.02196,
          24.78811
        ]
      }
    },
    {
      "type": "Feature",
      "properties": {
        "station_id": "1193",
        "name": "竹中",
        "name_en": "Zhuzhong",
        "name_zh": "竹中",
        "class": "4",
        "address": "310019新竹縣竹東鎮頭重里竹中路 145 號",
        "phone": "03-5962042"
      },
      "geometry": {
        "type": "Point",
        "coordinates": [
          121.03141,
          24.78145
        ]
      }
    },
    {
      "type": "Feature",
      "properties": {
        "station_id": "1194",
        "name": "六家",
        "name_en": "Liujia",
        "name_zh": "六家",
        "class": "4",
        "address": "302052新竹縣竹北市隘口里復興三路二段 229 號",
        "phone": "03-5962042"
      },
      "geometry": {
        "type": "Point",
        "coordinates": [
          121.03941,
          24.80766
        ]
      }
    },
    {
      "type": "Feature",
      "properties": {
        "station_id": "1201",
        "name": "上員",
        "name_en": "Shangyuan",
        "name_zh": "上員",
        "class": "5",
        "address": "310021新竹縣竹東鎮上員里光明路 (無站房)",
        "phone": "03-5962042"
      },
      "geometry": {
        "type": "Point",
        "coordinates": [
          121.05582,
          24.77776
        ]
      }
    },
    {
      "type": "Feature",
      "properties": {
        "station_id": "1202",
        "name": "榮華",
        "name_en": "Ronghua",
        "name_zh": "榮華",
        "class": "5",
        "address": "310008新竹縣竹東鎮仁愛里北興路 (無站房)",
        "phone": "03-5962042"
      },
      "geometry": {
        "type": "Point",
        "coordinates": [
          121.08319,
          24.74839
        ]
      }
    },
    {
      "type": "Feature",
      "properties": {
        "station_id": "1203",
        "name": "竹東",
        "name_en": "Zhudong",
        "name_zh": "竹東",
        "class": "2",
        "address": "310007新竹縣竹東鎮雞林里東林路 196 號",
        "phone": "03-5962042"
      },
      "geometry": {
        "type": "Point",
        "coordinates": [
          121.09472,
          24.73823
        ]
      }
    },
    {
      "type": "Feature",
      "properties": {
        "station_id": "1204",
        "name": "橫山",
        "name_en": "Hengshan",
        "name_zh": "橫山",
        "class": "5",
        "address": "312001新竹縣橫山鄉橫山村橫山路 97 號 (無站房)",
        "phone": "03-5962042"
      },
      "geometry": {
        "type": "Point",
        "coordinates": [
          121.11772,
          24.72041
        ]
      }
    },
    {
      "type": "Feature",
      "properties": {
        "station_id": "1205",
        "name": "九讚頭",
        "name_en": "Jiuzantou",
        "name_zh": "九讚頭",
        "class": "4",
        "address": "312002新竹縣橫山鄉大肚村中豐路二段 286 巷 29 號",
        "phone": "03-5962042"
      },
      "geometry": {
        "type": "Point",
        "coordinates": [
          121.13622,
          24.72062
        ]
      }
    },
    {
      "type": "Feature",
      "properties": {
        "station_id": "1206",
        "name": "合興",
        "name_en": "Hexing",
        "name_zh": "合興",
        "class": "5",
        "address": "312003新竹縣橫山鄉力行村中山街一段 17 號",
        "phone": "03-5962042"
      },
      "geometry": {
        "type": "Point",
        "coordinates": [
          121.15437,
          24.71667
        ]
      }
    },
    {
      "type": "Feature",
      "properties": {
        "station_id": "1207",
        "name": "富貴",
        "name_en": "Fugui",
        "name_zh": "富貴",
        "class": "5",
        "address": "312003新竹縣橫山鄉豐田村中山街一段 (無站房)",
        "phone": "03-5962042"
      },
      "geometry": {
        "type": "Point",
        "coordinates": [
          121.16743,
          24.71551
        ]
      }
    },
    {
      "type": "Feature",
      "properties": {
        "station_id": "1208",
        "name": "內灣",
        "name_en": "Neiwan",
        "name_zh": "內灣",
        "class": "4",
        "address": "312003新竹縣橫山鄉內灣村中正路 6 號",
        "phone": "03-5962042"
      },
      "geometry": {
        "type": "Point",
        "coordinates": [
          121.18255,
          24.70535
        ]
      }
    },
    {
      "type": "Feature",
      "properties": {
        "station_id": "1210",
        "name": "新竹",
        "name_en": "Hsinchu",
        "name_zh": "新竹",
        "class": "1",
        "address": "300003新竹市 東區榮光里中華路二段 445 號",
        "phone": "03-5237441"
      },
      "geometry": {
        "type": "Point",
        "coordinates": [
          120.97157,
          24.80157
        ]
      }
    },
    {
      "type": "Feature",
      "properties": {
        "station_id": "1220",
        "name": "三姓橋",
        "name_en": "Sanxingqiao",
        "name_zh": "三姓橋",
        "class": "4",
        "address": "300109新竹市 香山區香山里元培街 32 巷 30 號",
        "phone": "03-5237441"
      },
      "geometry": {
        "type": "Point",
        "coordinates": [
          120.92844,
          24.78731
        ]
      }
    },
    {
      "type": "Feature",
      "properties": {
        "station_id": "1230",
        "name": "香山",
        "name_en": "Xiangshan",
        "name_zh": "香山",
        "class": "4",
        "address": "300111新竹市 香山區朝山里中華路五段 347 巷 2 弄 27 號",
        "phone": "03-5237441"
      },
      "geometry": {
        "type": "Point",
        "coordinates": [
          120.91388,
          24.76311
        ]
      }
    },
    {
      "type": "Feature",
      "properties": {
        "station_id": "1240",
        "name": "崎頂",
        "name_en": "Qiding",
        "name_zh": "崎頂",
        "class": "5",
        "address": "35054苗栗縣竹南鎮崎頂里北戶 55 號",
        "phone": "037-472030"
      },
      "geometry": {
        "type": "Point",
        "coordinates": [
          120.87183,
          24.72291
        ]
      }
    },
    {
      "type": "Feature",
      "properties": {
        "station_id": "1250",
        "name": "竹南",
        "name_en": "Zhunan",
        "name_zh": "竹南",
        "class": "1",
        "address": "350007苗栗縣竹南鎮竹南里中山路 166 號",
        "phone": "037-472030"
      },
      "geometry": {
        "type": "Point",
        "coordinates": [
          120.88091,
          24.68647
        ]
      }
    },
    {
      "type": "Feature",
      "properties": {
        "station_id": "2110",
        "name": "談文",
        "name_en": "Tanwen",
        "name_zh": "談文",
        "class": "5",
        "address": "36143苗栗縣造橋鄉談文村仁愛路 29 號",
        "phone": "037-472030"
      },
      "geometry": {
        "type": "Point",
        "coordinates": [
          120.85825,
          24.65641
        ]
      }
    },
    {
      "type": "Feature",
      "properties": {
        "station_id": "2120",
        "name": "大山",
        "name_en": "Dashan",
        "name_zh": "大山",
        "class": "4",
        "address": "35658苗栗縣後龍鎮大山里明山路 180 號",
        "phone": "037-431208"
      },
      "geometry": {
        "type": "Point",
        "coordinates": [
          120.80376,
          24.64565
        ]
      }
    },
    {
      "type": "Feature",
      "properties": {
        "station_id": "2130",
        "name": "後龍",
        "name_en": "Houlong",
        "name_zh": "後龍",
        "class": "3",
        "address": "35641苗栗縣後龍鎮北龍里車站街 127-2 號",
        "phone": "037-728616"
      },
      "geometry": {
        "type": "Point",
        "coordinates": [
          120.78731,
          24.61621
        ]
      }
    },
    {
      "type": "Feature",
      "properties": {
        "station_id": "2140",
        "name": "龍港",
        "name_en": "Longgang",
        "name_zh": "龍港",
        "class": "5",
        "address": "35668苗栗縣後龍鎮龍津里7鄰公司寮 85 號",
        "phone": "037-728616"
      },
      "geometry": {
        "type": "Point",
        "coordinates": [
          120.75812,
          24.61169
        ]
      }
    },
    {
      "type": "Feature",
      "properties": {
        "station_id": "2150",
        "name": "白沙屯",
        "name_en": "Baishatun",
        "name_zh": "白沙屯",
        "class": "3",
        "address": "35742苗栗縣通霄鎮白西里白西 131 號",
        "phone": "037-793066"
      },
      "geometry": {
        "type": "Point",
        "coordinates": [
          120.70824,
          24.56481
        ]
      }
    },
    {
      "type": "Feature",
      "properties": {
        "station_id": "2160",
        "name": "新埔",
        "name_en": "Xinpu",
        "name_zh": "新埔",
        "class": "4",
        "address": "35742苗栗縣通霄鎮新埔里新埔 57 號",
        "phone": "037-793930"
      },
      "geometry": {
        "type": "Point",
        "coordinates": [
          120.69518,
          24.54018
        ]
      }
    },
    {
      "type": "Feature",
      "properties": {
        "station_id": "2170",
        "name": "通霄",
        "name_en": "Tongxiao",
        "name_zh": "通霄",
        "class": "3",
        "address": "357006苗栗縣通霄鎮通西里中正路 109 號",
        "phone": "037-758300"
      },
      "geometry": {
        "type": "Point",
        "coordinates": [
          120.67843,
          24.49141
        ]
      }
    },
    {
      "type": "Feature",
      "properties": {
        "station_id": "2180",
        "name": "苑裡",
        "name_en": "Yuanli",
        "name_zh": "苑裡",
        "class": "3",
        "address": "358011苗栗縣苑裡鎮苑北里中山路 165 號",
        "phone": "037-851013"
      },
      "geometry": {
        "type": "Point",
        "coordinates": [
          120.65146,
          24.44344
        ]
      }
    },
    {
      "type": "Feature",
      "properties": {
        "station_id": "2190",
        "name": "日南",
        "name_en": "Rinan",
        "name_zh": "日南",
        "class": "4",
        "address": "437105臺中市大甲區孟春里中山路二段 140 巷 8 號",
        "phone": "04-26816113"
      },
      "geometry": {
        "type": "Point",
        "coordinates": [
          120.65412,
          24.37815
        ]
      }
    },
    {
      "type": "Feature",
      "properties": {
        "station_id": "2200",
        "name": "大甲",
        "name_en": "Dajia",
        "name_zh": "大甲",
        "class": "2",
        "address": "437003臺中市大甲區大甲里中山路一段 828 號",
        "phone": "04-26872022"
      },
      "geometry": {
        "type": "Point",
        "coordinates": [
          120.62702,
          24.34448
        ]
      }
    },
    {
      "type": "Feature",
      "properties": {
        "station_id": "2210",
        "name": "臺中港",
        "name_en": "Taichung Port",
        "name_zh": "臺中港",
        "class": "2",
        "address": "43642臺中市清水區頂湳里甲南路 2 號",
        "phone": "04-26225374"
      },
      "geometry": {
        "type": "Point",
        "coordinates": [
          120.60231,
          24.30441
        ]
      }
    },
    {
      "type": "Feature",
      "properties": {
        "station_id": "2220",
        "name": "清水",
        "name_en": "Qingshui",
        "name_zh": "清水",
        "class": "3",
        "address": "436109臺中市清水區南社里中正街 115 號",
        "phone": "04-26222021"
      },
      "geometry": {
        "type": "Point",
        "coordinates": [
          120.56918,
          24.26364
        ]
      }
    },
    {
      "type": "Feature",
      "properties": {
        "station_id": "2230",
        "name": "沙鹿",
        "name_en": "Shalu",
        "name_zh": "沙鹿",
        "class": "2",
        "address": "43353臺中市沙鹿區沙鹿里中正街 94 號",
        "phone": "04-26625057"
      },
      "geometry": {
        "type": "Point",
        "coordinates": [
          120.55752,
          24.23702
        ]
      }
    },
    {
      "type": "Feature",
      "properties": {
        "station_id": "2240",
        "name": "龍井",
        "name_en": "Longjing",
        "name_zh": "龍井",
        "class": "3",
        "address": "43450臺中市龍井區龍泉里龍新路 1 號",
        "phone": "04-26355578"
      },
      "geometry": {
        "type": "Point",
        "coordinates": [
          120.54335,
          24.19748
        ]
      }
    },
    {
      "type": "Feature",
      "properties": {
        "station_id": "2250",
        "name": "大肚",
        "name_en": "Dadu",
        "name_zh": "大肚",
        "class": "3",
        "address": "43242臺中市大肚區頂街里平和街 121 號",
        "phone": "04-26992523"
      },
      "geometry": {
        "type": "Point",
        "coordinates": [
          120.54249,
          24.15417
        ]
      }
    },
    {
      "type": "Feature",
      "properties": {
        "station_id": "2260",
        "name": "追分",
        "name_en": "Zhuifen",
        "name_zh": "追分",
        "class": "3",
        "address": "43245臺中市大肚區王田里追分街 13 號",
        "phone": "04-26933106"
      },
      "geometry": {
        "type": "Point",
        "coordinates": [
          120.57018,
          24.12051
        ]
      }
    },
    {
      "type": "Feature",
      "properties": {
        "station_id": "3140",
        "name": "造橋",
        "name_en": "Zaoqiao",
        "name_zh": "造橋",
        "class": "5",
        "address": "36144苗栗縣造橋鄉造橋村平仁路 54 號",
        "phone": "037-472030"
      },
      "geometry": {
        "type": "Point",
        "coordinates": [
          120.86721,
          24.64186
        ]
      }
    },
    {
      "type": "Feature",
      "properties": {
        "station_id": "3150",
        "name": "豐富",
        "name_en": "Fengfu",
        "name_zh": "豐富",
        "class": "4",
        "address": "356002苗栗縣後龍鎮校椅里高鐵一路 66 號",
        "phone": "037-726700"
      },
      "geometry": {
        "type": "Point",
        "coordinates": [
          120.82637,
          24.60429
        ]
      }
    },
    {
      "type": "Feature",
      "properties": {
        "station_id": "3160",
        "name": "苗栗",
        "name_en": "Miaoli",
        "name_zh": "苗栗",
        "class": "1",
        "address": "360003苗栗縣苗栗市上苗里為公路 1 號",
        "phone": "037-260031"
      },
      "geometry": {
        "type": "Point",
        "coordinates": [
          120.82233,
          24.57001
        ]
      }
    },
    {
      "type": "Feature",
      "properties": {
        "station_id": "3170",
        "name": "南勢",
        "name_en": "Nanshi",
        "name_zh": "南勢",
        "class": "5",
        "address": "360023苗栗縣苗栗市新英里南勢 39 號",
        "phone": "037-260031"
      },
      "geometry": {
        "type": "Point",
        "coordinates": [
          120.79154,
          24.52246
        ]
      }
    },
    {
      "type": "Feature",
      "properties": {
        "station_id": "3180",
        "name": "銅鑼",
        "name_en": "Tongluo",
        "name_zh": "銅鑼",
        "class": "3",
        "address": "36641苗栗縣銅鑼鄉銅鑼村大同路13號",
        "phone": "037-983838"
      },
      "geometry": {
        "type": "Point",
        "coordinates": [
          120.78591,
          24.48713
        ]
      }
    },
    {
      "type": "Feature",
      "properties": {
        "station_id": "3190",
        "name": "三義",
        "name_en": "Sanyi",
        "name_zh": "三義",
        "class": "3",
        "address": "367001苗栗縣三義鄉雙湖村雙湖 90 號",
        "phone": "037-874763"
      },
      "geometry": {
        "type": "Point",
        "coordinates": [
          120.77393,
          24.42066
        ]
      }
    },
    {
      "type": "Feature",
      "properties": {
        "station_id": "3210",
        "name": "泰安",
        "name_en": "Tai'an",
        "name_zh": "泰安",
        "class": "4",
        "address": "42156臺中市后里區泰安里安眉路 37 之 12 號",
        "phone": "04-25586540"
      },
      "geometry": {
        "type": "Point",
        "coordinates": [
          120.74181,
          24.33146
        ]
      }
    },
    {
      "type": "Feature",
      "properties": {
        "station_id": "3220",
        "name": "后里",
        "name_en": "Houli",
        "name_zh": "后里",
        "class": "3",
        "address": "42142臺中市后里區義里里甲后路一段 1 號",
        "phone": "04-25562038"
      },
      "geometry": {
        "type": "Point",
        "coordinates": [
          120.73288,
          24.30933
        ]
      }
    },
    {
      "type": "Feature",
      "properties": {
        "station_id": "3230",
        "name": "豐原",
        "name_en": "Fengyuan",
        "name_zh": "豐原",
        "class": "1",
        "address": "420020臺中市豐原區豐原里中正路 1-1號",
        "phone": "04-25207950#32"
      },
      "geometry": {
        "type": "Point",
        "coordinates": [
          120.72374,
          24.25438
        ]
      }
    },
    {
      "type": "Feature",
      "properties": {
        "station_id": "3240",
        "name": "栗林",
        "name_en": "Lilin",
        "name_zh": "栗林",
        "class": "4",
        "address": "427001臺中市潭子區潭豐路二段747號",
        "phone": "04-25391401"
      },
      "geometry": {
        "type": "Point",
        "coordinates": [
          120.7106,
          24.23461
        ]
      }
    },
    {
      "type": "Feature",
      "properties": {
        "station_id": "3250",
        "name": "潭子",
        "name_en": "Tanzi",
        "name_zh": "潭子",
        "class": "3",
        "address": "42751臺中市潭子區中山路二段352-1號",
        "phone": "04-25363852"
      },
      "geometry": {
        "type": "Point",
        "coordinates": [
          120.70564,
          24.21214
        ]
      }
    },
    {
      "type": "Feature",
      "properties": {
        "station_id": "3260",
        "name": "頭家厝",
        "name_en": "Toujiacuo",
        "name_zh": "頭家厝",
        "class": "4",
        "address": "42745臺中市潭子區頭張東路43巷8號",
        "phone": "04-25391426"
      },
      "geometry": {
        "type": "Point",
        "coordinates": [
          120.70398,
          24.19572
        ]
      }
    },
    {
      "type": "Feature",
      "properties": {
        "station_id": "3270",
        "name": "松竹",
        "name_en": "Songzhu",
        "name_zh": "松竹",
        "class": "4",
        "address": "406015臺中市北屯區舊社里松竹路一段1473巷100號",
        "phone": "04-22473033"
      },
      "geometry": {
        "type": "Point",
        "coordinates": [
          120.70193,
          24.18035
        ]
      }
    },
    {
      "type": "Feature",
      "properties": {
        "station_id": "3280",
        "name": "太原",
        "name_en": "Taiyuan",
        "name_zh": "太原",
        "class": "4",
        "address": "406008臺中市北屯區北興里東光路 665 號",
        "phone": "04-22313926"
      },
      "geometry": {
        "type": "Point",
        "coordinates": [
          120.69988,
          24.16449
        ]
      }
    },
    {
      "type": "Feature",
      "properties": {
        "station_id": "3290",
        "name": "精武",
        "name_en": "Jingwu",
        "name_zh": "精武",
        "class": "4",
        "address": "401005臺中市東區東南里東光路 161號",
        "phone": "04-23606501"
      },
      "geometry": {
        "type": "Point",
        "coordinates": [
          120.69784,
          24.14887
        ]
      }
    },
    {
      "type": "Feature",
      "properties": {
        "station_id": "3300",
        "name": "臺中",
        "name_en": "Taichung",
        "name_zh": "臺中",
        "class": "0",
        "address": "400005臺中市中區綠川里臺灣大道一段 1 號",
        "phone": "04-22227236"
      },
      "geometry": {
        "type": "Point",
        "coordinates": [
          120.68691,
          24.13728
        ]
      }
    },
    {
      "type": "Feature",
      "properties": {
        "station_id": "3310",
        "name": "五權",
        "name_en": "Wuquan",
        "name_zh": "五權",
        "class": "4",
        "address": "402019臺中市南區建國南路二段201號",
        "phone": "04-22601636"
      },
      "geometry": {
        "type": "Point",
        "coordinates": [
          120.66654,
          24.12877
        ]
      }
    },
    {
      "type": "Feature",
      "properties": {
        "station_id": "3320",
        "name": "大慶",
        "name_en": "Daqing",
        "name_zh": "大慶",
        "class": "4",
        "address": "402026臺中市南區樹德里7鄰大慶街2段130號",
        "phone": "04-22637940"
      },
      "geometry": {
        "type": "Point",
        "coordinates": [
          120.64795,
          24.11911
        ]
      }
    },
    {
      "type": "Feature",
      "properties": {
        "station_id": "3330",
        "name": "烏日",
        "name_en": "Wuri",
        "name_zh": "烏日",
        "class": "4",
        "address": "41442臺中市烏日區烏日里三民街 258 號",
        "phone": "04-23381071"
      },
      "geometry": {
        "type": "Point",
        "coordinates": [
          120.62244,
          24.10867
        ]
      }
    },
    {
      "type": "Feature",
      "properties": {
        "station_id": "3340",
        "name": "新烏日",
        "name_en": "Xinwuri",
        "name_zh": "新烏日",
        "class": "2",
        "address": "41456臺中市烏日區三和里高鐵東一路 26 號",
        "phone": "04-23376883"
      },
      "geometry": {
        "type": "Point",
        "coordinates": [
          120.61421,
          24.10937
        ]
      }
    },
    {
      "type": "Feature",
      "properties": {
        "station_id": "3350",
        "name": "成功",
        "name_en": "Chenggong",
        "name_zh": "成功",
        "class": "3",
        "address": "414012臺中市烏日區榮泉里中山路三段 550 號",
        "phone": "04-23371986"
      },
      "geometry": {
        "type": "Point",
        "coordinates": [
          120.59021,
          24.11424
        ]
      }
    },
    {
      "type": "Feature",
      "properties": {
        "station_id": "3360",
        "name": "彰化",
        "name_en": "Changhua",
        "name_zh": "彰化",
        "class": "1",
        "address": "500003彰化縣彰化市長樂里三民路 1 號",
        "phone": "04-7274218#11"
      },
      "geometry": {
        "type": "Point",
        "coordinates": [
          120.53854,
          24.08177
        ]
      }
    },
    {
      "type": "Feature",
      "properties": {
        "station_id": "3370",
        "name": "花壇",
        "name_en": "Huatan",
        "name_zh": "花壇",
        "class": "4",
        "address": "503009彰化縣花壇鄉花壇村中正路 370 號",
        "phone": "04-7881418"
      },
      "geometry": {
        "type": "Point",
        "coordinates": [
          120.53742,
          24.02502
        ]
      }
    },
    {
      "type": "Feature",
      "properties": {
        "station_id": "3380",
        "name": "大村",
        "name_en": "Dacun",
        "name_zh": "大村",
        "class": "4",
        "address": "515002彰化縣大村鄉過溝村福進路 100 號",
        "phone": "04-8525148"
      },
      "geometry": {
        "type": "Point",
        "coordinates": [
          120.56062,
          23.99002
        ]
      }
    },
    {
      "type": "Feature",
      "properties": {
        "station_id": "3390",
        "name": "員林",
        "name_en": "Yuanlin",
        "name_zh": "員林",
        "class": "1",
        "address": "510001彰化縣員林市和平里民權街 55 號",
        "phone": "04-8320544#14"
      },
      "geometry": {
        "type": "Point",
        "coordinates": [
          120.56977,
          23.95947
        ]
      }
    },
    {
      "type": "Feature",
      "properties": {
        "station_id": "3400",
        "name": "永靖",
        "name_en": "Yongjing",
        "name_zh": "永靖",
        "class": "5",
        "address": "512001彰化縣永靖鄉崙子村崙饒路25 號",
        "phone": "04-8320544#15"
      },
      "geometry": {
        "type": "Point",
        "coordinates": [
          120.57173,
          23.92808
        ]
      }
    },
    {
      "type": "Feature",
      "properties": {
        "station_id": "3410",
        "name": "社頭",
        "name_en": "Shetou",
        "name_zh": "社頭",
        "class": "3",
        "address": "511009彰化縣社頭鄉廣興村社站路 10 號",
        "phone": "04-8711646"
      },
      "geometry": {
        "type": "Point",
        "coordinates": [
          120.58077,
          23.89573
        ]
      }
    },
    {
      "type": "Feature",
      "properties": {
        "station_id": "3420",
        "name": "田中",
        "name_en": "Tianzhong",
        "name_zh": "田中",
        "class": "2",
        "address": "520022彰化縣田中鎮中路里中州路一段 1 號",
        "phone": "04-8742142"
      },
      "geometry": {
        "type": "Point",
        "coordinates": [
          120.59146,
          23.85843
        ]
      }
    },
    {
      "type": "Feature",
      "properties": {
        "station_id": "3430",
        "name": "二水",
        "name_en": "Ershui",
        "name_zh": "二水",
        "class": "2",
        "address": "530018彰化縣二水鄉光化村光文路 1 號",
        "phone": "04-8792027"
      },
      "geometry": {
        "type": "Point",
        "coordinates": [
          120.61805,
          23.81321
        ]
      }
    },
    {
      "type": "Feature",
      "properties": {
        "station_id": "3431",
        "name": "源泉",
        "name_en": "Yuanquan",
        "name_zh": "源泉",
        "class": "5",
        "address": "530017彰化縣二水鄉合興村英義路 (無站房)",
        "phone": "04-8792027"
      },
      "geometry": {
        "type": "Point",
        "coordinates": [
          120.64211,
          23.79845
        ]
      }
    },
    {
      "type": "Feature",
      "properties": {
        "station_id": "3432",
        "name": "濁水",
        "name_en": "Zhuoshui",
        "name_zh": "濁水",
        "class": "4",
        "address": "551001南投縣名間鄉濁水村車站路 15 號",
        "phone": "049-2735850"
      },
      "geometry": {
        "type": "Point",
        "coordinates": [
          120.70467,
          23.83467
        ]
      }
    },
    {
      "type": "Feature",
      "properties": {
        "station_id": "3433",
        "name": "龍泉",
        "name_en": "Longquan",
        "name_zh": "龍泉",
        "class": "5",
        "address": "552003南投縣集集鎮隘寮村龍泉巷 (無站房)",
        "phone": "04-8792027"
      },
      "geometry": {
        "type": "Point",
        "coordinates": [
          120.75014,
          23.83521
        ]
      }
    },
    {
      "type": "Feature",
      "properties": {
        "station_id": "3434",
        "name": "集集",
        "name_en": "Jiji",
        "name_zh": "集集",
        "class": "5",
        "address": "552001南投縣集集鎮吳厝里民生路 75 號",
        "phone": "049-2762546"
      },
      "geometry": {
        "type": "Point",
        "coordinates": [
          120.78495,
          23.82647
        ]
      }
    },
    {
      "type": "Feature",
      "properties": {
        "station_id": "3435",
        "name": "水里",
        "name_en": "Shuili",
        "name_zh": "水里",
        "class": "4",
        "address": "553001南投縣水里鄉水里村民生路 440 號",
        "phone": "049-2770015"
      },
      "geometry": {
        "type": "Point",
        "coordinates": [
          120.85332,
          23.81845
        ]
      }
    },
    {
      "type": "Feature",
      "properties": {
        "station_id": "3436",
        "name": "車埕",
        "name_en": "Checheng",
        "name_zh": "車埕",
        "class": "5",
        "address": "553004南投縣水里鄉車埕村民權巷 2 號",
        "phone": "049-2774749"
      },
      "geometry": {
        "type": "Point",
        "coordinates": [
          120.86572,
          23.83263
        ]
      }
    },
    {
      "type": "Feature",
      "properties": {
        "station_id": "3450",
        "name": "林內",
        "name_en": "Linnei",
        "name_zh": "林內",
        "class": "3",
        "address": "643001雲林縣林內鄉林中村中山路 42 號",
        "phone": "05-5892040"
      },
      "geometry": {
        "type": "Point",
        "coordinates": [
          120.61499,
          23.75967
        ]
      }
    },
    {
      "type": "Feature",
      "properties": {
        "station_id": "3460",
        "name": "石榴",
        "name_en": "Shiliu",
        "name_zh": "石榴",
        "class": "5",
        "address": "640155雲林縣斗六市榴北里文明路 31 號",
        "phone": "05-5332900"
      },
      "geometry": {
        "type": "Point",
        "coordinates": [
          120.57998,
          23.73167
        ]
      }
    },
    {
      "type": "Feature",
      "properties": {
        "station_id": "3470",
        "name": "斗六",
        "name_en": "Douliu",
        "name_zh": "斗六",
        "class": "1",
        "address": "640010雲林縣斗六市信義里民生路 187 號",
        "phone": "05-5332900"
      },
      "geometry": {
        "type": "Point",
        "coordinates": [
          120.54099,
          23.71184
        ]
      }
    },
    {
      "type": "Feature",
      "properties": {
        "station_id": "3480",
        "name": "斗南",
        "name_en": "Dounan",
        "name_zh": "斗南",
        "class": "2",
        "address": "630042雲林縣斗南鎮南昌里中山路 2 號",
        "phone": "05-5972039"
      },
      "geometry": {
        "type": "Point",
        "coordinates": [
          120.48089,
          23.67257
        ]
      }
    },
    {
      "type": "Feature",
      "properties": {
        "station_id": "3490",
        "name": "石龜",
        "name_en": "Shigui",
        "name_zh": "石龜",
        "class": "5",
        "address": "630雲林縣斗南鎮石龜里",
        "phone": "05-5972039"
      },
      "geometry": {
        "type": "Point",
        "coordinates": [
          120.47106,
          23.63951
        ]
      }
    },
    {
      "type": "Feature",
      "properties": {
        "station_id": "4050",
        "name": "大林",
        "name_en": "Dalin",
        "name_zh": "大林",
        "class": "3",
        "address": "622002嘉義縣大林鎮吉林里中山路 2 號",
        "phone": "05-2654804"
      },
      "geometry": {
        "type": "Point",
        "coordinates": [
          120.45597,
          23.60089
        ]
      }
    },
    {
      "type": "Feature",
      "properties": {
        "station_id": "4060",
        "name": "民雄",
        "name_en": "Minxiong",
        "name_zh": "民雄",
        "class": "3",
        "address": "621002嘉義縣民雄鄉東榮村和平路 2 號",
        "phone": "05-2264272"
      },
      "geometry": {
        "type": "Point",
        "coordinates": [
          120.43165,
          23.55522
        ]
      }
    },
    {
      "type": "Feature",
      "properties": {
        "station_id": "4070",
        "name": "嘉北",
        "name_en": "Jiabei",
        "name_zh": "嘉北",
        "class": "4",
        "address": "600050嘉義市 東區後湖里保建街 110 號",
        "phone": "05-2334584"
      },
      "geometry": {
        "type": "Point",
        "coordinates": [
          120.44851,
          23.49981
        ]
      }
    },
    {
      "type": "Feature",
      "properties": {
        "station_id": "4080",
        "name": "嘉義",
        "name_en": "Chiayi",
        "name_zh": "嘉義",
        "class": "1",
        "address": "600006嘉義市 西區番社里中山路 528 號",
        "phone": "05-2228904"
      },
      "geometry": {
        "type": "Point",
        "coordinates": [
          120.44061,
          23.47927
        ]
      }
    },
    {
      "type": "Feature",
      "properties": {
        "station_id": "4090",
        "name": "水上",
        "name_en": "Shuishang",
        "name_zh": "水上",
        "class": "4",
        "address": "608001嘉義縣水上鄉粗溪村68號",
        "phone": "05-2228904"
      },
      "geometry": {
        "type": "Point",
        "coordinates": [
          120.39971,
          23.43398
        ]
      }
    },
    {
      "type": "Feature",
      "properties": {
        "station_id": "4100",
        "name": "南靖",
        "name_en": "Nanjing",
        "name_zh": "南靖",
        "class": "4",
        "address": "608009嘉義縣水上鄉三鎮村三鎮路 26 號",
        "phone": "05-2601232"
      },
      "geometry": {
        "type": "Point",
        "coordinates": [
          120.38654,
          23.41344
        ]
      }
    },
    {
      "type": "Feature",
      "properties": {
        "station_id": "4110",
        "name": "後壁",
        "name_en": "Houbi",
        "name_zh": "後壁",
        "class": "4",
        "address": "731022臺南市後壁區後壁里後壁 77 號",
        "phone": "06-6872055"
      },
      "geometry": {
        "type": "Point",
        "coordinates": [
          120.36058,
          23.36626
        ]
      }
    },
    {
      "type": "Feature",
      "properties": {
        "station_id": "4120",
        "name": "新營",
        "name_en": "Xinying",
        "name_zh": "新營",
        "class": "1",
        "address": "730005臺南市新營區中營里中山路 1 號",
        "phone": "06-6322104"
      },
      "geometry": {
        "type": "Point",
        "coordinates": [
          120.32307,
          23.30673
        ]
      }
    },
    {
      "type": "Feature",
      "properties": {
        "station_id": "4130",
        "name": "柳營",
        "name_en": "Liuying",
        "name_zh": "柳營",
        "class": "4",
        "address": "736002臺南市柳營區東昇里建國路 1 號",
        "phone": "06-6226450"
      },
      "geometry": {
        "type": "Point",
        "coordinates": [
          120.32252,
          23.27762
        ]
      }
    },
    {
      "type": "Feature",
      "properties": {
        "station_id": "4140",
        "name": "林鳳營",
        "name_en": "Linfengying",
        "name_zh": "林鳳營",
        "class": "4",
        "address": "734004臺南市六甲區中社里林鳳營 16 號",
        "phone": "06-6986086"
      },
      "geometry": {
        "type": "Point",
        "coordinates": [
          120.32107,
          23.24259
        ]
      }
    },
    {
      "type": "Feature",
      "properties": {
        "station_id": "4150",
        "name": "隆田",
        "name_en": "Longtian",
        "name_zh": "隆田",
        "class": "2",
        "address": "720001臺南市官田區隆田里中山路一段 1 號",
        "phone": "06-5791664"
      },
      "geometry": {
        "type": "Point",
        "coordinates": [
          120.31917,
          23.19271
        ]
      }
    },
    {
      "type": "Feature",
      "properties": {
        "station_id": "4160",
        "name": "拔林",
        "name_en": "Balin",
        "name_zh": "拔林",
        "class": "5",
        "address": "720004臺南市官田區拔林里拔子林 83 之 1 號",
        "phone": "06-5791664"
      },
      "geometry": {
        "type": "Point",
        "coordinates": [
          120.32125,
          23.17284
        ]
      }
    },
    {
      "type": "Feature",
      "properties": {
        "station_id": "4170",
        "name": "善化",
        "name_en": "Shanhua",
        "name_zh": "善化",
        "class": "2",
        "address": "741001臺南市善化區光文里中山路 1 號",
        "phone": "06-5837301"
      },
      "geometry": {
        "type": "Point",
        "coordinates": [
          120.30653,
          23.13333
        ]
      }
    },
    {
      "type": "Feature",
      "properties": {
        "station_id": "4180",
        "name": "南科",
        "name_en": "Nanke",
        "name_zh": "南科",
        "class": "4",
        "address": "744008臺南市新市區大營里大營 287-300 號",
        "phone": "06-5896356"
      },
      "geometry": {
        "type": "Point",
        "coordinates": [
          120.30202,
          23.10726
        ]
      }
    },
    {
      "type": "Feature",
      "properties": {
        "station_id": "4190",
        "name": "新市",
        "name_en": "Xinshi",
        "name_zh": "新市",
        "class": "3",
        "address": "744004臺南市新市區新和里中華路 1 號",
        "phone": "06-5996911"
      },
      "geometry": {
        "type": "Point",
        "coordinates": [
          120.29004,
          23.06823
        ]
      }
    },
    {
      "type": "Feature",
      "properties": {
        "station_id": "4200",
        "name": "永康",
        "name_en": "Yongkang",
        "name_zh": "永康",
        "class": "2",
        "address": "710017臺南市永康區埔園里中山路 459 號",
        "phone": "06-2323305"
      },
      "geometry": {
        "type": "Point",
        "coordinates": [
          120.25347,
          23.03825
        ]
      }
    },
    {
      "type": "Feature",
      "properties": {
        "station_id": "4210",
        "name": "大橋",
        "name_en": "Daqiao",
        "name_zh": "大橋",
        "class": "4",
        "address": "710009臺南市永康區西橋里中華路 835 號",
        "phone": "06-3021755"
      },
      "geometry": {
        "type": "Point",
        "coordinates": [
          120.22429,
          23.01923
        ]
      }
    },
    {
      "type": "Feature",
      "properties": {
        "station_id": "4220",
        "name": "臺南",
        "name_en": "Tainan",
        "name_zh": "臺南",
        "class": "1",
        "address": "701014臺南市東區成大里北門路二段4號",
        "phone": "06-2261314"
      },
      "geometry": {
        "type": "Point",
        "coordinates": [
          120.21295,
          22.99681
        ]
      }
    },
    {
      "type": "Feature",
      "properties": {
        "station_id": "4250",
        "name": "保安",
        "name_en": "Bao'an",
        "name_zh": "保安",
        "class": "3",
        "address": "717015臺南市仁德區保安里文賢路一段 529 巷 10 號",
        "phone": "06-2665988"
      },
      "geometry": {
        "type": "Point",
        "coordinates": [
          120.23158,
          22.93296
        ]
      }
    },
    {
      "type": "Feature",
      "properties": {
        "station_id": "4260",
        "name": "仁德",
        "name_en": "Rende",
        "name_zh": "仁德",
        "class": "4",
        "address": "717010臺南市仁德區保安里永德路 10 號",
        "phone": "06-2669383"
      },
      "geometry": {
        "type": "Point",
        "coordinates": [
          120.24054,
          22.92354
        ]
      }
    },
    {
      "type": "Feature",
      "properties": {
        "station_id": "4270",
        "name": "中洲",
        "name_en": "Zhongzhou",
        "name_zh": "中洲",
        "class": "2",
        "address": "717014臺南市仁德區中洲五街236號",
        "phone": "06-2667191"
      },
      "geometry": {
        "type": "Point",
        "coordinates": [
          120.25284,
          22.90446
        ]
      }
    },
    {
      "type": "Feature",
      "properties": {
        "station_id": "4271",
        "name": "長榮大學",
        "name_en": "Chang Jung Christian University",
        "name_zh": "長榮大學",
        "class": "4",
        "address": "711010臺南市歸仁區大潭里長大路15 號",
        "phone": "06-2782615"
      },
      "geometry": {
        "type": "Point",
        "coordinates": [
          120.27263,
          22.90729
        ]
      }
    },
    {
      "type": "Feature",
      "properties": {
        "station_id": "4272",
        "name": "沙崙",
        "name_en": "Shalun",
        "name_zh": "沙崙",
        "class": "4",
        "address": "711010臺南市歸仁區沙崙里歸仁大道 102 號",
        "phone": "06-3032686"
      },
      "geometry": {
        "type": "Point",
        "coordinates": [
          120.28622,
          22.92407
        ]
      }
    },
    {
      "type": "Feature",
      "properties": {
        "station_id": "4290",
        "name": "大湖",
        "name_en": "Dahu",
        "name_zh": "大湖",
        "class": "3",
        "address": "821004高雄市路竹區甲南里天祐路 24 號",
        "phone": "07-6932127"
      },
      "geometry": {
        "type": "Point",
        "coordinates": [
          120.25384,
          22.87821
        ]
      }
    },
    {
      "type": "Feature",
      "properties": {
        "station_id": "4300",
        "name": "路竹",
        "name_en": "Luzhu",
        "name_zh": "路竹",
        "class": "3",
        "address": "821006高雄市路竹區竹南里中正路 288 號",
        "phone": "07-6072723"
      },
      "geometry": {
        "type": "Point",
        "coordinates": [
          120.26619,
          22.85404
        ]
      }
    },
    {
      "type": "Feature",
      "properties": {
        "station_id": "4310",
        "name": "岡山",
        "name_en": "Gangshan",
        "name_zh": "岡山",
        "class": "1",
        "address": "820102高雄市岡山區碧紅里岡燕路 111 號",
        "phone": "07-6212074"
      },
      "geometry": {
        "type": "Point",
        "coordinates": [
          120.30004,
          22.79223
        ]
      }
    },
    {
      "type": "Feature",
      "properties": {
        "station_id": "4320",
        "name": "橋頭",
        "name_en": "Qiaotou",
        "name_zh": "橋頭",
        "class": "3",
        "address": "825008高雄市橋頭區橋頭里站前街 14 號",
        "phone": "07-6115424"
      },
      "geometry": {
        "type": "Point",
        "coordinates": [
          120.31011,
          22.76098
        ]
      }
    },
    {
      "type": "Feature",
      "properties": {
        "station_id": "4330",
        "name": "楠梓",
        "name_en": "Nanzi",
        "name_zh": "楠梓",
        "class": "2",
        "address": "811022高雄市楠梓區惠楠里建楠路 229 號",
        "phone": "07-3510175"
      },
      "geometry": {
        "type": "Point",
        "coordinates": [
          120.32425,
          22.72696
        ]
      }
    },
    {
      "type": "Feature",
      "properties": {
        "station_id": "4340",
        "name": "新左營",
        "name_en": "Xinzuoying",
        "name_zh": "新左營",
        "class": "1",
        "address": "813014高雄市左營區尾北里站前北路 1 號",
        "phone": "07-5887825"
      },
      "geometry": {
        "type": "Point",
        "coordinates": [
          120.30678,
          22.68754
        ]
      }
    },
    {
      "type": "Feature",
      "properties": {
        "station_id": "4350",
        "name": "左營",
        "name_en": "Zuoying",
        "name_zh": "左營",
        "class": "4",
        "address": "813014高雄市左營區翠華路1050號地下1層",
        "phone": "07-5887835"
      },
      "geometry": {
        "type": "Point",
        "coordinates": [
          120.29401,
          22.67445
        ]
      }
    },
    {
      "type": "Feature",
      "properties": {
        "station_id": "4360",
        "name": "內惟",
        "name_en": "Neiwei",
        "name_zh": "內惟",
        "class": "4",
        "address": "804056高雄市鼓山區翠華路500號地下1層",
        "phone": "07-5886119"
      },
      "geometry": {
        "type": "Point",
        "coordinates": [
          120.28701,
          22.66589
        ]
      }
    },
    {
      "type": "Feature",
      "properties": {
        "station_id": "4370",
        "name": "美術館",
        "name_en": "Museum of Fine Arts",
        "name_zh": "美術館",
        "class": "4",
        "address": "804016高雄市鼓山區翠華路246號",
        "phone": "07-5215147"
      },
      "geometry": {
        "type": "Point",
        "coordinates": [
          120.28148,
          22.65185
        ]
      }
    },
    {
      "type": "Feature",
      "properties": {
        "station_id": "4380",
        "name": "鼓山",
        "name_en": "Gushan",
        "name_zh": "鼓山",
        "class": "4",
        "address": "804005高雄市鼓山區鐵路街20巷6號",
        "phone": "07-5217014"
      },
      "geometry": {
        "type": "Point",
        "coordinates": [
          120.28071,
          22.64181
        ]
      }
    },
    {
      "type": "Feature",
      "properties": {
        "station_id": "4390",
        "name": "三塊厝",
        "name_en": "Sankuaicuo",
        "name_zh": "三塊厝",
        "class": "4",
        "address": "807008高雄市三民區德北里6鄰康平街1號",
        "phone": "07-2856234"
      },
      "geometry": {
        "type": "Point",
        "coordinates": [
          120.29414,
          22.63931
        ]
      }
    },
    {
      "type": "Feature",
      "properties": {
        "station_id": "4400",
        "name": "高雄",
        "name_en": "Kaohsiung",
        "name_zh": "高雄",
        "class": "0",
        "address": "807001高雄市三民區港西里建國二路 318 號",
        "phone": "07-2352376"
      },
      "geometry": {
        "type": "Point",
        "coordinates": [
          120.30292,
          22.63946
        ]
      }
    },
    {
      "type": "Feature",
      "properties": {
        "station_id": "4410",
        "name": "民族",
        "name_en": "Minzu",
        "name_zh": "民族",
        "class": "4",
        "address": "807027高雄市三民區博惠里14鄰凱旋一路260號",
        "phone": "07-2231492"
      },
      "geometry": {
        "type": "Point",
        "coordinates": [
          120.31494,
          22.63879
        ]
      }
    },
    {
      "type": "Feature",
      "properties": {
        "station_id": "4420",
        "name": "科工館",
        "name_en": "Science And Technology Museum",
        "name_zh": "科工館",
        "class": "4",
        "address": "807031高雄市三民區寶盛里15鄰大順三路307號",
        "phone": "07-2234778"
      },
      "geometry": {
        "type": "Point",
        "coordinates": [
          120.32603,
          22.63709
        ]
      }
    },
    {
      "type": "Feature",
      "properties": {
        "station_id": "4430",
        "name": "正義",
        "name_en": "Zhengyi",
        "name_zh": "正義",
        "class": "4",
        "address": "802001高雄市苓雅區建軍里正義路 308 號 B1",
        "phone": "07-7999818"
      },
      "geometry": {
        "type": "Point",
        "coordinates": [
          120.34245,
          22.63425
        ]
      }
    },
    {
      "type": "Feature",
      "properties": {
        "station_id": "4440",
        "name": "鳳山",
        "name_en": "Fongshan",
        "name_zh": "鳳山",
        "class": "2",
        "address": "830025高雄市鳳山區曹公里曹公路 137 號",
        "phone": "07-7460423"
      },
      "geometry": {
        "type": "Point",
        "coordinates": [
          120.35745,
          22.63145
        ]
      }
    },
    {
      "type": "Feature",
      "properties": {
        "station_id": "4450",
        "name": "後庄",
        "name_en": "Houzhuang",
        "name_zh": "後庄",
        "class": "4",
        "address": "831115高雄市大寮區後庄里民慶街 9 號",
        "phone": "07-7020149"
      },
      "geometry": {
        "type": "Point",
        "coordinates": [
          120.39131,
          22.64016
        ]
      }
    },
    {
      "type": "Feature",
      "properties": {
        "station_id": "4460",
        "name": "九曲堂",
        "name_en": "Jiuqutang",
        "name_zh": "九曲堂",
        "class": "3",
        "address": "840001高雄市大樹區久堂里久堂路鐵路巷 15 號",
        "phone": "07-6512020"
      },
      "geometry": {
        "type": "Point",
        "coordinates": [
          120.42089,
          22.65641
        ]
      }
    },
    {
      "type": "Feature",
      "properties": {
        "station_id": "4470",
        "name": "六塊厝",
        "name_en": "Liukuaicuo",
        "name_zh": "六塊厝",
        "class": "5",
        "address": "900008屏東縣屏東市長安里光復路 392 號",
        "phone": "08-7515140"
      },
      "geometry": {
        "type": "Point",
        "coordinates": [
          120.46497,
          22.66597
        ]
      }
    },
    {
      "type": "Feature",
      "properties": {
        "station_id": "5000",
        "name": "屏東",
        "name_en": "Pingtung",
        "name_zh": "屏東",
        "class": "1",
        "address": "900011屏東縣屏東市建國里公勇路 62 號",
        "phone": "08-7515140"
      },
      "geometry": {
        "type": "Point",
        "coordinates": [
          120.48617,
          22.66905
        ]
      }
    },
    {
      "type": "Feature",
      "properties": {
        "station_id": "5010",
        "name": "歸來",
        "name_en": "Guilai",
        "name_zh": "歸來",
        "class": "5",
        "address": "900002屏東縣屏東市歸心里歸仁路 5 之 4 號",
        "phone": "08-7515140"
      },
      "geometry": {
        "type": "Point",
        "coordinates": [
          120.50263,
          22.65246
        ]
      }
    },
    {
      "type": "Feature",
      "properties": {
        "station_id": "5020",
        "name": "麟洛",
        "name_en": "Linluo",
        "name_zh": "麟洛",
        "class": "5",
        "address": "909141屏東縣麟洛鄉田道村中華路站前巷 15 號",
        "phone": "08-7515140"
      },
      "geometry": {
        "type": "Point",
        "coordinates": [
          120.51432,
          22.63481
        ]
      }
    },
    {
      "type": "Feature",
      "properties": {
        "station_id": "5030",
        "name": "西勢",
        "name_en": "Xishi",
        "name_zh": "西勢",
        "class": "3",
        "address": "911165屏東縣竹田鄉西勢村西豐路 2 號",
        "phone": "08-7784521"
      },
      "geometry": {
        "type": "Point",
        "coordinates": [
          120.52649,
          22.61637
        ]
      }
    },
    {
      "type": "Feature",
      "properties": {
        "station_id": "5040",
        "name": "竹田",
        "name_en": "Zhutian",
        "name_zh": "竹田",
        "class": "4",
        "address": "911165屏東縣竹田鄉履豐村豐明路29 號",
        "phone": "08-7711002"
      },
      "geometry": {
        "type": "Point",
        "coordinates": [
          120.53978,
          22.58658
        ]
      }
    },
    {
      "type": "Feature",
      "properties": {
        "station_id": "5050",
        "name": "潮州",
        "name_en": "Chaozhou",
        "name_zh": "潮州",
        "class": "1",
        "address": "920004屏東縣潮州鎮新榮里信義路 111 號",
        "phone": "08-7882739"
      },
      "geometry": {
        "type": "Point",
        "coordinates": [
          120.53604,
          22.55008
        ]
      }
    },
    {
      "type": "Feature",
      "properties": {
        "station_id": "5060",
        "name": "崁頂",
        "name_en": "Kanding",
        "name_zh": "崁頂",
        "class": "5",
        "address": "924003屏東縣崁頂鄉崁頂村田寮路",
        "phone": "08-7882739"
      },
      "geometry": {
        "type": "Point",
        "coordinates": [
          120.51481,
          22.51311
        ]
      }
    },
    {
      "type": "Feature",
      "properties": {
        "station_id": "5070",
        "name": "南州",
        "name_en": "Nanzhou",
        "name_zh": "南州",
        "class": "3",
        "address": "926003屏東縣南州鄉仁里村仁里路 86 號",
        "phone": "08-8642942"
      },
      "geometry": {
        "type": "Point",
        "coordinates": [
          120.51174,
          22.49207
        ]
      }
    },
    {
      "type": "Feature",
      "properties": {
        "station_id": "5080",
        "name": "鎮安",
        "name_en": "Zhen'an",
        "name_zh": "鎮安",
        "class": "5",
        "address": "927005屏東縣林邊鄉鎮安村永和路4號",
        "phone": "08-8642942"
      },
      "geometry": {
        "type": "Point",
        "coordinates": [
          120.51129,
          22.45794
        ]
      }
    },
    {
      "type": "Feature",
      "properties": {
        "station_id": "5090",
        "name": "林邊",
        "name_en": "Linbian",
        "name_zh": "林邊",
        "class": "3",
        "address": "927001屏東縣林邊鄉仁和村仁愛路 33 號",
        "phone": "08-8751475"
      },
      "geometry": {
        "type": "Point",
        "coordinates": [
          120.51529,
          22.43135
        ]
      }
    },
    {
      "type": "Feature",
      "properties": {
        "station_id": "5100",
        "name": "佳冬",
        "name_en": "Jiadong",
        "name_zh": "佳冬",
        "class": "4",
        "address": "931006屏東縣佳冬鄉六根村復興路21號",
        "phone": "08-8662939"
      },
      "geometry": {
        "type": "Point",
        "coordinates": [
          120.54774,
          22.41409
        ]
      }
    },
    {
      "type": "Feature",
      "properties": {
        "station_id": "5110",
        "name": "東海",
        "name_en": "Donghai",
        "name_zh": "東海",
        "class": "5",
        "address": "940002屏東縣枋寮鄉東海村西安路 92 號",
        "phone": "08-8782041"
      },
      "geometry": {
        "type": "Point",
        "coordinates": [
          120.57236,
          22.39897
        ]
      }
    },
    {
      "type": "Feature",
      "properties": {
        "station_id": "5120",
        "name": "枋寮",
        "name_en": "Fangliao",
        "name_zh": "枋寮",
        "class": "2",
        "address": "940003屏東縣枋寮鄉枋寮村儲運路 18 號",
        "phone": "08-8782041"
      },
      "geometry": {
        "type": "Point",
        "coordinates": [
          120.59511,
          22.36802
        ]
      }
    },
    {
      "type": "Feature",
      "properties": {
        "station_id": "5130",
        "name": "加祿",
        "name_en": "Jialu",
        "name_zh": "加祿",
        "class": "3",
        "address": "941005屏東縣枋山鄉加祿村會社 53 號",
        "phone": "08-8720791"
      },
      "geometry": {
        "type": "Point",
        "coordinates": [
          120.62445,
          22.33085
        ]
      }
    },
    {
      "type": "Feature",
      "properties": {
        "station_id": "5140",
        "name": "內獅",
        "name_en": "Neishi",
        "name_zh": "內獅",
        "class": "5",
        "address": "941010屏東縣枋山鄉加祿村南和 43 號",
        "phone": "08-8720791"
      },
      "geometry": {
        "type": "Point",
        "coordinates": [
          120.64331,
          22.30617
        ]
      }
    },
    {
      "type": "Feature",
      "properties": {
        "station_id": "5160",
        "name": "枋山",
        "name_en": "Fangshan",
        "name_zh": "枋山",
        "class": "4",
        "address": "943010屏東縣獅子鄉內獅村內獅巷 84 號",
        "phone": "08-8720791"
      },
      "geometry": {
        "type": "Point",
        "coordinates": [
          120.65947,
          22.26704
        ]
      }
    },
    {
      "type": "Feature",
      "properties": {
        "station_id": "5170",
        "name": "枋野",
        "name_en": "Fangye",
        "name_zh": "枋野",
        "class": "3",
        "address": "94350屏東縣獅子鄉內獅村內獅巷 88 號",
        "phone": "08-8761953"
      },
      "geometry": {
        "type": "Point",
        "coordinates": [
          120.71709,
          22.28091
        ]
      }
    },
    {
      "type": "Feature",
      "properties": {
        "station_id": "5190",
        "name": "大武",
        "name_en": "Dawu",
        "name_zh": "大武",
        "class": "3",
        "address": "965003臺東縣大武鄉大鳥村和平部落 33 號",
        "phone": "089-792056"
      },
      "geometry": {
        "type": "Point",
        "coordinates": [
          120.90094,
          22.36526
        ]
      }
    },
    {
      "type": "Feature",
      "properties": {
        "station_id": "5200",
        "name": "瀧溪",
        "name_en": "Longxi",
        "name_zh": "瀧溪",
        "class": "4",
        "address": "963006臺東縣太麻里鄉多良村大溪 37 號",
        "phone": "089-761482"
      },
      "geometry": {
        "type": "Point",
        "coordinates": [
          120.94176,
          22.46102
        ]
      }
    },
    {
      "type": "Feature",
      "properties": {
        "station_id": "5210",
        "name": "金崙",
        "name_en": "Jinlun",
        "name_zh": "金崙",
        "class": "3",
        "address": "963005臺東縣太麻里鄉金崙村金崙 47 之 17 號",
        "phone": "089-771068"
      },
      "geometry": {
        "type": "Point",
        "coordinates": [
          120.96721,
          22.53161
        ]
      }
    },
    {
      "type": "Feature",
      "properties": {
        "station_id": "5220",
        "name": "太麻里",
        "name_en": "Taimali",
        "name_zh": "太麻里",
        "class": "3",
        "address": "963004臺東縣太麻里鄉大王村站前路 2 號",
        "phone": "089-781544"
      },
      "geometry": {
        "type": "Point",
        "coordinates": [
          121.00492,
          22.61883
        ]
      }
    },
    {
      "type": "Feature",
      "properties": {
        "station_id": "5230",
        "name": "知本",
        "name_en": "Zhiben",
        "name_zh": "知本",
        "class": "3",
        "address": "950103臺東縣臺東市知本里知本路二段 900 巷 85 號",
        "phone": "089-514482"
      },
      "geometry": {
        "type": "Point",
        "coordinates": [
          121.06068,
          22.71022
        ]
      }
    },
    {
      "type": "Feature",
      "properties": {
        "station_id": "5240",
        "name": "康樂",
        "name_en": "Kangle",
        "name_zh": "康樂",
        "class": "4",
        "address": "950029臺東縣臺東市康樂里博物館路 51 巷 131 號",
        "phone": "089-383107"
      },
      "geometry": {
        "type": "Point",
        "coordinates": [
          121.09356,
          22.76426
        ]
      }
    },
    {
      "type": "Feature",
      "properties": {
        "station_id": "5998",
        "name": "南方小站",
        "name_en": "South",
        "name_zh": "南方小站",
        "class": "4",
        "address": "92013屏東縣潮州鎮光復路 461 號",
        "phone": ""
      },
      "geometry": {
        "type": "Point",
        "coordinates": [
          120.53658,
          22.52755
        ]
      }
    },
    {
      "type": "Feature",
      "properties": {
        "station_id": "5999",
        "name": "潮州基地",
        "name_en": "Chaozhou Railway Workshop",
        "name_zh": "潮州基地",
        "class": "4",
        "address": "92054屏東縣潮州鎮光春里光復路 616 號",
        "phone": "08-7889880"
      },
      "geometry": {
        "type": "Point",
        "coordinates": [
          120.52642,
          22.52231
        ]
      }
    },
    {
      "type": "Feature",
      "properties": {
        "station_id": "6000",
        "name": "臺東",
        "name_en": "Taitung",
        "name_zh": "臺東",
        "class": "1",
        "address": "950030臺東縣臺東市岩灣里岩灣路 101 巷 598 號",
        "phone": "089-229687"
      },
      "geometry": {
        "type": "Point",
        "coordinates": [
          121.1231,
          22.79372
        ]
      }
    },
    {
      "type": "Feature",
      "properties": {
        "station_id": "6010",
        "name": "山里",
        "name_en": "Shanli",
        "name_zh": "山里",
        "class": "3",
        "address": "954003臺東縣卑南鄉嘉豐村山里路 108 號",
        "phone": "089-572370"
      },
      "geometry": {
        "type": "Point",
        "coordinates": [
          121.13778,
          22.86194
        ]
      }
    },
    {
      "type": "Feature",
      "properties": {
        "station_id": "6020",
        "name": "鹿野",
        "name_en": "Luye",
        "name_zh": "鹿野",
        "class": "3",
        "address": "955002臺東縣鹿野鄉鹿野村中正路 38 號",
        "phone": "089-550217"
      },
      "geometry": {
        "type": "Point",
        "coordinates": [
          121.13701,
          22.91249
        ]
      }
    },
    {
      "type": "Feature",
      "properties": {
        "station_id": "6030",
        "name": "瑞源",
        "name_en": "Ruiyuan",
        "name_zh": "瑞源",
        "class": "3",
        "address": "955003臺東縣鹿野鄉瑞源村瑞景路一段 336 巷 8 號 之 1",
        "phone": "089-580159"
      },
      "geometry": {
        "type": "Point",
        "coordinates": [
          121.15901,
          22.95604
        ]
      }
    },
    {
      "type": "Feature",
      "properties": {
        "station_id": "6040",
        "name": "瑞和",
        "name_en": "Ruihe",
        "name_zh": "瑞和",
        "class": "5",
        "address": "955003臺東縣鹿野鄉瑞和村瑞景路三段 1 之 1 號",
        "phone": "089-580159"
      },
      "geometry": {
        "type": "Point",
        "coordinates": [
          121.15595,
          22.97997
        ]
      }
    },
    {
      "type": "Feature",
      "properties": {
        "station_id": "6050",
        "name": "關山",
        "name_en": "Guanshan",
        "name_zh": "關山",
        "class": "3",
        "address": "956004臺東縣關山鎮里壠里博愛路 2 號",
        "phone": "089-811033"
      },
      "geometry": {
        "type": "Point",
        "coordinates": [
          121.1643,
          23.04566
        ]
      }
    },
    {
      "type": "Feature",
      "properties": {
        "station_id": "6060",
        "name": "海端",
        "name_en": "Haiduan",
        "name_zh": "海端",
        "class": "4",
        "address": "956004臺東縣關山鎮德高里西莊 49 號",
        "phone": "089-811033"
      },
      "geometry": {
        "type": "Point",
        "coordinates": [
          121.17676,
          23.10292
        ]
      }
    },
    {
      "type": "Feature",
      "properties": {
        "station_id": "6070",
        "name": "池上",
        "name_en": "Chishang",
        "name_zh": "池上",
        "class": "3",
        "address": "958003臺東縣池上鄉福文村鐵花路 30 號",
        "phone": "089-862097"
      },
      "geometry": {
        "type": "Point",
        "coordinates": [
          121.21949,
          23.12613
        ]
      }
    },
    {
      "type": "Feature",
      "properties": {
        "station_id": "6080",
        "name": "富里",
        "name_en": "Fuli",
        "name_zh": "富里",
        "class": "3",
        "address": "983001花蓮縣富里鄉富里村車站街 56 號",
        "phone": "03-8831771"
      },
      "geometry": {
        "type": "Point",
        "coordinates": [
          121.24864,
          23.17924
        ]
      }
    },
    {
      "type": "Feature",
      "properties": {
        "station_id": "6090",
        "name": "東竹",
        "name_en": "Dongzhu",
        "name_zh": "東竹",
        "class": "3",
        "address": "983005花蓮縣富里鄉新興村新興 23 號",
        "phone": "03-8821504"
      },
      "geometry": {
        "type": "Point",
        "coordinates": [
          121.27842,
          23.22605
        ]
      }
    },
    {
      "type": "Feature",
      "properties": {
        "station_id": "6100",
        "name": "東里",
        "name_en": "Dongli",
        "name_zh": "東里",
        "class": "3",
        "address": "983004花蓮縣富里鄉東里村大莊路 15 之 6 號",
        "phone": "03-8861005"
      },
      "geometry": {
        "type": "Point",
        "coordinates": [
          121.30418,
          23.27234
        ]
      }
    },
    {
      "type": "Feature",
      "properties": {
        "station_id": "6110",
        "name": "玉里",
        "name_en": "Yuli",
        "name_zh": "玉里",
        "class": "1",
        "address": "981003花蓮縣玉里鎮中城里康樂街 39 號",
        "phone": "03-8882020"
      },
      "geometry": {
        "type": "Point",
        "coordinates": [
          121.31172,
          23.33155
        ]
      }
    },
    {
      "type": "Feature",
      "properties": {
        "station_id": "6120",
        "name": "三民",
        "name_en": "Sanmin",
        "name_zh": "三民",
        "class": "3",
        "address": "981010花蓮縣玉里鎮三民里三民 10 號",
        "phone": "03-8841847"
      },
      "geometry": {
        "type": "Point",
        "coordinates": [
          121.34539,
          23.42458
        ]
      }
    },
    {
      "type": "Feature",
      "properties": {
        "station_id": "6130",
        "name": "瑞穗",
        "name_en": "Ruisui",
        "name_zh": "瑞穗",
        "class": "3",
        "address": "978001花蓮縣瑞穗鄉瑞穗村四維街 13 號",
        "phone": "03-8875039"
      },
      "geometry": {
        "type": "Point",
        "coordinates": [
          121.37657,
          23.49775
        ]
      }
    },
    {
      "type": "Feature",
      "properties": {
        "station_id": "6140",
        "name": "富源",
        "name_en": "Fuyuan",
        "name_zh": "富源",
        "class": "3",
        "address": "978003花蓮縣瑞穗鄉富源村富源路 2 號",
        "phone": "03-8811824"
      },
      "geometry": {
        "type": "Point",
        "coordinates": [
          121.38008,
          23.58031
        ]
      }
    },
    {
      "type": "Feature",
      "properties": {
        "station_id": "6150",
        "name": "大富",
        "name_en": "Dafu",
        "name_zh": "大富",
        "class": "5",
        "address": "976007花蓮縣光復鄉大富村明德路 1 號",
        "phone": "03-8811824"
      },
      "geometry": {
        "type": "Point",
        "coordinates": [
          121.38963,
          23.60571
        ]
      }
    },
    {
      "type": "Feature",
      "properties": {
        "station_id": "6160",
        "name": "光復",
        "name_en": "Guangfu",
        "name_zh": "光復",
        "class": "3",
        "address": "976007花蓮縣光復鄉大安村中正路一段 2 之 1 號",
        "phone": "03-8704143"
      },
      "geometry": {
        "type": "Point",
        "coordinates": [
          121.42117,
          23.66631
        ]
      }
    },
    {
      "type": "Feature",
      "properties": {
        "station_id": "6170",
        "name": "萬榮",
        "name_en": "Wanrong",
        "name_zh": "萬榮",
        "class": "3",
        "address": "975003花蓮縣鳳林鎮長橋里長德街 17 號",
        "phone": "03-8752175"
      },
      "geometry": {
        "type": "Point",
        "coordinates": [
          121.41907,
          23.71199
        ]
      }
    },
    {
      "type": "Feature",
      "properties": {
        "station_id": "6180",
        "name": "鳳林",
        "name_en": "Fenglin",
        "name_zh": "鳳林",
        "class": "3",
        "address": "975005花蓮縣鳳林鎮鳳智里中山路 43 號",
        "phone": "03-8762004"
      },
      "geometry": {
        "type": "Point",
        "coordinates": [
          121.44701,
          23.74634
        ]
      }
    },
    {
      "type": "Feature",
      "properties": {
        "station_id": "6190",
        "name": "南平",
        "name_en": "Nanping",
        "name_zh": "南平",
        "class": "4",
        "address": "975002花蓮縣鳳林鎮南平里自強路 233 號",
        "phone": "03-8771597"
      },
      "geometry": {
        "type": "Point",
        "coordinates": [
          121.45824,
          23.78231
        ]
      }
    },
    {
      "type": "Feature",
      "properties": {
        "station_id": "6200",
        "name": "林榮新光",
        "name_en": "Linrong Shin Kong",
        "name_zh": "林榮新光",
        "class": "4",
        "address": "975002花蓮縣鳳林鎮兆豐路800號",
        "phone": "03-8772677"
      },
      "geometry": {
        "type": "Point",
        "coordinates": [
          121.46169,
          23.80176
        ]
      }
    },
    {
      "type": "Feature",
      "properties": {
        "station_id": "6210",
        "name": "豐田",
        "name_en": "Fengtian",
        "name_zh": "豐田",
        "class": "4",
        "address": "974006花蓮縣壽豐鄉豐山村站前街 36 號",
        "phone": "03-8654251"
      },
      "geometry": {
        "type": "Point",
        "coordinates": [
          121.49618,
          23.84842
        ]
      }
    },
    {
      "type": "Feature",
      "properties": {
        "station_id": "6220",
        "name": "壽豐",
        "name_en": "Shoufeng",
        "name_zh": "壽豐",
        "class": "3",
        "address": "974002花蓮縣壽豐鄉壽豐村壽山路 1 號",
        "phone": "03-8653706"
      },
      "geometry": {
        "type": "Point",
        "coordinates": [
          121.51064,
          23.86901
        ]
      }
    },
    {
      "type": "Feature",
      "properties": {
        "station_id": "6230",
        "name": "平和",
        "name_en": "Pinghe",
        "name_zh": "平和",
        "class": "5",
        "address": "974004花蓮縣壽豐鄉平和村平和路 1 號",
        "phone": "03-8653706"
      },
      "geometry": {
        "type": "Point",
        "coordinates": [
          121.52045,
          23.88279
        ]
      }
    },
    {
      "type": "Feature",
      "properties": {
        "station_id": "6240",
        "name": "志學",
        "name_en": "Zhixue",
        "name_zh": "志學",
        "class": "3",
        "address": "974003花蓮縣壽豐鄉志學村中正路 1 號",
        "phone": "03-8662966"
      },
      "geometry": {
        "type": "Point",
        "coordinates": [
          121.5295,
          23.90769
        ]
      }
    },
    {
      "type": "Feature",
      "properties": {
        "station_id": "6250",
        "name": "吉安",
        "name_en": "Ji'an",
        "name_zh": "吉安",
        "class": "3",
        "address": "973039花蓮縣吉安鄉南昌村南昌路1號",
        "phone": "03-8539423"
      },
      "geometry": {
        "type": "Point",
        "coordinates": [
          121.58266,
          23.96823
        ]
      }
    },
    {
      "type": "Feature",
      "properties": {
        "station_id": "7000",
        "name": "花蓮",
        "name_en": "Hualien",
        "name_zh": "花蓮",
        "class": "0",
        "address": "970015花蓮縣花蓮市國聯里國聯一路 100 號",
        "phone": "03-8355941"
      },
      "geometry": {
        "type": "Point",
        "coordinates": [
          121.6008,
          23.99325
        ]
      }
    },
    {
      "type": "Feature",
      "properties": {
        "station_id": "7010",
        "name": "北埔",
        "name_en": "Beipu",
        "name_zh": "北埔",
        "class": "3",
        "address": "971066花蓮縣新城鄉北埔村自強街 113 號",
        "phone": "03-8263809"
      },
      "geometry": {
        "type": "Point",
        "coordinates": [
          121.60166,
          24.03253
        ]
      }
    },
    {
      "type": "Feature",
      "properties": {
        "station_id": "7020",
        "name": "景美",
        "name_en": "Jingmei",
        "name_zh": "景美",
        "class": "4",
        "address": "972067花蓮縣秀林鄉景美村加灣 178 之 1 號",
        "phone": "03-8611237"
      },
      "geometry": {
        "type": "Point",
        "coordinates": [
          121.61078,
          24.09048
        ]
      }
    },
    {
      "type": "Feature",
      "properties": {
        "station_id": "7030",
        "name": "新城",
        "name_en": "Xincheng",
        "name_zh": "新城",
        "class": "2",
        "address": "971001花蓮縣新城鄉新城村新興一路 73 號",
        "phone": "03-8611237"
      },
      "geometry": {
        "type": "Point",
        "coordinates": [
          121.64086,
          24.12756
        ]
      }
    },
    {
      "type": "Feature",
      "properties": {
        "station_id": "7040",
        "name": "崇德",
        "name_en": "Chongde",
        "name_zh": "崇德",
        "class": "3",
        "address": "972003花蓮縣秀林鄉崇德村海濱路 96 號",
        "phone": "03-8621365"
      },
      "geometry": {
        "type": "Point",
        "coordinates": [
          121.65536,
          24.17199
        ]
      }
    },
    {
      "type": "Feature",
      "properties": {
        "station_id": "7050",
        "name": "和仁",
        "name_en": "Heren",
        "name_zh": "和仁",
        "class": "3",
        "address": "972005花蓮縣秀林鄉和平村和仁 71 號",
        "phone": "03-8681221"
      },
      "geometry": {
        "type": "Point",
        "coordinates": [
          121.71182,
          24.24225
        ]
      }
    },
    {
      "type": "Feature",
      "properties": {
        "station_id": "7060",
        "name": "和平",
        "name_en": "Heping",
        "name_zh": "和平",
        "class": "2",
        "address": "972005花蓮縣秀林鄉和平村和平 276 號",
        "phone": "03-8681009"
      },
      "geometry": {
        "type": "Point",
        "coordinates": [
          121.75344,
          24.29839
        ]
      }
    },
    {
      "type": "Feature",
      "properties": {
        "station_id": "7070",
        "name": "漢本",
        "name_en": "Hanben",
        "name_zh": "漢本",
        "class": "3",
        "address": "272019宜蘭縣南澳鄉澳花村蘇花路一段 56 號",
        "phone": "03-9985238"
      },
      "geometry": {
        "type": "Point",
        "coordinates": [
          121.76838,
          24.33543
        ]
      }
    },
    {
      "type": "Feature",
      "properties": {
        "station_id": "7080",
        "name": "武塔",
        "name_en": "Wuta",
        "name_zh": "武塔",
        "class": "4",
        "address": "272017宜蘭縣南澳鄉武塔村新溪路 18 號",
        "phone": "03-9981971"
      },
      "geometry": {
        "type": "Point",
        "coordinates": [
          121.77601,
          24.44879
        ]
      }
    },
    {
      "type": "Feature",
      "properties": {
        "station_id": "7090",
        "name": "南澳",
        "name_en": "Nan'ao",
        "name_zh": "南澳",
        "class": "3",
        "address": "270010宜蘭縣蘇澳鎮南強里大通路 22 號",
        "phone": "03-9981971"
      },
      "geometry": {
        "type": "Point",
        "coordinates": [
          121.80103,
          24.46342
        ]
      }
    },
    {
      "type": "Feature",
      "properties": {
        "station_id": "7100",
        "name": "東澳",
        "name_en": "Dong'ao",
        "name_zh": "東澳",
        "class": "2",
        "address": "272006宜蘭縣南澳鄉東岳村東岳路 1 號",
        "phone": "03-9986053"
      },
      "geometry": {
        "type": "Point",
        "coordinates": [
          121.83072,
          24.51827
        ]
      }
    },
    {
      "type": "Feature",
      "properties": {
        "station_id": "7110",
        "name": "永樂",
        "name_en": "Yongle",
        "name_zh": "永樂",
        "class": "3",
        "address": "270011宜蘭縣蘇澳鎮永樂里圳頭路 60 號",
        "phone": "03-9961889"
      },
      "geometry": {
        "type": "Point",
        "coordinates": [
          121.84458,
          24.56843
        ]
      }
    },
    {
      "type": "Feature",
      "properties": {
        "station_id": "7120",
        "name": "蘇澳",
        "name_en": "Su'ao",
        "name_zh": "蘇澳",
        "class": "2",
        "address": "270001宜蘭縣蘇澳鎮蘇南里太平路 1 號",
        "phone": "03-9962028"
      },
      "geometry": {
        "type": "Point",
        "coordinates": [
          121.85143,
          24.59516
        ]
      }
    },
    {
      "type": "Feature",
      "properties": {
        "station_id": "7130",
        "name": "蘇澳新",
        "name_en": "Su'aoxin",
        "name_zh": "蘇澳新",
        "class": "1",
        "address": "270013宜蘭縣蘇澳鎮聖愛里中山路二段 238 號",
        "phone": "03-9961004"
      },
      "geometry": {
        "type": "Point",
        "coordinates": [
          121.82735,
          24.60852
        ]
      }
    },
    {
      "type": "Feature",
      "properties": {
        "station_id": "7140",
        "name": "新馬",
        "name_en": "Xinma",
        "name_zh": "新馬",
        "class": "5",
        "address": "270013宜蘭縣蘇澳鎮新城里中山路二段 322 號",
        "phone": "03-9961004"
      },
      "geometry": {
        "type": "Point",
        "coordinates": [
          121.8229,
          24.61564
        ]
      }
    },
    {
      "type": "Feature",
      "properties": {
        "station_id": "7150",
        "name": "冬山",
        "name_en": "Dongshan",
        "name_zh": "冬山",
        "class": "3",
        "address": "269027宜蘭縣冬山鄉冬山村中正路 1 -1號",
        "phone": "03-9594221"
      },
      "geometry": {
        "type": "Point",
        "coordinates": [
          121.79211,
          24.63633
        ]
      }
    },
    {
      "type": "Feature",
      "properties": {
        "station_id": "7160",
        "name": "羅東",
        "name_en": "Luodong",
        "name_zh": "羅東",
        "class": "2",
        "address": "265010宜蘭縣羅東鎮大新里公正路 2 號",
        "phone": "03-9542117"
      },
      "geometry": {
        "type": "Point",
        "coordinates": [
          121.77464,
          24.67791
        ]
      }
    },
    {
      "type": "Feature",
      "properties": {
        "station_id": "7170",
        "name": "中里",
        "name_en": "Zhongli_Yilan",
        "name_zh": "中里",
        "class": "5",
        "address": "268018宜蘭縣五結鄉中里路",
        "phone": "03-9542117"
      },
      "geometry": {
        "type": "Point",
        "coordinates": [
          121.77526,
          24.69415
        ]
      }
    },
    {
      "type": "Feature",
      "properties": {
        "station_id": "7180",
        "name": "二結",
        "name_en": "Erjie",
        "name_zh": "二結",
        "class": "3",
        "address": "268016宜蘭縣五結鄉五結中路三段658巷8號",
        "phone": "03-9650304"
      },
      "geometry": {
        "type": "Point",
        "coordinates": [
          121.77409,
          24.70528
        ]
      }
    },
    {
      "type": "Feature",
      "properties": {
        "station_id": "7190",
        "name": "宜蘭",
        "name_en": "Yilan",
        "name_zh": "宜蘭",
        "class": "1",
        "address": "260003宜蘭縣宜蘭市和睦里光復路 1 號",
        "phone": "03-9323801"
      },
      "geometry": {
        "type": "Point",
        "coordinates": [
          121.75839,
          24.75443
        ]
      }
    },
    {
      "type": "Feature",
      "properties": {
        "station_id": "7200",
        "name": "四城",
        "name_en": "Sicheng",
        "name_zh": "四城",
        "class": "4",
        "address": "262005宜蘭縣礁溪鄉吳沙村站前路 24 號",
        "phone": "03-9282449"
      },
      "geometry": {
        "type": "Point",
        "coordinates": [
          121.76271,
          24.78681
        ]
      }
    },
    {
      "type": "Feature",
      "properties": {
        "station_id": "7210",
        "name": "礁溪",
        "name_en": "Jiaoxi",
        "name_zh": "礁溪",
        "class": "3",
        "address": "262001宜蘭縣礁溪鄉德陽村溫泉路 1 號",
        "phone": "03-9886940"
      },
      "geometry": {
        "type": "Point",
        "coordinates": [
          121.77535,
          24.82703
        ]
      }
    },
    {
      "type": "Feature",
      "properties": {
        "station_id": "7220",
        "name": "頂埔",
        "name_en": "Dingpu",
        "name_zh": "頂埔",
        "class": "5",
        "address": "261002宜蘭縣頭城鎮下埔里下埔路 4 之 8 號",
        "phone": "03-9771429"
      },
      "geometry": {
        "type": "Point",
        "coordinates": [
          121.80913,
          24.84391
        ]
      }
    },
    {
      "type": "Feature",
      "properties": {
        "station_id": "7230",
        "name": "頭城",
        "name_en": "Toucheng",
        "name_zh": "頭城",
        "class": "2",
        "address": "261006宜蘭縣頭城鎮纘祥路 59 號",
        "phone": "03-9771429"
      },
      "geometry": {
        "type": "Point",
        "coordinates": [
          121.82258,
          24.85898
        ]
      }
    },
    {
      "type": "Feature",
      "properties": {
        "station_id": "7240",
        "name": "外澳",
        "name_en": "Wai'ao",
        "name_zh": "外澳",
        "class": "5",
        "address": "261004宜蘭縣頭城鎮濱海路二段 217 號",
        "phone": "03-9771429"
      },
      "geometry": {
        "type": "Point",
        "coordinates": [
          121.84572,
          24.88375
        ]
      }
    },
    {
      "type": "Feature",
      "properties": {
        "station_id": "7250",
        "name": "龜山",
        "name_en": "Guishan",
        "name_zh": "龜山",
        "class": "4",
        "address": "261004宜蘭縣頭城鎮更新里濱海路三段 261 號",
        "phone": "03-9770351"
      },
      "geometry": {
        "type": "Point",
        "coordinates": [
          121.8689,
          24.90484
        ]
      }
    },
    {
      "type": "Feature",
      "properties": {
        "station_id": "7260",
        "name": "大溪",
        "name_en": "Daxi",
        "name_zh": "大溪",
        "class": "5",
        "address": "261005宜蘭縣頭城鎮濱海路五段 63 號",
        "phone": "03-9771429"
      },
      "geometry": {
        "type": "Point",
        "coordinates": [
          121.88983,
          24.93836
        ]
      }
    },
    {
      "type": "Feature",
      "properties": {
        "station_id": "7270",
        "name": "大里",
        "name_en": "Dali",
        "name_zh": "大里",
        "class": "4",
        "address": "261005宜蘭縣頭城鎮大里里濱海路六段 326 號",
        "phone": "03-9781171"
      },
      "geometry": {
        "type": "Point",
        "coordinates": [
          121.92253,
          24.96677
        ]
      }
    },
    {
      "type": "Feature",
      "properties": {
        "station_id": "7280",
        "name": "石城",
        "name_en": "Shicheng",
        "name_zh": "石城",
        "class": "5",
        "address": "261006宜蘭縣頭城鎮濱海路七段 230 號",
        "phone": "03-9771429"
      },
      "geometry": {
        "type": "Point",
        "coordinates": [
          121.94507,
          24.97832
        ]
      }
    },
    {
      "type": "Feature",
      "properties": {
        "station_id": "7290",
        "name": "福隆",
        "name_en": "Fulong",
        "name_zh": "福隆",
        "class": "3",
        "address": "228001新北市貢寮區福隆里福隆街 2 號",
        "phone": "02-24991800"
      },
      "geometry": {
        "type": "Point",
        "coordinates": [
          121.94471,
          25.01595
        ]
      }
    },
    {
      "type": "Feature",
      "properties": {
        "station_id": "7300",
        "name": "貢寮",
        "name_en": "Gongliao",
        "name_zh": "貢寮",
        "class": "4",
        "address": "228003新北市貢寮區貢寮里朝陽街 33 號",
        "phone": "02-24941500"
      },
      "geometry": {
        "type": "Point",
        "coordinates": [
          121.90879,
          25.02197
        ]
      }
    },
    {
      "type": "Feature",
      "properties": {
        "station_id": "7310",
        "name": "雙溪",
        "name_en": "Shuangxi",
        "name_zh": "雙溪",
        "class": "2",
        "address": "227004新北市雙溪區新基里朝陽街 1 號",
        "phone": "02-24932980"
      },
      "geometry": {
        "type": "Point",
        "coordinates": [
          121.86654,
          25.03851
        ]
      }
    },
    {
      "type": "Feature",
      "properties": {
        "station_id": "7320",
        "name": "牡丹",
        "name_en": "Mudan",
        "name_zh": "牡丹",
        "class": "5",
        "address": "227001新北市雙溪區牡丹里51號",
        "phone": "02-24932980"
      },
      "geometry": {
        "type": "Point",
        "coordinates": [
          121.85197,
          25.05871
        ]
      }
    },
    {
      "type": "Feature",
      "properties": {
        "station_id": "7330",
        "name": "三貂嶺",
        "name_en": "Sandiaoling",
        "name_zh": "三貂嶺",
        "class": "3",
        "address": "224006新北市瑞芳區碩仁里魚寮路 1 號",
        "phone": "02-24977896"
      },
      "geometry": {
        "type": "Point",
        "coordinates": [
          121.82257,
          25.06555
        ]
      }
    },
    {
      "type": "Feature",
      "properties": {
        "station_id": "7331",
        "name": "大華",
        "name_en": "Dahua",
        "name_zh": "大華",
        "class": "5",
        "address": "226003新北市平溪區南山里六分 12 之 1 號",
        "phone": "02-24972033"
      },
      "geometry": {
        "type": "Point",
        "coordinates": [
          121.79732,
          25.04998
        ]
      }
    },
    {
      "type": "Feature",
      "properties": {
        "station_id": "7332",
        "name": "十分",
        "name_en": "Shifen",
        "name_zh": "十分",
        "class": "4",
        "address": "226003新北市平溪區十分里十分街 51 號",
        "phone": "02-24958307"
      },
      "geometry": {
        "type": "Point",
        "coordinates": [
          121.77514,
          25.04111
        ]
      }
    },
    {
      "type": "Feature",
      "properties": {
        "station_id": "7333",
        "name": "望古",
        "name_en": "Wanggu",
        "name_zh": "望古",
        "class": "5",
        "address": "226003新北市平溪區望古里 (無站房)",
        "phone": "02-24972033"
      },
      "geometry": {
        "type": "Point",
        "coordinates": [
          121.76349,
          25.03445
        ]
      }
    },
    {
      "type": "Feature",
      "properties": {
        "station_id": "7334",
        "name": "嶺腳",
        "name_en": "Lingjiao",
        "name_zh": "嶺腳",
        "class": "5",
        "address": "226001新北市平溪區嶺腳里嶺腳寮 22 號",
        "phone": "02-24972033"
      },
      "geometry": {
        "type": "Point",
        "coordinates": [
          121.74795,
          25.03016
        ]
      }
    },
    {
      "type": "Feature",
      "properties": {
        "station_id": "7335",
        "name": "平溪",
        "name_en": "Pingxi",
        "name_zh": "平溪",
        "class": "4",
        "address": "226001新北市平溪區平溪里中華街 12 號",
        "phone": "02-24972033"
      },
      "geometry": {
        "type": "Point",
        "coordinates": [
          121.74019,
          25.02571
        ]
      }
    },
    {
      "type": "Feature",
      "properties": {
        "station_id": "7336",
        "name": "菁桐",
        "name_en": "Jingtong",
        "name_zh": "菁桐",
        "class": "4",
        "address": "226002新北市平溪區菁桐里菁桐街 52 號",
        "phone": "02-24972033"
      },
      "geometry": {
        "type": "Point",
        "coordinates": [
          121.72391,
          25.02391
        ]
      }
    },
    {
      "type": "Feature",
      "properties": {
        "station_id": "7350",
        "name": "猴硐",
        "name_en": "Houtong",
        "name_zh": "猴硐",
        "class": "3",
        "address": "224006新北市瑞芳區光復里柴寮路 70 號",
        "phone": "02-24977747"
      },
      "geometry": {
        "type": "Point",
        "coordinates": [
          121.82743,
          25.08702
        ]
      }
    },
    {
      "type": "Feature",
      "properties": {
        "station_id": "7360",
        "name": "瑞芳",
        "name_en": "Ruifang",
        "name_zh": "瑞芳",
        "class": "1",
        "address": "224001新北市瑞芳區龍潭里明燈路三段 82 號",
        "phone": "02-24972033"
      },
      "geometry": {
        "type": "Point",
        "coordinates": [
          121.80624,
          25.10893
        ]
      }
    },
    {
      "type": "Feature",
      "properties": {
        "station_id": "7361",
        "name": "海科館",
        "name_en": "Haikeguan",
        "name_zh": "海科館",
        "class": "5",
        "address": "202010基隆市中正區長潭里",
        "phone": "02-24972033"
      },
      "geometry": {
        "type": "Point",
        "coordinates": [
          121.79997,
          25.13754
        ]
      }
    },
    {
      "type": "Feature",
      "properties": {
        "station_id": "7362",
        "name": "八斗子",
        "name_en": "Badouzi",
        "name_zh": "八斗子",
        "class": "5",
        "address": "224007新北市瑞芳區建基路2段121號隔壁 砂子里省道臺 2 線 (與新北市瑞芳區交界處、無站房)",
        "phone": "02-24972033"
      },
      "geometry": {
        "type": "Point",
        "coordinates": [
          121.80286,
          25.13528
        ]
      }
    },
    {
      "type": "Feature",
      "properties": {
        "station_id": "7380",
        "name": "四腳亭",
        "name_en": "Sijiaoting",
        "name_zh": "四腳亭",
        "class": "3",
        "address": "22449新北市瑞芳區吉慶里中央路 65 號",
        "phone": "02-24579346"
      },
      "geometry": {
        "type": "Point",
        "coordinates": [
          121.76195,
          25.10281
        ]
      }
    },
    {
      "type": "Feature",
      "properties": {
        "station_id": "7390",
        "name": "暖暖",
        "name_en": "Nuannuan",
        "name_zh": "暖暖",
        "class": "5",
        "address": "20544基隆市暖暖區暖暖里暖暖街 51 號",
        "phone": "02-24560841"
      },
      "geometry": {
        "type": "Point",
        "coordinates": [
          121.74031,
          25.10231
        ]
      }
    }
  ]
}