{
  "type": "FeatureCollection",
  "features": [
    {
      "type": "Feature",
      "properties": {
        "segment_id": "YL-7290-7300",
        "name": "福隆-貢寮",
        "from_station": "7290",
        "to_station": "7300",
        "from_name": "福隆",
        "to_name": "貢寮",
        "status": "needs_drawing",
        "description": "請沿實際鐵路手繪 福隆 → 貢寮"
      },
      "geometry": {
        "coordinates": [
          [
            121.94459000227597,
            25.01571274906378
          ],
          [
            121.94334319998381,
            25.016122465313376
          ],
          [
            121.94274825869434,
            25.016338760760362
          ],
          [
            121.94219177664026,
            25.01654871961506
          ],
          [
            121.94191807876075,
            25.016653916091894
          ],
          [
            121.94114939716688,
            25.01700799827752
          ],
          [
            121.94081101853021,
            25.017163297624855
          ],
          [
            121.9405100756766,
            25.017304719134504
          ],
          [
            121.94010354147838,
            25.017492492727143
          ],
          [
            121.93995950383298,
            25.017563911977856
          ],
          [
            121.93950141233708,
            25.017741427805213
          ],
          [
            121.9393693511457,
            25.01779257597769
          ],
          [
            121.93894369649902,
            25.017909948009375
          ],
          [
            121.93848450884563,
            25.01800152765676
          ],
          [
            121.93804201183451,
            25.018074201499793
          ],
          [
            121.93760912022726,
            25.018098663147228
          ],
          [
            121.93639770518882,
            25.018062991457118
          ],
          [
            121.93508364988503,
            25.01799941676628
          ],
          [
            121.93418376270319,
            25.017967214080013
          ],
          [
            121.93354957511804,
            25.017947839062103
          ],
          [
            121.9326299899734,
            25.01790227468568
          ],
          [
            121.93140111337681,
            25.01780596175636
          ],
          [
            121.93031342089634,
            25.01763340548162
          ],
          [
            121.92965715868445,
            25.017531500346138
          ],
          [
            121.92925617431422,
            25.017508090720202
          ],
          [
            121.92892198837751,
            25.017505597483307
          ],
          [
            121.92846538841945,
            25.01753899678808
          ],
          [
            121.9280461670536,
            25.017598065969082
          ],
          [
            121.92773597042003,
            25.017636271696933
          ],
          [
            121.92732134858045,
            25.017710189642983
          ],
          [
            121.92705354721653,
            25.01778251316423
          ],
          [
            121.92685135087166,
            25.01783989361016
          ],
          [
            121.92643702952317,
            25.01798223592423
          ],
          [
            121.92579845619693,
            25.018216334124315
          ],
          [
            121.92431561600498,
            25.018840717919375
          ],
          [
            121.92368582120093,
            25.019091441179935
          ],
          [
            121.92317391374192,
            25.019270924876132
          ],
          [
            121.92269086024302,
            25.01942246832727
          ],
          [
            121.92199395492904,
            25.01961237665661
          ],
          [
            121.92161643555787,
            25.01970733087664
          ],
          [
            121.92132417855466,
            25.019777701875917
          ],
          [
            121.91996230672979,
            25.020098043599965
          ],
          [
            121.91947271820776,
            25.020218582136593
          ],
          [
            121.91919585098424,
            25.020293560005914
          ],
          [
            121.91808517574191,
            25.020594176695695
          ],
          [
            121.91711072476318,
            25.020852227704594
          ],
          [
            121.91622139611506,
            25.021087133991074
          ],
          [
            121.91546048516531,
            25.021237305635594
          ],
          [
            121.9148240807614,
            25.02134686144899
          ],
          [
            121.91453270267377,
            25.02137604661183
          ],
          [
            121.9113673631657,
            25.021452660982114
          ],
          [
            121.91007467386888,
            25.021498858101403
          ],
          [
            121.908749,
            25.021829
          ]
        ],
        "type": "LineString"
      }
    },
    {
      "type": "Feature",
      "properties": {
        "segment_id": "YL-7300-7310",
        "name": "貢寮-雙溪",
        "from_station": "7300",
        "to_station": "7310",
        "from_name": "貢寮",
        "to_name": "雙溪",
        "status": "needs_drawing",
        "description": "請沿實際鐵路手繪 貢寮 → 雙溪"
      },
      "geometry": {
        "coordinates": [
          [
            121.908749,
            25.021829
          ],
          [
            121.90765490245369,
            25.022222249316634
          ],
          [
            121.90628742706926,
            25.022846905615506
          ],
          [
            121.90469192533894,
            25.023481999412652
          ],
          [
            121.90417695769372,
            25.023638449618794
          ],
          [
            121.90384981131365,
            25.02373725849802
          ],
          [
            121.90313800645167,
            25.0238827237971
          ],
          [
            121.90172149593946,
            25.02398324121701
          ],
          [
            121.90046375648572,
            25.023949818472026
          ],
          [
            121.89988017411349,
            25.02387455498408
          ],
          [
            121.8980724147608,
            25.023379062785615
          ],
          [
            121.8972747379132,
            25.023231735019163
          ],
          [
            121.8962969780083,
            25.02319319427751
          ],
          [
            121.89573641316798,
            25.02323816632206
          ],
          [
            121.89342673323017,
            25.023651864541897
          ],
          [
            121.89281629854139,
            25.023747572220234
          ],
          [
            121.89173895912583,
            25.023874265472266
          ],
          [
            121.88726670206592,
            25.024169737840722
          ],
          [
            121.8839632408166,
            25.024347697091056
          ],
          [
            121.88256930451128,
            25.024472765695243
          ],
          [
            121.88173049017072,
            25.02461746443174
          ],
          [
            121.88101923421007,
            25.024810706579594
          ],
          [
            121.88027169499804,
            25.025065998761246
          ],
          [
            121.87823855655485,
            25.02594166048504
          ],
          [
            121.87768916938347,
            25.026165715675322
          ],
          [
            121.87658389870099,
            25.02654098342814
          ],
          [
            121.87398347178615,
            25.02723403951343
          ],
          [
            121.87344472357239,
            25.027387563961188
          ],
          [
            121.87272210796544,
            25.027496569089365
          ],
          [
            121.8719333249731,
            25.027619931747488
          ],
          [
            121.87019951121891,
            25.02807755687365
          ],
          [
            121.86959027717934,
            25.028253193986046
          ],
          [
            121.86911998788545,
            25.028428831098438
          ],
          [
            121.86865838263824,
            25.028651679826496
          ],
          [
            121.86826624976537,
            25.028937477200117
          ],
          [
            121.86785886091096,
            25.02933804597019
          ],
          [
            121.86686095688432,
            25.03073004888875
          ],
          [
            121.86648038150722,
            25.031578403076775
          ],
          [
            121.866321398055,
            25.032122552356853
          ],
          [
            121.8662245382366,
            25.03267788902305
          ],
          [
            121.86621283482809,
            25.033217530871838
          ],
          [
            121.8662329189865,
            25.033670128129508
          ],
          [
            121.86631063839917,
            25.034122725387178
          ],
          [
            121.86641346754031,
            25.03531112569934
          ],
          [
            121.86673576780134,
            25.03756852420191
          ],
          [
            121.86695432460837,
            25.038812866245458
          ]
        ],
        "type": "LineString"
      }
    },
    {
      "type": "Feature",
      "properties": {
        "segment_id": "YL-7310-7320",
        "name": "雙溪-牡丹",
        "from_station": "7310",
        "to_station": "7320",
        "from_name": "雙溪",
        "to_name": "牡丹",
        "status": "needs_drawing",
        "description": "請沿實際鐵路手繪 雙溪 → 牡丹"
      },
      "geometry": {
        "coordinates": [
          [
            121.86694856108292,
            25.0388755287916
          ],
          [
            121.86721610366023,
            25.040261141651968
          ],
          [
            121.86731113012414,
            25.04083824113839
          ],
          [
            121.86756657597884,
            25.042071380867306
          ],
          [
            121.86768144766728,
            25.042444840056238
          ],
          [
            121.86784988714832,
            25.04271532784555
          ],
          [
            121.86844075961156,
            25.043474099622287
          ],
          [
            121.86873326721556,
            25.04386409998212
          ],
          [
            121.86894221965406,
            25.044253759900265
          ],
          [
            121.86903629758118,
            25.044492039199383
          ],
          [
            121.86915135146837,
            25.044769911283147
          ],
          [
            121.86921436904294,
            25.044966128139713
          ],
          [
            121.8692673022314,
            25.045178799109486
          ],
          [
            121.86927324130033,
            25.04538674015874
          ],
          [
            121.8692374078216,
            25.045594681207994
          ],
          [
            121.8691699795285,
            25.04594844676737
          ],
          [
            121.86905794185083,
            25.046357127813778
          ],
          [
            121.86890276620586,
            25.046648730329743
          ],
          [
            121.86880592285925,
            25.04679747926125
          ],
          [
            121.86871225691073,
            25.046934713778263
          ],
          [
            121.86859113198344,
            25.047091913600074
          ],
          [
            121.86818166048896,
            25.047464268196066
          ],
          [
            121.86795785089973,
            25.047602607848365
          ],
          [
            121.86756589042422,
            25.04782018859553
          ],
          [
            121.86718005116799,
            25.04794931430429
          ],
          [
            121.86675895827615,
            25.04803482788667
          ],
          [
            121.86644511717574,
            25.048063617484225
          ],
          [
            121.86616519372427,
            25.048081233338188
          ],
          [
            121.86577055729539,
            25.048051088339086
          ],
          [
            121.86521299230253,
            25.047976423677362
          ],
          [
            121.8645105984767,
            25.047876364105296
          ],
          [
            121.86399129689896,
            25.04781097012087
          ],
          [
            121.86383630351858,
            25.04778849398149
          ],
          [
            121.86339018719302,
            25.04774015003801
          ],
          [
            121.8630526979104,
            25.047735365229343
          ],
          [
            121.86279672725816,
            25.047755302251613
          ],
          [
            121.86241610262496,
            25.047807505249843
          ],
          [
            121.86206218955807,
            25.047919400245366
          ],
          [
            121.86166085585626,
            25.048052785916006
          ],
          [
            121.86135746456904,
            25.048195851230673
          ],
          [
            121.86115012132535,
            25.048307107978996
          ],
          [
            121.86071408669466,
            25.048618462097153
          ],
          [
            121.86043616447444,
            25.0488986085596
          ],
          [
            121.86030235253293,
            25.049031466544967
          ],
          [
            121.85996691035218,
            25.049504387886067
          ],
          [
            121.85968551792428,
            25.05009760612831
          ],
          [
            121.85944216506701,
            25.050621901450217
          ],
          [
            121.85909070153039,
            25.05130675810377
          ],
          [
            121.85892828361236,
            25.051628509841457
          ],
          [
            121.8587525518441,
            25.052024352833932
          ],
          [
            121.85845535641502,
            25.0526860023001
          ],
          [
            121.85829724880855,
            25.053035780436765
          ],
          [
            121.85811631745955,
            25.0534148500188
          ],
          [
            121.85806382009662,
            25.05352626641926
          ],
          [
            121.85785688345455,
            25.053897287987272
          ],
          [
            121.85782188636279,
            25.053969079404737
          ],
          [
            121.85770890814959,
            25.05414769802185
          ],
          [
            121.85758950681392,
            25.054335154757577
          ],
          [
            121.85733200038163,
            25.054611522550914
          ],
          [
            121.85690902182174,
            25.054934411431297
          ],
          [
            121.85591643818654,
            25.055463129784012
          ],
          [
            121.85520906418151,
            25.055842027174393
          ],
          [
            121.85459842097023,
            25.056162505899785
          ],
          [
            121.85438354303618,
            25.05629532731554
          ],
          [
            121.85378335410502,
            25.05669979479242
          ],
          [
            121.85360830000886,
            25.056865710242057
          ],
          [
            121.85309450264958,
            25.057519544273983
          ],
          [
            121.85261515159624,
            25.058047121012912
          ],
          [
            121.85242036334753,
            25.058254336843614
          ],
          [
            121.85219436642288,
            25.05844489638971
          ],
          [
            121.85204595559398,
            25.058551994812607
          ],
          [
            121.85191245523494,
            25.058632079176604
          ]
        ],
        "type": "LineString"
      }
    },
    {
      "type": "Feature",
      "properties": {
        "segment_id": "YL-7350-7360",
        "name": "猴硐-瑞芳",
        "from_station": "7350",
        "to_station": "7360",
        "from_name": "猴硐",
        "to_name": "瑞芳",
        "status": "needs_drawing",
        "description": "請沿實際鐵路手繪 猴硐 → 瑞芳"
      },
      "geometry": {
        "coordinates": [
          [
            121.82724,
            25.08707765906019
          ],
          [
            121.82760230727882,
            25.08763591547595
          ],
          [
            121.82804104998952,
            25.08827469652106
          ],
          [
            121.82825240667475,
            25.088536378640995
          ],
          [
            121.82856678464017,
            25.089031598406336
          ],
          [
            121.82882737404285,
            25.0893865234794
          ],
          [
            121.82941359963684,
            25.089832258788974
          ],
          [
            121.83006813483995,
            25.090414095293752
          ],
          [
            121.83038795294377,
            25.090773227442728
          ],
          [
            121.83077328371773,
            25.09133634913158
          ],
          [
            121.83102742775475,
            25.091933415103508
          ],
          [
            121.8311954855412,
            25.092467028824608
          ],
          [
            121.83134099308656,
            25.093018404923335
          ],
          [
            121.83146156358859,
            25.093504425527783
          ],
          [
            121.83159979809511,
            25.093936023622483
          ],
          [
            121.83212648865091,
            25.095605582980365
          ],
          [
            121.83247088421001,
            25.09671727559838
          ],
          [
            121.83270844076331,
            25.097542044088456
          ],
          [
            121.83274697737667,
            25.097785315434542
          ],
          [
            121.83276340937013,
            25.098048604398883
          ],
          [
            121.83275589468795,
            25.098348592102376
          ],
          [
            121.83274101180061,
            25.098528474604407
          ],
          [
            121.8326860670194,
            25.09881788775171
          ],
          [
            121.83261806948943,
            25.09902931943457
          ],
          [
            121.83253583616076,
            25.09924760860232
          ],
          [
            121.83244039068158,
            25.099441968599557
          ],
          [
            121.83236219155711,
            25.099597893422533
          ],
          [
            121.83226949619359,
            25.099741700657013
          ],
          [
            121.83208419238053,
            25.099980837253188
          ],
          [
            121.83139372978482,
            25.100844638936593
          ],
          [
            121.830731039947,
            25.10164305069253
          ],
          [
            121.83020725117086,
            25.10220511728076
          ],
          [
            121.82996588462663,
            25.102490587392168
          ],
          [
            121.82978392302489,
            25.102761232215386
          ],
          [
            121.82956448871008,
            25.103031877038603
          ],
          [
            121.8293938379983,
            25.103279759892494
          ],
          [
            121.82918568495029,
            25.10351914489128
          ],
          [
            121.82897282724153,
            25.103758547042368
          ],
          [
            121.82857738024548,
            25.104125196852735
          ],
          [
            121.82827287594341,
            25.10441272837067
          ],
          [
            121.82804086022098,
            25.10460253621092
          ],
          [
            121.82784638356688,
            25.10476257841753
          ],
          [
            121.827623777267,
            25.10489710033722
          ],
          [
            121.82741997275019,
            25.104997569480005
          ],
          [
            121.8266180641105,
            25.105377754475814
          ],
          [
            121.82560277095837,
            25.105709367602564
          ],
          [
            121.82521094703559,
            25.105799344317553
          ],
          [
            121.82439256197685,
            25.106020395773108
          ],
          [
            121.8239704431704,
            25.106128941988278
          ],
          [
            121.8224032646433,
            25.10656223141421
          ],
          [
            121.82158093065932,
            25.10681079222385
          ],
          [
            121.82134603581943,
            25.106877550261487
          ],
          [
            121.82057630518146,
            25.10710901117683
          ],
          [
            121.82003223883865,
            25.10733407428907
          ],
          [
            121.81892741924958,
            25.107820236166297
          ],
          [
            121.81780841909713,
            25.108357549483856
          ],
          [
            121.8171690991869,
            25.10866598058124
          ],
          [
            121.81681903407645,
            25.108792620442934
          ],
          [
            121.816497163175,
            25.108893702904204
          ],
          [
            121.81637284379558,
            25.10892767610978
          ],
          [
            121.8159933493447,
            25.10896384403268
          ],
          [
            121.81568022024643,
            25.108969141374978
          ],
          [
            121.8155116844149,
            25.108961649863836
          ],
          [
            121.81526765434816,
            25.108917340931512
          ],
          [
            121.81502951757983,
            25.10886007603938
          ],
          [
            121.81458281796483,
            25.10871322217264
          ],
          [
            121.81395268479172,
            25.108492805975906
          ],
          [
            121.81377068926156,
            25.108424486806673
          ],
          [
            121.8136168896159,
            25.10835616763744
          ],
          [
            121.81337978161642,
            25.10825146793312
          ],
          [
            121.81304646352515,
            25.108137833094858
          ],
          [
            121.81284692810662,
            25.10808482697899
          ],
          [
            121.8126192005358,
            25.10804458109533
          ],
          [
            121.81220225555256,
            25.107994379255253
          ],
          [
            121.81182820265504,
            25.108004379665925
          ],
          [
            121.81147742184575,
            25.10803966126207
          ],
          [
            121.81098233299988,
            25.108136067633446
          ],
          [
            121.81049592267969,
            25.108235595658616
          ],
          [
            121.81008079964266,
            25.10831607719055
          ],
          [
            121.8097388592395,
            25.108371832129986
          ],
          [
            121.80915402352343,
            25.108489688927527
          ],
          [
            121.80821399799522,
            25.1086669591281
          ],
          [
            121.80728366679102,
            25.10883857663441
          ],
          [
            121.80652869370961,
            25.10897992026277
          ],
          [
            121.80624299001508,
            25.109036570655963
          ]
        ],
        "type": "LineString"
      }
    },
    {
      "type": "Feature",
      "properties": {
        "station_id": "7290",
        "name": "福隆",
        "type": "reference_station"
      },
      "geometry": {
        "coordinates": [
          121.944621,
          25.015687
        ],
        "type": "Point"
      }
    },
    {
      "type": "Feature",
      "properties": {
        "station_id": "7300",
        "name": "貢寮",
        "type": "reference_station"
      },
      "geometry": {
        "coordinates": [
          121.908749,
          25.021829
        ],
        "type": "Point"
      }
    },
    {
      "type": "Feature",
      "properties": {
        "station_id": "7310",
        "name": "雙溪",
        "type": "reference_station"
      },
      "geometry": {
        "coordinates": [
          121.866816,
          25.038463
        ],
        "type": "Point"
      }
    },
    {
      "type": "Feature",
      "properties": {
        "station_id": "7320",
        "name": "牡丹",
        "type": "reference_station"
      },
      "geometry": {
        "coordinates": [
          121.851905,
          25.0586
        ],
        "type": "Point"
      }
    },
    {
      "type": "Feature",
      "properties": {
        "station_id": "7350",
        "name": "猴硐",
        "type": "reference_station"
      },
      "geometry": {
        "coordinates": [
          121.82724,
          25.087149
        ],
        "type": "Point"
      }
    },
    {
      "type": "Feature",
      "properties": {
        "station_id": "7360",
        "name": "瑞芳",
        "type": "reference_station"
      },
      "geometry": {
        "coordinates": [
          121.806254,
          25.109005
        ],
        "type": "Point"
      }
    }
  ]
}