{
  "type": "FeatureCollection",
  "features": [
    {
      "type": "Feature",
      "properties": {
        "name": "彰化北上手繪軌道（草稿）",
        "description": "請在 geojson.io 上調整中間的座標點"
      },
      "geometry": {
        "coordinates": [
          [
            120.538402,
            24.081859
          ],
          [
            120.5393604873062,
            24.083503881416824
          ],
          [
            120.53984149516273,
            24.08426316120316
          ],
          [
            120.54035778708939,
            24.08497090104292
          ],
          [
            120.54091924135352,
            24.085750917921565
          ],
          [
            120.54101885754639,
            24.08586420646612
          ],
          [
            120.54125450875253,
            24.08608751881045
          ],
          [
            120.54150888224032,
            24.086300575837562
          ],
          [
            120.5418025725215,
            24.08650508679272
          ],
          [
            120.54214868519088,
            24.08671301617583
          ],
          [
            120.5424411967738,
            24.0868608943466
          ],
          [
            120.54308597568632,
            24.087121926160243
          ],
          [
            120.54401674271278,
            24.08749808120144
          ],
          [
            120.5443533204906,
            24.087637956627333
          ],
          [
            120.54501291927409,
            24.087879825122393
          ],
          [
            120.54594272027266,
            24.08821962532948
          ],
          [
            120.54723244805314,
            24.088693871007102
          ],
          [
            120.54854267150728,
            24.08916811668472
          ],
          [
            120.55141099026496,
            24.09020376481685
          ],
          [
            120.55439137679124,
            24.09133281525758
          ],
          [
            120.55809667575014,
            24.092674566132242
          ]
        ],
        "type": "LineString"
      }
    }
  ]
}