{
  "type": "FeatureCollection",
  "features": [
    {
      "type": "Feature",
      "properties": {
        "name": "手繪區段 1 (清水→臺中港)",
        "gap_id": 1,
        "start_index": 419,
        "end_index": 420,
        "gap_distance_m": 1521,
        "priority": "🔴 必須",
        "instruction": "請繪製從起點到終點的軌道座標"
      },
      "geometry": {
        "coordinates": [
          [
            120.588469,
            24.281948
          ],
          [
            120.59253270150987,
            24.28676874795911
          ],
          [
            120.59498693898561,
            24.28965481567764
          ],
          [
            120.59622156410367,
            24.29111335512591
          ],
          [
            120.59699708132578,
            24.29205315266915
          ],
          [
            120.597279,
            24.292445
          ]
        ],
        "type": "LineString"
      }
    },
    {
      "type": "Feature",
      "properties": {
        "name": "手繪區段 2 (臺中港站附近)",
        "gap_id": 2,
        "start_index": 422,
        "end_index": 423,
        "gap_distance_m": 743,
        "priority": "🟡 建議",
        "instruction": "請繪製從起點到終點的軌道座標"
      },
      "geometry": {
        "coordinates": [
          [
            120.60043,
            24.297954
          ],
          [
            120.60062908117213,
            24.29833636552536
          ],
          [
            120.6010542325535,
            24.299362617242735
          ],
          [
            120.60144262508662,
            24.300525688008342
          ],
          [
            120.60182932183066,
            24.30168022835314
          ],
          [
            120.60207741532068,
            24.302433785815808
          ],
          [
            120.60224580735549,
            24.30296011417657
          ],
          [
            120.60234872377976,
            24.30326751357773
          ],
          [
            120.60246594559311,
            24.303632651105456
          ],
          [
            120.60257294927146,
            24.303974507014658
          ],
          [
            120.60266851476045,
            24.304269249785996
          ]
        ],
        "type": "LineString"
      }
    }
  ]
}