{
  "type": "FeatureCollection",
  "features": [
    {
      "type": "Feature",
      "properties": {
        "name": "手繪區段",
        "start_station": "追分 (2260)",
        "end_station": "彰化 (3360)",
        "gap_distance_m": 5526.048972552841,
        "instruction": "請繪製從起點到終點的軌道座標"
      },
      "geometry": {
        "coordinates": [
          [
            120.57013559112698,
            24.12021846103429
          ],
          [
            120.5703564146217,
            24.120136638319803
          ],
          [
            120.57079925854674,
            24.120001818504036
          ],
          [
            120.5716576208063,
            24.11976958857385
          ],
          [
            120.5726468014482,
            24.119510882645955
          ],
          [
            120.57399674786117,
            24.11915407435737
          ],
          [
            120.57471049587501,
            24.118957035791464
          ],
          [
            120.57491447326657,
            24.118899612788546
          ],
          [
            120.57503396520724,
            24.118860997058086
          ],
          [
            120.57522244858173,
            24.11879799765517
          ],
          [
            120.57542309680392,
            24.118721119674237
          ],
          [
            120.57575209464491,
            24.118590853018063
          ],
          [
            120.57606258641268,
            24.118418762211512
          ],
          [
            120.57623744212154,
            24.118323726037488
          ],
          [
            120.57635198380285,
            24.118249866484216
          ],
          [
            120.57662649508731,
            24.11807819151494
          ],
          [
            120.57678786604816,
            24.117976244224597
          ],
          [
            120.57686226866358,
            24.117916085790014
          ],
          [
            120.57698008018208,
            24.117825521783015
          ],
          [
            120.57708577758848,
            24.117738643321424
          ],
          [
            120.57723882622787,
            24.1176040229253
          ],
          [
            120.57747263561969,
            24.11738279204554
          ],
          [
            120.57767788640851,
            24.117164469218757
          ],
          [
            120.57785890897546,
            24.116955360300743
          ],
          [
            120.57819077991888,
            24.116508401936763
          ],
          [
            120.57833577118241,
            24.11626922022799
          ],
          [
            120.57846580229855,
            24.116025942197858
          ],
          [
            120.57856573518237,
            24.11581881068099
          ],
          [
            120.57867509282599,
            24.115557915547196
          ],
          [
            120.57876501190651,
            24.115313687166392
          ],
          [
            120.57884786241958,
            24.11503720049045
          ],
          [
            120.57894123180961,
            24.114628092471385
          ],
          [
            120.57898040884538,
            24.11435662053739
          ],
          [
            120.57900653545798,
            24.114124384033758
          ],
          [
            120.57901758307327,
            24.113940318398114
          ],
          [
            120.57901920631534,
            24.113575611618668
          ],
          [
            120.5789982110614,
            24.11327627986138
          ],
          [
            120.57896655676163,
            24.113021276267656
          ],
          [
            120.57892447277393,
            24.112756753065618
          ],
          [
            120.57887195909738,
            24.11253824133844
          ],
          [
            120.57881596885824,
            24.11236098140014
          ],
          [
            120.57871479612155,
            24.11203204870261
          ],
          [
            120.57858672212676,
            24.111631715138863
          ],
          [
            120.57836446420211,
            24.11093070628816
          ],
          [
            120.5779269004517,
            24.109602584774805
          ],
          [
            120.57675360734797,
            24.106085431864898
          ],
          [
            120.5759866460015,
            24.103742035161993
          ],
          [
            120.57577067083926,
            24.103161191077533
          ],
          [
            120.57565891994,
            24.102883845174645
          ],
          [
            120.57552855392028,
            24.102596750061043
          ],
          [
            120.5754069856226,
            24.10233430447881
          ],
          [
            120.57521545053888,
            24.101993653644286
          ],
          [
            120.57497828812411,
            24.101567339932537
          ],
          [
            120.57475452105967,
            24.101213599399387
          ],
          [
            120.5743639311603,
            24.100706251229266
          ],
          [
            120.57398797891997,
            24.100243831746887
          ],
          [
            120.57343443456888,
            24.099602715846796
          ],
          [
            120.57302468504142,
            24.09921357979905
          ],
          [
            120.57263298341553,
            24.098877956266918
          ],
          [
            120.57223284508424,
            24.098536677137957
          ],
          [
            120.57191425873542,
            24.098304582934237
          ],
          [
            120.57159895470184,
            24.09809073712743
          ],
          [
            120.57114216110924,
            24.09781939362319
          ],
          [
            120.57070542016665,
            24.0975561536914
          ],
          [
            120.57045421899423,
            24.09741550083943
          ],
          [
            120.57021932821687,
            24.09729966296522
          ],
          [
            120.57002374173747,
            24.097203578843164
          ],
          [
            120.56920529993872,
            24.09686796316689
          ],
          [
            120.56709038295904,
            24.096095316106712
          ],
          [
            120.56612675159701,
            24.09572727181878
          ],
          [
            120.56565608501845,
            24.095519505741425
          ],
          [
            120.56516296471689,
            24.095317596018006
          ],
          [
            120.56420504198292,
            24.094974313500067
          ],
          [
            120.56328755501511,
            24.09462839448082
          ],
          [
            120.55951650676926,
            24.09319486881316
          ],
          [
            120.55337755904826,
            24.09094472595209
          ],
          [
            120.5524897692477,
            24.090613376120373
          ],
          [
            120.55184627113834,
            24.090367340350316
          ],
          [
            120.55142411114117,
            24.09020961235624
          ],
          [
            120.551031462895,
            24.09006385831347
          ],
          [
            120.54911000800965,
            24.089379064104914
          ],
          [
            120.54815758439547,
            24.089032210313455
          ],
          [
            120.54722579835266,
            24.088690589905916
          ],
          [
            120.5449586470759,
            24.087858719643933
          ],
          [
            120.54435105065889,
            24.087637269874133
          ],
          [
            120.5425134505747,
            24.086892478096935
          ],
          [
            120.54220655060988,
            24.08674711636522
          ],
          [
            120.54192420941001,
            24.086586807700968
          ],
          [
            120.54156409878578,
            24.086340553968526
          ],
          [
            120.5413554338827,
            24.086180245360932
          ],
          [
            120.54112411729196,
            24.085965781584918
          ],
          [
            120.54101382876313,
            24.085853647453362
          ],
          [
            120.54091642767679,
            24.085739552422694
          ],
          [
            120.54061491272404,
            24.08532898501354
          ],
          [
            120.53990555624678,
            24.084347183869603
          ],
          [
            120.53972009908537,
            24.08408696494303
          ],
          [
            120.53953464192395,
            24.083795291610386
          ],
          [
            120.53934143053115,
            24.08347545759591
          ],
          [
            120.53914821913835,
            24.083070672692
          ],
          [
            120.538402,
            24.081859
          ]
        ],
        "type": "LineString"
      }
    }
  ]
}