{
  "type": "FeatureCollection",
  "features": [
    {
      "type": "Feature",
      "properties": {
        "segment_id": "WL-M-XINWURI-WURI",
        "name": "新烏日-烏日段",
        "description": "從新烏日站到烏日站的手繪軌道，用於替換有問題的原始軌道",
        "from_station": "3325-新烏日",
        "to_station": "3320-烏日",
        "status": "待手繪"
      },
      "geometry": {
        "coordinates": [
          [
            120.61598,
            24.109618
          ],
          [
            120.6196025792799,
            24.10925414067286
          ],
          [
            120.623535,
            24.108862
          ]
        ],
        "type": "LineString"
      }
    },
    {
      "type": "Feature",
      "properties": {
        "segment_id": "WL-M-HOULI-TAIAN",
        "name": "后里-泰安段",
        "description": "從后里站到泰安站的手繪軌道，用於替換有繞路的原始軌道",
        "from_station": "3220-后里",
        "to_station": "3210-泰安",
        "status": "待手繪"
      },
      "geometry": {
        "coordinates": [
          [
            120.731723,
            24.303918
          ],
          [
            120.73171176162435,
            24.304370080938746
          ],
          [
            120.73175149910111,
            24.305088239093223
          ],
          [
            120.73182830992407,
            24.305525538696532
          ],
          [
            120.73196073076932,
            24.305971285124308
          ],
          [
            120.73213636806945,
            24.306502969054584
          ],
          [
            120.73240496285206,
            24.307267185014
          ],
          [
            120.73282224831979,
            24.30840413778255
          ],
          [
            120.73327482662233,
            24.309590433845294
          ],
          [
            120.73392828899098,
            24.311242868476313
          ],
          [
            120.73411066569471,
            24.31165080897416
          ],
          [
            120.73576520305714,
            24.31587956422674
          ],
          [
            120.73745456831341,
            24.320135001020006
          ],
          [
            120.73968721394408,
            24.32588725336673
          ],
          [
            120.74080344644062,
            24.328711235233897
          ],
          [
            120.74139978561902,
            24.33012438340034
          ],
          [
            120.74167949117884,
            24.330841062577477
          ],
          [
            120.741937,
            24.331551
          ]
        ],
        "type": "LineString"
      }
    }
  ]
}