{
  "type": "FeatureCollection",
  "features": [
    {
      "type": "Feature",
      "properties": {
        "name": "岡山手繪段",
        "start_idx": 3232,
        "end_idx": 3235
      },
      "geometry": {
        "coordinates": [
          [
            120.29994496021865,
            22.798288064858944
          ],
          [
            120.30003141943709,
            22.79743446681737
          ],
          [
            120.30011787865551,
            22.7965808687758
          ]
        ],
        "type": "LineString"
      }
    },
    {
      "type": "Feature",
      "properties": {
        "name": "大湖手繪段",
        "start_idx": 3058,
        "end_idx": 3099
      },
      "geometry": {
        "coordinates": [
          [
            120.25379146027451,
            22.894042401236703
          ],
          [
            120.25381421686825,
            22.892885303902297
          ],
          [
            120.25377776841623,
            22.891283246348436
          ],
          [
            120.25372919469382,
            22.88856898248433
          ],
          [
            120.2538090514201,
            22.8867456775519
          ],
          [
            120.2538728874377,
            22.8849653589717
          ],
          [
            120.25392935018044,
            22.88329904491176
          ],
          [
            120.25394745797156,
            22.881582206559685
          ],
          [
            120.2539405153108,
            22.881010194489413
          ],
          [
            120.25395936458474,
            22.880256637490476
          ],
          [
            120.25397532428346,
            22.87972366661999
          ],
          [
            120.25398692986259,
            22.879567781367847
          ],
          [
            120.25404626519818,
            22.878917132788622
          ],
          [
            120.25417177544776,
            22.878226619466467
          ],
          [
            120.25430254080756,
            22.87772175909917
          ],
          [
            120.25435954758755,
            22.87746794984622
          ],
          [
            120.25449444481178,
            22.877026758162877
          ],
          [
            120.25576362671923,
            22.87373361015265
          ]
        ],
        "type": "LineString"
      }
    },
    {
      "type": "Feature",
      "properties": {
        "name": "斗南手繪段",
        "start_idx": 1207,
        "end_idx": 1256
      },
      "geometry": {
        "coordinates": [
          [
            120.48742009571662,
            23.68053525670251
          ],
          [
            120.48480624736803,
            23.677371233779386
          ],
          [
            120.48223079148838,
            23.674183770425923
          ],
          [
            120.47707167555173,
            23.667915227392935
          ]
        ],
        "type": "LineString"
      }
    },
    {
      "type": "Feature",
      "properties": {
        "name": "林內手繪段",
        "start_idx": 843,
        "end_idx": 863
      },
      "geometry": {
        "coordinates": [
          [
            120.619437984164,
            23.76337767878317
          ],
          [
            120.61488651115081,
            23.75988284348133
          ],
          [
            120.61048119807747,
            23.756553255539718
          ]
        ],
        "type": "LineString"
      }
    }
  ]
}