{
  "type": "FeatureCollection",
  "features": [
    {
      "type": "Feature",
      "properties": {
        "track_id": "WL-ZY-KS-0",
        "name": "\u897f\u90e8\u5e79\u7dda (\u65b0\u5de6\u71df\u2192\u9ad8\u96c4)",
        "origin": "\u65b0\u5de6\u71df",
        "destination": "\u9ad8\u96c4",
        "direction": 0,
        "note": "\u624b\u7e6a\u8ecc\u9053 - \u57fa\u65bc\u885b\u661f\u5f71\u50cf\u4f30\u8a08"
      },
      "geometry": {
        "type": "LineString",
        "coordinates": [
          [
            120.307013,
            22.68727
          ],
          [
            120.3065,
            22.6855
          ],
          [
            120.3055,
            22.6835
          ],
          [
            120.304,
            22.6815
          ],
          [
            120.302,
            22.6795
          ],
          [
            120.3,
            22.6775
          ],
          [
            120.298,
            22.676
          ],
          [
            120.296,
            22.675
          ],
          [
            120.294066,
            22.674396
          ],
          [
            120.292,
            22.673
          ],
          [
            120.29,
            22.671
          ],
          [
            120.288,
            22.6685
          ],
          [
            120.286,
            22.6655
          ],
          [
            120.2845,
            22.6625
          ],
          [
            120.2835,
            22.659
          ],
          [
            120.2825,
            22.6555
          ],
          [
            120.282,
            22.652
          ],
          [
            120.2815,
            22.6485
          ],
          [
            120.2812,
            22.645
          ],
          [
            120.280924,
            22.641828
          ],
          [
            120.2815,
            22.641
          ],
          [
            120.283,
            22.6402
          ],
          [
            120.285,
            22.6397
          ],
          [
            120.287,
            22.6394
          ],
          [
            120.289,
            22.6392
          ],
          [
            120.291,
            22.6391
          ],
          [
            120.294149,
            22.639292
          ],
          [
            120.296,
            22.63935
          ],
          [
            120.298,
            22.6394
          ],
          [
            120.3,
            22.63945
          ],
          [
            120.302921,
            22.639475
          ]
        ]
      }
    }
  ]
}