{
  "type": "FeatureCollection",
  "features": [
    {
      "type": "Feature",
      "properties": {
        "name": "八堵→瑞芳",
        "stroke": "#00cccc",
        "stroke-width": 3
      },
      "geometry": {
        "coordinates": [
          [
            121.728959,
            25.108559
          ],
          [
            121.72993018355555,
            25.108929785626017
          ],
          [
            121.73042793235747,
            25.109113343806335
          ],
          [
            121.73089326242993,
            25.109267546779165
          ],
          [
            121.73125294291277,
            25.109317689957237
          ],
          [
            121.73173670873874,
            25.109339092119995
          ],
          [
            121.73207990017856,
            25.109294752280164
          ],
          [
            121.73241358954431,
            25.10923221901325
          ],
          [
            121.732844535097,
            25.109099967175013
          ],
          [
            121.73305091876315,
            25.10900385256714
          ],
          [
            121.73327996265886,
            25.108876959624443
          ],
          [
            121.73347555214274,
            25.108750454509824
          ],
          [
            121.73367114162662,
            25.108599802110753
          ],
          [
            121.73385560486392,
            25.108427886605767
          ],
          [
            121.73402673448643,
            25.108231823751844
          ],
          [
            121.7341911973015,
            25.108002558210842
          ],
          [
            121.73435566011655,
            25.10777329266984
          ],
          [
            121.73511701172538,
            25.10622431149936
          ],
          [
            121.73567913045682,
            25.10514379189444
          ],
          [
            121.73625017848518,
            25.104053237809495
          ],
          [
            121.73635385178696,
            25.10384070101485
          ],
          [
            121.73641572253752,
            25.10372416771032
          ],
          [
            121.73650786901509,
            25.103621342364164
          ],
          [
            121.73659732522037,
            25.103508202180343
          ],
          [
            121.7366984116052,
            25.103398572536822
          ],
          [
            121.7368756099429,
            25.103211326369546
          ],
          [
            121.7371053119317,
            25.103018797488872
          ],
          [
            121.73730766900653,
            25.10286310240418
          ],
          [
            121.73754502851406,
            25.102723255505108
          ],
          [
            121.73776841156969,
            25.102607634898497
          ],
          [
            121.73801738142032,
            25.10250278748621
          ],
          [
            121.73825151037084,
            25.102424818431977
          ],
          [
            121.73850892084114,
            25.10234567917115
          ],
          [
            121.73890105205021,
            25.102292670346998
          ],
          [
            121.73918245282924,
            25.102266165944542
          ],
          [
            121.74076985280166,
            25.102199343913785
          ],
          [
            121.74242486692579,
            25.102135058815485
          ],
          [
            121.74341933411313,
            25.102086117277
          ],
          [
            121.74372734623128,
            25.102054926890723
          ],
          [
            121.74405944308965,
            25.102012453250556
          ],
          [
            121.74461514657256,
            25.101910323470157
          ],
          [
            121.74485902829764,
            25.101838947033414
          ],
          [
            121.7463378413779,
            25.101420248525645
          ],
          [
            121.74702142879352,
            25.101207740326387
          ],
          [
            121.74815515634843,
            25.100902455015007
          ],
          [
            121.74848698849223,
            25.100816895699246
          ],
          [
            121.74893303697544,
            25.100672991211177
          ],
          [
            121.74936205769914,
            25.100571194709637
          ],
          [
            121.74969873241298,
            25.100511210843244
          ],
          [
            121.75004810912931,
            25.10047750248136
          ],
          [
            121.75046017233404,
            25.10048909863834
          ],
          [
            121.75100481217088,
            25.10055811977363
          ],
          [
            121.75173093694036,
            25.1007064317512
          ],
          [
            121.7523156655413,
            25.10085803584395
          ],
          [
            121.7530330447909,
            25.10108550736646
          ],
          [
            121.75345111156386,
            25.10126208227576
          ],
          [
            121.75373715019909,
            25.10141686576111
          ],
          [
            121.75397431753987,
            25.101565326988005
          ],
          [
            121.7543847936162,
            25.101849625620325
          ],
          [
            121.7548747381254,
            25.102178472801135
          ],
          [
            121.75559704874829,
            25.102665934355727
          ],
          [
            121.75588335476081,
            25.102802496888756
          ],
          [
            121.75618792788484,
            25.102932442721976
          ],
          [
            121.75668250339604,
            25.103037520101317
          ],
          [
            121.75717730669086,
            25.103070281986284
          ],
          [
            121.7577959816463,
            25.103033924865223
          ],
          [
            121.75827391247137,
            25.10298438322237
          ],
          [
            121.75901934273291,
            25.10289459560733
          ],
          [
            121.75981712033843,
            25.102798487591738
          ],
          [
            121.76094613334857,
            25.10268574306903
          ],
          [
            121.76206189432436,
            25.102578998693005
          ],
          [
            121.76292707533483,
            25.102508820595524
          ],
          [
            121.76385153064933,
            25.10244690032164
          ],
          [
            121.76421200833472,
            25.102448865465973
          ],
          [
            121.76445493180958,
            25.102462236105502
          ],
          [
            121.76724821670332,
            25.102675370370378
          ],
          [
            121.76863370079826,
            25.102792041934812
          ],
          [
            121.76975138447852,
            25.102908713499243
          ],
          [
            121.77346702821664,
            25.103184456983747
          ],
          [
            121.77640153114973,
            25.10343375680057
          ],
          [
            121.78005586694619,
            25.103726747987494
          ],
          [
            121.78050889321534,
            25.103781256654074
          ],
          [
            121.78093708377342,
            25.10388074481504
          ],
          [
            121.78146783436347,
            25.104009202908216
          ],
          [
            121.78193649567959,
            25.104148905857095
          ],
          [
            121.78238032128468,
            25.10431109850755
          ],
          [
            121.78274963975628,
            25.104529515276347
          ],
          [
            121.78364768468623,
            25.1052127135888
          ],
          [
            121.78406529471738,
            25.10561330620365
          ],
          [
            121.78436351551488,
            25.10595804183269
          ],
          [
            121.78487570808736,
            25.10670952449827
          ],
          [
            121.78524449354587,
            25.1074990053105
          ],
          [
            121.78563745024206,
            25.108304205232315
          ],
          [
            121.78595689891009,
            25.108935263731105
          ],
          [
            121.78606383925747,
            25.10914335276626
          ],
          [
            121.78626983200883,
            25.109465831644155
          ],
          [
            121.78640952367083,
            25.10966332373703
          ],
          [
            121.78651747033376,
            25.109802320015245
          ],
          [
            121.7866417459243,
            25.10995281634439
          ],
          [
            121.7867728175964,
            25.11009811379122
          ],
          [
            121.78690032355598,
            25.110228881943378
          ],
          [
            121.78701798678813,
            25.110345219393114
          ],
          [
            121.78715438440956,
            25.110468827062007
          ],
          [
            121.78756900972158,
            25.11078216766416
          ],
          [
            121.78806406588468,
            25.111156320442205
          ],
          [
            121.78872320719023,
            25.111646750192428
          ],
          [
            121.78937334662358,
            25.11212232863366
          ],
          [
            121.78968759360316,
            25.112307222657925
          ],
          [
            121.7900837591981,
            25.112508600120503
          ],
          [
            121.79030799439728,
            25.11260730410755
          ],
          [
            121.7905279600476,
            25.112696093185242
          ],
          [
            121.79074792569793,
            25.112769858618755
          ],
          [
            121.79106875886521,
            25.1128542113618
          ],
          [
            121.79167165616285,
            25.112987390882843
          ],
          [
            121.79177723678899,
            25.113013076482254
          ],
          [
            121.79188281741511,
            25.11302749915695
          ],
          [
            121.79203348842792,
            25.113048961158874
          ],
          [
            121.79220592721472,
            25.113059160239295
          ],
          [
            121.79327686396634,
            25.11319237987697
          ],
          [
            121.79399436404918,
            25.113257767704717
          ],
          [
            121.79435351751107,
            25.113258239091447
          ],
          [
            121.79499294002659,
            25.113213389382466
          ],
          [
            121.79519256416933,
            25.113190964535434
          ],
          [
            121.79558549928032,
            25.11309958551449
          ],
          [
            121.79651875780658,
            25.11286547346795
          ],
          [
            121.79746120185007,
            25.112614726935835
          ],
          [
            121.79790247929766,
            25.11249932837545
          ],
          [
            121.79827351978386,
            25.11237735072232
          ],
          [
            121.79855821854844,
            25.112287188314284
          ],
          [
            121.79888220669181,
            25.11214371769346
          ],
          [
            121.79921948483336,
            25.11196852155924
          ],
          [
            121.8011739114927,
            25.110784304512283
          ],
          [
            121.80186471035447,
            25.110346501332643
          ],
          [
            121.80211487446871,
            25.11019467127244
          ],
          [
            121.80243381964458,
            25.11003325955123
          ],
          [
            121.80276219521761,
            25.109915244341984
          ],
          [
            121.80313818844817,
            25.109797229132738
          ],
          [
            121.80455463589544,
            25.109411788764348
          ],
          [
            121.80505815207228,
            25.1092796337512
          ],
          [
            121.80656082884255,
            25.10897650418453
          ]
        ],
        "type": "LineString"
      }
    }
  ]
}