{
  "type": "FeatureCollection",
  "metadata": {
    "segment_id": "YL-7290-7300",
    "name": "福隆-貢寮",
    "from_station": "7290",
    "to_station": "7300",
    "source": "handdrawn",
    "created_at": "2026-01-10T16:30:45.577471",
    "point_count": 53
  },
  "features": [
    {
      "type": "Feature",
      "properties": {
        "segment_id": "YL-7290-7300",
        "name": "福隆-貢寮",
        "from_station": "7290",
        "to_station": "7300",
        "from_name": "福隆",
        "to_name": "貢寮",
        "status": "needs_drawing",
        "description": "請沿實際鐵路手繪 福隆 → 貢寮"
      },
      "geometry": {
        "coordinates": [
          [
            121.94459000227597,
            25.01571274906378
          ],
          [
            121.94334319998381,
            25.016122465313376
          ],
          [
            121.94274825869434,
            25.016338760760362
          ],
          [
            121.94219177664026,
            25.01654871961506
          ],
          [
            121.94191807876075,
            25.016653916091894
          ],
          [
            121.94114939716688,
            25.01700799827752
          ],
          [
            121.94081101853021,
            25.017163297624855
          ],
          [
            121.9405100756766,
            25.017304719134504
          ],
          [
            121.94010354147838,
            25.017492492727143
          ],
          [
            121.93995950383298,
            25.017563911977856
          ],
          [
            121.93950141233708,
            25.017741427805213
          ],
          [
            121.9393693511457,
            25.01779257597769
          ],
          [
            121.93894369649902,
            25.017909948009375
          ],
          [
            121.93848450884563,
            25.01800152765676
          ],
          [
            121.93804201183451,
            25.018074201499793
          ],
          [
            121.93760912022726,
            25.018098663147228
          ],
          [
            121.93639770518882,
            25.018062991457118
          ],
          [
            121.93508364988503,
            25.01799941676628
          ],
          [
            121.93418376270319,
            25.017967214080013
          ],
          [
            121.93354957511804,
            25.017947839062103
          ],
          [
            121.9326299899734,
            25.01790227468568
          ],
          [
            121.93140111337681,
            25.01780596175636
          ],
          [
            121.93031342089634,
            25.01763340548162
          ],
          [
            121.92965715868445,
            25.017531500346138
          ],
          [
            121.92925617431422,
            25.017508090720202
          ],
          [
            121.92892198837751,
            25.017505597483307
          ],
          [
            121.92846538841945,
            25.01753899678808
          ],
          [
            121.9280461670536,
            25.017598065969082
          ],
          [
            121.92773597042003,
            25.017636271696933
          ],
          [
            121.92732134858045,
            25.017710189642983
          ],
          [
            121.92705354721653,
            25.01778251316423
          ],
          [
            121.92685135087166,
            25.01783989361016
          ],
          [
            121.92643702952317,
            25.01798223592423
          ],
          [
            121.92579845619693,
            25.018216334124315
          ],
          [
            121.92431561600498,
            25.018840717919375
          ],
          [
            121.92368582120093,
            25.019091441179935
          ],
          [
            121.92317391374192,
            25.019270924876132
          ],
          [
            121.92269086024302,
            25.01942246832727
          ],
          [
            121.92199395492904,
            25.01961237665661
          ],
          [
            121.92161643555787,
            25.01970733087664
          ],
          [
            121.92132417855466,
            25.019777701875917
          ],
          [
            121.91996230672979,
            25.020098043599965
          ],
          [
            121.91947271820776,
            25.020218582136593
          ],
          [
            121.91919585098424,
            25.020293560005914
          ],
          [
            121.91808517574191,
            25.020594176695695
          ],
          [
            121.91711072476318,
            25.020852227704594
          ],
          [
            121.91622139611506,
            25.021087133991074
          ],
          [
            121.91546048516531,
            25.021237305635594
          ],
          [
            121.9148240807614,
            25.02134686144899
          ],
          [
            121.91453270267377,
            25.02137604661183
          ],
          [
            121.9113673631657,
            25.021452660982114
          ],
          [
            121.91007467386888,
            25.021498858101403
          ],
          [
            121.908749,
            25.021829
          ]
        ],
        "type": "LineString"
      }
    }
  ]
}