{
  "type": "FeatureCollection",
  "metadata": {
    "segment_id": "YL-7300-7310",
    "name": "貢寮-雙溪",
    "from_station": "7300",
    "to_station": "7310",
    "source": "handdrawn",
    "created_at": "2026-01-10T16:30:45.577945",
    "point_count": 46
  },
  "features": [
    {
      "type": "Feature",
      "properties": {
        "segment_id": "YL-7300-7310",
        "name": "貢寮-雙溪",
        "from_station": "7300",
        "to_station": "7310",
        "from_name": "貢寮",
        "to_name": "雙溪",
        "status": "needs_drawing",
        "description": "請沿實際鐵路手繪 貢寮 → 雙溪"
      },
      "geometry": {
        "coordinates": [
          [
            121.908749,
            25.021829
          ],
          [
            121.90765490245369,
            25.022222249316634
          ],
          [
            121.90628742706926,
            25.022846905615506
          ],
          [
            121.90469192533894,
            25.023481999412652
          ],
          [
            121.90417695769372,
            25.023638449618794
          ],
          [
            121.90384981131365,
            25.02373725849802
          ],
          [
            121.90313800645167,
            25.0238827237971
          ],
          [
            121.90172149593946,
            25.02398324121701
          ],
          [
            121.90046375648572,
            25.023949818472026
          ],
          [
            121.89988017411349,
            25.02387455498408
          ],
          [
            121.8980724147608,
            25.023379062785615
          ],
          [
            121.8972747379132,
            25.023231735019163
          ],
          [
            121.8962969780083,
            25.02319319427751
          ],
          [
            121.89573641316798,
            25.02323816632206
          ],
          [
            121.89342673323017,
            25.023651864541897
          ],
          [
            121.89281629854139,
            25.023747572220234
          ],
          [
            121.89173895912583,
            25.023874265472266
          ],
          [
            121.88726670206592,
            25.024169737840722
          ],
          [
            121.8839632408166,
            25.024347697091056
          ],
          [
            121.88256930451128,
            25.024472765695243
          ],
          [
            121.88173049017072,
            25.02461746443174
          ],
          [
            121.88101923421007,
            25.024810706579594
          ],
          [
            121.88027169499804,
            25.025065998761246
          ],
          [
            121.87823855655485,
            25.02594166048504
          ],
          [
            121.87768916938347,
            25.026165715675322
          ],
          [
            121.87658389870099,
            25.02654098342814
          ],
          [
            121.87398347178615,
            25.02723403951343
          ],
          [
            121.87344472357239,
            25.027387563961188
          ],
          [
            121.87272210796544,
            25.027496569089365
          ],
          [
            121.8719333249731,
            25.027619931747488
          ],
          [
            121.87019951121891,
            25.02807755687365
          ],
          [
            121.86959027717934,
            25.028253193986046
          ],
          [
            121.86911998788545,
            25.028428831098438
          ],
          [
            121.86865838263824,
            25.028651679826496
          ],
          [
            121.86826624976537,
            25.028937477200117
          ],
          [
            121.86785886091096,
            25.02933804597019
          ],
          [
            121.86686095688432,
            25.03073004888875
          ],
          [
            121.86648038150722,
            25.031578403076775
          ],
          [
            121.866321398055,
            25.032122552356853
          ],
          [
            121.8662245382366,
            25.03267788902305
          ],
          [
            121.86621283482809,
            25.033217530871838
          ],
          [
            121.8662329189865,
            25.033670128129508
          ],
          [
            121.86631063839917,
            25.034122725387178
          ],
          [
            121.86641346754031,
            25.03531112569934
          ],
          [
            121.86673576780134,
            25.03756852420191
          ],
          [
            121.86695432460837,
            25.038812866245458
          ]
        ],
        "type": "LineString"
      }
    }
  ]
}