{
  "type": "FeatureCollection",
  "metadata": {
    "segment_id": "YL-7310-7320",
    "name": "雙溪-牡丹",
    "from_station": "7310",
    "to_station": "7320",
    "source": "handdrawn",
    "created_at": "2026-01-10T16:30:45.578255",
    "point_count": 72
  },
  "features": [
    {
      "type": "Feature",
      "properties": {
        "segment_id": "YL-7310-7320",
        "name": "雙溪-牡丹",
        "from_station": "7310",
        "to_station": "7320",
        "from_name": "雙溪",
        "to_name": "牡丹",
        "status": "needs_drawing",
        "description": "請沿實際鐵路手繪 雙溪 → 牡丹"
      },
      "geometry": {
        "coordinates": [
          [
            121.86694856108292,
            25.0388755287916
          ],
          [
            121.86721610366023,
            25.040261141651968
          ],
          [
            121.86731113012414,
            25.04083824113839
          ],
          [
            121.86756657597884,
            25.042071380867306
          ],
          [
            121.86768144766728,
            25.042444840056238
          ],
          [
            121.86784988714832,
            25.04271532784555
          ],
          [
            121.86844075961156,
            25.043474099622287
          ],
          [
            121.86873326721556,
            25.04386409998212
          ],
          [
            121.86894221965406,
            25.044253759900265
          ],
          [
            121.86903629758118,
            25.044492039199383
          ],
          [
            121.86915135146837,
            25.044769911283147
          ],
          [
            121.86921436904294,
            25.044966128139713
          ],
          [
            121.8692673022314,
            25.045178799109486
          ],
          [
            121.86927324130033,
            25.04538674015874
          ],
          [
            121.8692374078216,
            25.045594681207994
          ],
          [
            121.8691699795285,
            25.04594844676737
          ],
          [
            121.86905794185083,
            25.046357127813778
          ],
          [
            121.86890276620586,
            25.046648730329743
          ],
          [
            121.86880592285925,
            25.04679747926125
          ],
          [
            121.86871225691073,
            25.046934713778263
          ],
          [
            121.86859113198344,
            25.047091913600074
          ],
          [
            121.86818166048896,
            25.047464268196066
          ],
          [
            121.86795785089973,
            25.047602607848365
          ],
          [
            121.86756589042422,
            25.04782018859553
          ],
          [
            121.86718005116799,
            25.04794931430429
          ],
          [
            121.86675895827615,
            25.04803482788667
          ],
          [
            121.86644511717574,
            25.048063617484225
          ],
          [
            121.86616519372427,
            25.048081233338188
          ],
          [
            121.86577055729539,
            25.048051088339086
          ],
          [
            121.86521299230253,
            25.047976423677362
          ],
          [
            121.8645105984767,
            25.047876364105296
          ],
          [
            121.86399129689896,
            25.04781097012087
          ],
          [
            121.86383630351858,
            25.04778849398149
          ],
          [
            121.86339018719302,
            25.04774015003801
          ],
          [
            121.8630526979104,
            25.047735365229343
          ],
          [
            121.86279672725816,
            25.047755302251613
          ],
          [
            121.86241610262496,
            25.047807505249843
          ],
          [
            121.86206218955807,
            25.047919400245366
          ],
          [
            121.86166085585626,
            25.048052785916006
          ],
          [
            121.86135746456904,
            25.048195851230673
          ],
          [
            121.86115012132535,
            25.048307107978996
          ],
          [
            121.86071408669466,
            25.048618462097153
          ],
          [
            121.86043616447444,
            25.0488986085596
          ],
          [
            121.86030235253293,
            25.049031466544967
          ],
          [
            121.85996691035218,
            25.049504387886067
          ],
          [
            121.85968551792428,
            25.05009760612831
          ],
          [
            121.85944216506701,
            25.050621901450217
          ],
          [
            121.85909070153039,
            25.05130675810377
          ],
          [
            121.85892828361236,
            25.051628509841457
          ],
          [
            121.8587525518441,
            25.052024352833932
          ],
          [
            121.85845535641502,
            25.0526860023001
          ],
          [
            121.85829724880855,
            25.053035780436765
          ],
          [
            121.85811631745955,
            25.0534148500188
          ],
          [
            121.85806382009662,
            25.05352626641926
          ],
          [
            121.85785688345455,
            25.053897287987272
          ],
          [
            121.85782188636279,
            25.053969079404737
          ],
          [
            121.85770890814959,
            25.05414769802185
          ],
          [
            121.85758950681392,
            25.054335154757577
          ],
          [
            121.85733200038163,
            25.054611522550914
          ],
          [
            121.85690902182174,
            25.054934411431297
          ],
          [
            121.85591643818654,
            25.055463129784012
          ],
          [
            121.85520906418151,
            25.055842027174393
          ],
          [
            121.85459842097023,
            25.056162505899785
          ],
          [
            121.85438354303618,
            25.05629532731554
          ],
          [
            121.85378335410502,
            25.05669979479242
          ],
          [
            121.85360830000886,
            25.056865710242057
          ],
          [
            121.85309450264958,
            25.057519544273983
          ],
          [
            121.85261515159624,
            25.058047121012912
          ],
          [
            121.85242036334753,
            25.058254336843614
          ],
          [
            121.85219436642288,
            25.05844489638971
          ],
          [
            121.85204595559398,
            25.058551994812607
          ],
          [
            121.85191245523494,
            25.058632079176604
          ]
        ],
        "type": "LineString"
      }
    }
  ]
}