{
  "type": "FeatureCollection",
  "metadata": {
    "segment_id": "YL-7350-7360",
    "name": "猴硐-瑞芳",
    "from_station": "7350",
    "to_station": "7360",
    "source": "handdrawn",
    "created_at": "2026-01-10T16:30:45.578579",
    "point_count": 85
  },
  "features": [
    {
      "type": "Feature",
      "properties": {
        "segment_id": "YL-7350-7360",
        "name": "猴硐-瑞芳",
        "from_station": "7350",
        "to_station": "7360",
        "from_name": "猴硐",
        "to_name": "瑞芳",
        "status": "needs_drawing",
        "description": "請沿實際鐵路手繪 猴硐 → 瑞芳"
      },
      "geometry": {
        "coordinates": [
          [
            121.82724,
            25.08707765906019
          ],
          [
            121.82760230727882,
            25.08763591547595
          ],
          [
            121.82804104998952,
            25.08827469652106
          ],
          [
            121.82825240667475,
            25.088536378640995
          ],
          [
            121.82856678464017,
            25.089031598406336
          ],
          [
            121.82882737404285,
            25.0893865234794
          ],
          [
            121.82941359963684,
            25.089832258788974
          ],
          [
            121.83006813483995,
            25.090414095293752
          ],
          [
            121.83038795294377,
            25.090773227442728
          ],
          [
            121.83077328371773,
            25.09133634913158
          ],
          [
            121.83102742775475,
            25.091933415103508
          ],
          [
            121.8311954855412,
            25.092467028824608
          ],
          [
            121.83134099308656,
            25.093018404923335
          ],
          [
            121.83146156358859,
            25.093504425527783
          ],
          [
            121.83159979809511,
            25.093936023622483
          ],
          [
            121.83212648865091,
            25.095605582980365
          ],
          [
            121.83247088421001,
            25.09671727559838
          ],
          [
            121.83270844076331,
            25.097542044088456
          ],
          [
            121.83274697737667,
            25.097785315434542
          ],
          [
            121.83276340937013,
            25.098048604398883
          ],
          [
            121.83275589468795,
            25.098348592102376
          ],
          [
            121.83274101180061,
            25.098528474604407
          ],
          [
            121.8326860670194,
            25.09881788775171
          ],
          [
            121.83261806948943,
            25.09902931943457
          ],
          [
            121.83253583616076,
            25.09924760860232
          ],
          [
            121.83244039068158,
            25.099441968599557
          ],
          [
            121.83236219155711,
            25.099597893422533
          ],
          [
            121.83226949619359,
            25.099741700657013
          ],
          [
            121.83208419238053,
            25.099980837253188
          ],
          [
            121.83139372978482,
            25.100844638936593
          ],
          [
            121.830731039947,
            25.10164305069253
          ],
          [
            121.83020725117086,
            25.10220511728076
          ],
          [
            121.82996588462663,
            25.102490587392168
          ],
          [
            121.82978392302489,
            25.102761232215386
          ],
          [
            121.82956448871008,
            25.103031877038603
          ],
          [
            121.8293938379983,
            25.103279759892494
          ],
          [
            121.82918568495029,
            25.10351914489128
          ],
          [
            121.82897282724153,
            25.103758547042368
          ],
          [
            121.82857738024548,
            25.104125196852735
          ],
          [
            121.82827287594341,
            25.10441272837067
          ],
          [
            121.82804086022098,
            25.10460253621092
          ],
          [
            121.82784638356688,
            25.10476257841753
          ],
          [
            121.827623777267,
            25.10489710033722
          ],
          [
            121.82741997275019,
            25.104997569480005
          ],
          [
            121.8266180641105,
            25.105377754475814
          ],
          [
            121.82560277095837,
            25.105709367602564
          ],
          [
            121.82521094703559,
            25.105799344317553
          ],
          [
            121.82439256197685,
            25.106020395773108
          ],
          [
            121.8239704431704,
            25.106128941988278
          ],
          [
            121.8224032646433,
            25.10656223141421
          ],
          [
            121.82158093065932,
            25.10681079222385
          ],
          [
            121.82134603581943,
            25.106877550261487
          ],
          [
            121.82057630518146,
            25.10710901117683
          ],
          [
            121.82003223883865,
            25.10733407428907
          ],
          [
            121.81892741924958,
            25.107820236166297
          ],
          [
            121.81780841909713,
            25.108357549483856
          ],
          [
            121.8171690991869,
            25.10866598058124
          ],
          [
            121.81681903407645,
            25.108792620442934
          ],
          [
            121.816497163175,
            25.108893702904204
          ],
          [
            121.81637284379558,
            25.10892767610978
          ],
          [
            121.8159933493447,
            25.10896384403268
          ],
          [
            121.81568022024643,
            25.108969141374978
          ],
          [
            121.8155116844149,
            25.108961649863836
          ],
          [
            121.81526765434816,
            25.108917340931512
          ],
          [
            121.81502951757983,
            25.10886007603938
          ],
          [
            121.81458281796483,
            25.10871322217264
          ],
          [
            121.81395268479172,
            25.108492805975906
          ],
          [
            121.81377068926156,
            25.108424486806673
          ],
          [
            121.8136168896159,
            25.10835616763744
          ],
          [
            121.81337978161642,
            25.10825146793312
          ],
          [
            121.81304646352515,
            25.108137833094858
          ],
          [
            121.81284692810662,
            25.10808482697899
          ],
          [
            121.8126192005358,
            25.10804458109533
          ],
          [
            121.81220225555256,
            25.107994379255253
          ],
          [
            121.81182820265504,
            25.108004379665925
          ],
          [
            121.81147742184575,
            25.10803966126207
          ],
          [
            121.81098233299988,
            25.108136067633446
          ],
          [
            121.81049592267969,
            25.108235595658616
          ],
          [
            121.81008079964266,
            25.10831607719055
          ],
          [
            121.8097388592395,
            25.108371832129986
          ],
          [
            121.80915402352343,
            25.108489688927527
          ],
          [
            121.80821399799522,
            25.1086669591281
          ],
          [
            121.80728366679102,
            25.10883857663441
          ],
          [
            121.80652869370961,
            25.10897992026277
          ],
          [
            121.80624299001508,
            25.109036570655963
          ]
        ],
        "type": "LineString"
      }
    }
  ]
}